{"type": "Feature", "properties": {"role": "candidate", "core_id": 5185, "public_id": "29f7a6de-8a50-42d2-bc07-6246d61027e0", "is_proposed_survivor": true, "source_coverage_pct": 99.92999999999999, "candidate_coverage_pct": 99.48, "centroid_dist_m": 1.4}, "geometry": {"type": "MultiPolygon", "coordinates": [[[[96.2624103, 16.8791386], [96.2637806, 16.8782501], [96.2645931, 16.8777885], [96.2654915, 16.8771496], [96.2670593, 16.8758125], [96.2685413, 16.8745899], [96.2691898, 16.8740635], [96.2705593, 16.8729115], [96.2718468, 16.871851], [96.2728227, 16.8729115], [96.2734833, 16.8736439], [96.2743626, 16.8745708], [96.2752508, 16.8755212], [96.2760837, 16.8764852], [96.2712421, 16.8804607], [96.266759, 16.8840471], [96.2665111, 16.8837673], [96.2624103, 16.8791386]]]]}}