{"type": "Feature", "properties": {"source_pcode": "MMR013018701525", "entity_type": "ward", "name_en": "No (105) Ward", "name_my": "\u1021\u1019\u103e\u1010\u103a (\u1041\u1040\u1045) \u101b\u1015\u103a\u1000\u103d\u1000\u103a", "role": "source", "pcode": "MMR013018701525"}, "geometry": {"type": "Polygon", "coordinates": [[[96.26241031438457, 16.87913864643144], [96.26675904009767, 16.88404714436029], [96.27608366702766, 16.876485190439208], [96.27184677111165, 16.871850967747992], [96.26549148614322, 16.87714958168789], [96.26241031438457, 16.87913864643144]]]}}