{"type": "Feature", "properties": {"source_pcode": "MMR007008701505", "entity_type": "ward", "name_en": "Gant Gaw Waing Ward", "name_my": "\u1002\u1014\u103a\u1037\u1002\u1031\u102b\u103a\u101d\u102d\u102f\u1004\u103a\u1038\u101b\u1015\u103a\u1000\u103d\u1000\u103a", "role": "source", "pcode": "MMR007008701505"}, "geometry": {"type": "Polygon", "coordinates": [[[96.87420413654394, 17.923560781779088], [96.87455409910172, 17.926467598315924], [96.87521400295401, 17.926937145287695], [96.8753345623117, 17.927850858314006], [96.8764195965303, 17.927857203543226], [96.87672700009972, 17.929293062217308], [96.87861787844571, 17.928709301117234], [96.88122758594602, 17.929170376448496], [96.88134127300259, 17.928136843373515], [96.8801102985089, 17.92807973630937], [96.87982476318814, 17.926385560073125], [96.88040852428821, 17.926150786587296], [96.87884759786846, 17.924666002919537], [96.87829556291507, 17.923485790260766], [96.87420413654394, 17.923560781779088]]]}}