{"type": "FeatureCollection", "features": [{"type": "Feature", "properties": {"source_pcode": "MMR010018701504", "entity_type": "ward", "name_en": "Zay Ward", "name_my": "ဈေးရပ်ကွက်"}, "geometry": {"type": "Polygon", "coordinates": [[[95.43951307339381, 21.281562482329154], [95.44065752155456, 21.281763538937472], [95.44070323031474, 21.282798219056872], [95.44003422027788, 21.28338412225696], [95.44020142607656, 21.28358817513179], [95.4417671114183, 21.283264568435015], [95.44215258410122, 21.28358341620964], [95.4429425651553, 21.283136077540632], [95.44537032595144, 21.283140294958343], [95.44540659682559, 21.27762924411382], [95.44010211483146, 21.276612039273857], [95.4429431912726, 21.280642846217685], [95.44059704272075, 21.280680917593827], [95.43932165162171, 21.28103783674476], [95.43951307339381, 21.281562482329154]]]}}]}