{"type": "FeatureCollection", "features": [{"type": "Feature", "properties": {"source_pcode": "MMR018002701509", "entity_type": "ward", "name_en": "Ba La Theik Di Ward", "name_my": "ဗလသိဒ္ဓိရပ်ကွက်"}, "geometry": {"type": "Polygon", "coordinates": [[[96.073614857763, 19.737242487646483], [96.074749664558, 19.735031973920456], [96.07393305488091, 19.73457919673956], [96.06867920497996, 19.733500507750247], [96.0678289442472, 19.732536032889186], [96.06409755281334, 19.73118251615369], [96.06034752226805, 19.731230105373925], [96.05861527465584, 19.73069710610855], [96.05536968984393, 19.732810067481747], [96.05452260172586, 19.731725033263157], [96.0543798340654, 19.732562603537136], [96.05191471246349, 19.73296235298613], [96.04832648526667, 19.732353210968594], [96.04615641682939, 19.732791031793685], [96.04515282546629, 19.733292452940756], [96.04364686464021, 19.736948652925662], [96.0481785853475, 19.73848529089633], [96.05000674537587, 19.738210732064314], [96.05245768519389, 19.738786635955982], [96.05343538249832, 19.738699580716517], [96.05395771393495, 19.738358056315747], [96.05707161288427, 19.737976352573526], [96.06033283608474, 19.73573300601879], [96.0643373770991, 19.73490932952239], [96.06487310164954, 19.735183888354587], [96.06514096392482, 19.736523199730524], [96.06730738858721, 19.73572827217032], [96.06855422615445, 19.736199405449323], [96.06957263546497, 19.73715118985177], [96.07050062525718, 19.736827583154934], [96.073614857763, 19.737242487646483]]]}}]}