{"type": "Feature", "properties": {"core_id": 6023, "public_id": "dda8330a-acd9-4e72-a9a5-d6786c100cca", "canonical_name": "\u1017\u101c\u101e\u102d\u1012\u1039\u1013\u102d\u101b\u1015\u103a\u1000\u103d\u1000\u103a", "aliases": "en:Ba La Theik Di Ward | my:\u1017\u101c\u101e\u102d\u1012\u1039\u1013\u102d\u101b\u1015\u103a\u1000\u103d\u1000\u103a", "parent_name": "\u1007\u1019\u1039\u1017\u1030\u101e\u102e\u101b\u102d", "overlap_of_source": 0.9844, "overlap_of_core": 0.9925, "centroid_dist_m": 9.4, "child_admins": 0, "settlements": 0, "postal": 0}, "geometry": {"type": "MultiPolygon", "coordinates": [[[[96.0436469, 19.7369487], [96.0440182, 19.7360598], [96.0445893, 19.734648], [96.0450176, 19.7336011], [96.0451528, 19.7332925], [96.0454616, 19.7332384], [96.0456996, 19.733067], [96.045947, 19.7329338], [96.0461564, 19.732791], [96.0464515, 19.7327339], [96.0468703, 19.732515], [96.0473176, 19.7324103], [96.0479267, 19.7323532], [96.0483265, 19.7323532], [96.0490974, 19.7325626], [96.0496971, 19.7327149], [96.0501444, 19.732791], [96.0513151, 19.7328672], [96.0516672, 19.7329052], [96.0519147, 19.7329624], [96.0524096, 19.7328767], [96.0531044, 19.732791], [96.0543798, 19.7325626], [96.0545226, 19.731725], [96.0548081, 19.7320962], [96.0553697, 19.7328101], [96.0561502, 19.7323056], [96.0574731, 19.7313348], [96.0583868, 19.7307257], [96.0586153, 19.7306971], [96.0594814, 19.7309731], [96.0603475, 19.7312301], [96.061404, 19.7312682], [96.0625652, 19.7312967], [96.063536, 19.7312206], [96.0640976, 19.7311825], [96.0648594, 19.7314573], [96.0654812, 19.7318254], [96.0660777, 19.7320665], [96.0670675, 19.7322568], [96.0678289, 19.732536], [96.0682731, 19.7329802], [96.0686792, 19.7335005], [96.0694153, 19.7337036], [96.0703163, 19.7339066], [96.0710904, 19.7341604], [96.0727528, 19.7343888], [96.0733239, 19.7345665], [96.0739331, 19.7345792], [96.0742376, 19.7348076], [96.0747497, 19.735032], [96.0743947, 19.7357373], [96.0736149, 19.7372425], [96.0732708, 19.7371803], [96.0715456, 19.7370973], [96.071112, 19.7369866], [96.0708353, 19.7368666], [96.0706323, 19.7368389], [96.0705006, 19.7368276], [96.0703388, 19.7368657], [96.0700723, 19.7369751], [96.0698344, 19.7370846], [96.0696916, 19.7371417], [96.0695726, 19.7371512], [96.0694394, 19.7370988], [96.069211, 19.7368133], [96.0689254, 19.7364897], [96.0685542, 19.7361994], [96.0682259, 19.736009], [96.0678927, 19.7358758], [96.0675786, 19.7357759], [96.0673074, 19.7357283], [96.066941, 19.7357378], [96.0663556, 19.7358758], [96.066032, 19.7360566], [96.065141, 19.7365232], [96.0650673, 19.7361616], [96.0650003, 19.7357665], [96.0649133, 19.7354384], [96.0648731, 19.7351839], [96.0647793, 19.7350098], [96.0646119, 19.7349227], [96.0643374, 19.7349093], [96.0635807, 19.7350165], [96.0624824, 19.7351973], [96.0615516, 19.7353714], [96.060748, 19.7355924], [96.0603328, 19.735733], [96.0600583, 19.7359339], [96.0595092, 19.7363156], [96.0583574, 19.7371393], [96.0577881, 19.7374875], [96.0572792, 19.7378558], [96.0570716, 19.7379764], [96.0568238, 19.7380098], [96.0562412, 19.7380701], [96.0548216, 19.7382576], [96.0539577, 19.7383581], [96.053797, 19.7384518], [96.0537032, 19.7385389], [96.0535626, 19.7386125], [96.0534354, 19.7386996], [96.0533282, 19.7386527], [96.0532613, 19.738579], [96.0531742, 19.7385857], [96.0530537, 19.738579], [96.0529197, 19.7386125], [96.0527791, 19.7386929], [96.0526519, 19.7386862], [96.0524577, 19.7387866], [96.0523238, 19.7386996], [96.0519889, 19.7385523], [96.051788, 19.7385322], [96.0515938, 19.7385723], [96.0512523, 19.7385322], [96.0510045, 19.7384116], [96.0507501, 19.7383581], [96.0503818, 19.7382442], [96.0500067, 19.7382107], [96.0494844, 19.7382174], [96.0491228, 19.7382174], [96.0487411, 19.7383313], [96.0484732, 19.7383848], [96.0481786, 19.7384853], [96.0479978, 19.738425], [96.0477299, 19.7382576], [96.0472545, 19.7381237], [96.0467723, 19.73805], [96.0462634, 19.7378826], [96.0458482, 19.7377755], [96.0455134, 19.737742], [96.045145, 19.7376214], [96.0444419, 19.7374138], [96.0438995, 19.7371259], [96.0436469, 19.7369487]]]]}}