{"type": "FeatureCollection", "features": [{"type": "Feature", "properties": {"source_pcode": "MMR005011701503", "entity_type": "ward", "name_en": "Ma Har Myaing Ward", "name_my": "မဟာမြိုင်ရပ်ကွက်"}, "geometry": {"type": "Polygon", "coordinates": [[[95.36497132682672, 22.94566939681595], [95.36510201667706, 22.947062518146858], [95.36474280496294, 22.948887506519956], [95.3659287050243, 22.948695092072622], [95.36653797699024, 22.948222906299023], [95.36774837373454, 22.94885023322407], [95.36821897093868, 22.948495699344868], [95.36910899585567, 22.949237386775692], [95.37162086784684, 22.949660273313494], [95.37151395680152, 22.950578736384628], [95.37258703648868, 22.950717605520612], [95.37262806600611, 22.949792863319622], [95.37587571011811, 22.950152660626493], [95.3758929699108, 22.948903765114768], [95.37692119254697, 22.948965407411976], [95.37698673028227, 22.948258220977998], [95.38193758080283, 22.94837559025192], [95.38194663934877, 22.9477716871887], [95.38850584945595, 22.94793564203808], [95.38855822170183, 22.945442060693768], [95.38227433542811, 22.9463786259563], [95.37884768258473, 22.946357249456963], [95.37547447098974, 22.94542523408597], [95.37023295335288, 22.94511313719568], [95.36775541708, 22.945143064294765], [95.36497132682672, 22.94566939681595]]]}}]}