{"type": "Feature", "properties": {"core_id": 6025, "public_id": "3a9ddc81-23ca-43a9-bbf7-8b2ce67cc57a", "canonical_name": "\u1017\u101c\u101e\u102d\u1012\u1039\u1013\u102d\u101b\u1015\u103a\u1000\u103d\u1000\u103a", "aliases": "en:Ba La Theik Di Ward | my:\u1017\u101c\u101e\u102d\u1012\u1039\u1013\u102d\u101b\u1015\u103a\u1000\u103d\u1000\u103a", "parent_name": "\u1007\u1019\u1039\u1017\u1030\u101e\u102e\u101b\u102d", "overlap_of_source": 0.3574, "overlap_of_core": 0.1147, "centroid_dist_m": 674.9, "child_admins": 0, "settlements": 0, "postal": 0}, "geometry": {"type": "MultiPolygon", "coordinates": [[[[96.0328425, 19.735999], [96.0367808, 19.7247726], [96.0458815, 19.7252211], [96.0469007, 19.7251504], [96.0484993, 19.7248474], [96.0551834, 19.7232921], [96.0564709, 19.7230901], [96.062994, 19.7224841], [96.0639381, 19.7224336], [96.0646033, 19.7225043], [96.0656762, 19.722878], [96.0669851, 19.7232416], [96.0708797, 19.7239486], [96.0723388, 19.7242919], [96.0731542, 19.7248777], [96.0746562, 19.7262916], [96.0767805, 19.7276752], [96.0757239, 19.7321176], [96.075654, 19.7324116], [96.0753214, 19.7338254], [96.074903, 19.7349161], [96.0694313, 19.7332397], [96.0653758, 19.7321894], [96.0613203, 19.7320481], [96.0572004, 19.7323712], [96.0558271, 19.7329367], [96.0541105, 19.732856], [96.0550546, 19.7368147], [96.0425285, 19.7363544], [96.0328425, 19.735999]]]]}}