{"type": "FeatureCollection", "features": [{"type": "Feature", "properties": {"source_pcode": "MMR018002701509", "entity_type": "ward", "name_en": "Ba La Theik Di Ward", "name_my": "\u1017\u101c\u101e\u102d\u1012\u1039\u1013\u102d\u101b\u1015\u103a\u1000\u103d\u1000\u103a"}, "geometry": {"type": "Polygon", "coordinates": [[[96.073614857763, 19.737242487646483], [96.074749664558, 19.735031973920456], [96.07393305488091, 19.73457919673956], [96.06867920497996, 19.733500507750247], [96.0678289442472, 19.732536032889186], [96.06409755281334, 19.73118251615369], [96.06034752226805, 19.731230105373925], [96.05861527465584, 19.73069710610855], [96.05536968984393, 19.732810067481747], [96.05452260172586, 19.731725033263157], [96.0543798340654, 19.732562603537136], [96.05191471246349, 19.73296235298613], [96.04832648526667, 19.732353210968594], [96.04615641682939, 19.732791031793685], [96.04515282546629, 19.733292452940756], [96.04364686464021, 19.736948652925662], [96.0481785853475, 19.73848529089633], [96.05000674537587, 19.738210732064314], [96.05245768519389, 19.738786635955982], [96.05343538249832, 19.738699580716517], [96.05395771393495, 19.738358056315747], [96.05707161288427, 19.737976352573526], [96.06033283608474, 19.73573300601879], [96.0643373770991, 19.73490932952239], [96.06487310164954, 19.735183888354587], [96.06514096392482, 19.736523199730524], [96.06730738858721, 19.73572827217032], [96.06855422615445, 19.736199405449323], [96.06957263546497, 19.73715118985177], [96.07050062525718, 19.736827583154934], [96.073614857763, 19.737242487646483]]]}}, {"type": "Feature", "properties": {"core_id": 6023, "public_id": "dda8330a-acd9-4e72-a9a5-d6786c100cca", "canonical_name": "\u1017\u101c\u101e\u102d\u1012\u1039\u1013\u102d\u101b\u1015\u103a\u1000\u103d\u1000\u103a", "aliases": "en:Ba La Theik Di Ward | my:\u1017\u101c\u101e\u102d\u1012\u1039\u1013\u102d\u101b\u1015\u103a\u1000\u103d\u1000\u103a", "parent_name": "\u1007\u1019\u1039\u1017\u1030\u101e\u102e\u101b\u102d", "overlap_of_source": 0.9844, "overlap_of_core": 0.9925, "centroid_dist_m": 9.4, "child_admins": 0, "settlements": 0, "postal": 0}, "geometry": {"type": "MultiPolygon", "coordinates": [[[[96.0436469, 19.7369487], [96.0440182, 19.7360598], [96.0445893, 19.734648], [96.0450176, 19.7336011], [96.0451528, 19.7332925], [96.0454616, 19.7332384], [96.0456996, 19.733067], [96.045947, 19.7329338], [96.0461564, 19.732791], [96.0464515, 19.7327339], [96.0468703, 19.732515], [96.0473176, 19.7324103], [96.0479267, 19.7323532], [96.0483265, 19.7323532], [96.0490974, 19.7325626], [96.0496971, 19.7327149], [96.0501444, 19.732791], [96.0513151, 19.7328672], [96.0516672, 19.7329052], [96.0519147, 19.7329624], [96.0524096, 19.7328767], [96.0531044, 19.732791], [96.0543798, 19.7325626], [96.0545226, 19.731725], [96.0548081, 19.7320962], [96.0553697, 19.7328101], [96.0561502, 19.7323056], [96.0574731, 19.7313348], [96.0583868, 19.7307257], [96.0586153, 19.7306971], [96.0594814, 19.7309731], [96.0603475, 19.7312301], [96.061404, 19.7312682], [96.0625652, 19.7312967], [96.063536, 19.7312206], [96.0640976, 19.7311825], [96.0648594, 19.7314573], [96.0654812, 19.7318254], [96.0660777, 19.7320665], [96.0670675, 19.7322568], [96.0678289, 19.732536], [96.0682731, 19.7329802], [96.0686792, 19.7335005], [96.0694153, 19.7337036], [96.0703163, 19.7339066], [96.0710904, 19.7341604], [96.0727528, 19.7343888], [96.0733239, 19.7345665], [96.0739331, 19.7345792], [96.0742376, 19.7348076], [96.0747497, 19.735032], [96.0743947, 19.7357373], [96.0736149, 19.7372425], [96.0732708, 19.7371803], [96.0715456, 19.7370973], [96.071112, 19.7369866], [96.0708353, 19.7368666], [96.0706323, 19.7368389], [96.0705006, 19.7368276], [96.0703388, 19.7368657], [96.0700723, 19.7369751], [96.0698344, 19.7370846], [96.0696916, 19.7371417], [96.0695726, 19.7371512], [96.0694394, 19.7370988], [96.069211, 19.7368133], [96.0689254, 19.7364897], [96.0685542, 19.7361994], [96.0682259, 19.736009], [96.0678927, 19.7358758], [96.0675786, 19.7357759], [96.0673074, 19.7357283], [96.066941, 19.7357378], [96.0663556, 19.7358758], [96.066032, 19.7360566], [96.065141, 19.7365232], [96.0650673, 19.7361616], [96.0650003, 19.7357665], [96.0649133, 19.7354384], [96.0648731, 19.7351839], [96.0647793, 19.7350098], [96.0646119, 19.7349227], [96.0643374, 19.7349093], [96.0635807, 19.7350165], [96.0624824, 19.7351973], [96.0615516, 19.7353714], [96.060748, 19.7355924], [96.0603328, 19.735733], [96.0600583, 19.7359339], [96.0595092, 19.7363156], [96.0583574, 19.7371393], [96.0577881, 19.7374875], [96.0572792, 19.7378558], [96.0570716, 19.7379764], [96.0568238, 19.7380098], [96.0562412, 19.7380701], [96.0548216, 19.7382576], [96.0539577, 19.7383581], [96.053797, 19.7384518], [96.0537032, 19.7385389], [96.0535626, 19.7386125], [96.0534354, 19.7386996], [96.0533282, 19.7386527], [96.0532613, 19.738579], [96.0531742, 19.7385857], [96.0530537, 19.738579], [96.0529197, 19.7386125], [96.0527791, 19.7386929], [96.0526519, 19.7386862], [96.0524577, 19.7387866], [96.0523238, 19.7386996], [96.0519889, 19.7385523], [96.051788, 19.7385322], [96.0515938, 19.7385723], [96.0512523, 19.7385322], [96.0510045, 19.7384116], [96.0507501, 19.7383581], [96.0503818, 19.7382442], [96.0500067, 19.7382107], [96.0494844, 19.7382174], [96.0491228, 19.7382174], [96.0487411, 19.7383313], [96.0484732, 19.7383848], [96.0481786, 19.7384853], [96.0479978, 19.738425], [96.0477299, 19.7382576], [96.0472545, 19.7381237], [96.0467723, 19.73805], [96.0462634, 19.7378826], [96.0458482, 19.7377755], [96.0455134, 19.737742], [96.045145, 19.7376214], [96.0444419, 19.7374138], [96.0438995, 19.7371259], [96.0436469, 19.7369487]]]]}}, {"type": "Feature", "properties": {"core_id": 6025, "public_id": "3a9ddc81-23ca-43a9-bbf7-8b2ce67cc57a", "canonical_name": "\u1017\u101c\u101e\u102d\u1012\u1039\u1013\u102d\u101b\u1015\u103a\u1000\u103d\u1000\u103a", "aliases": "en:Ba La Theik Di Ward | my:\u1017\u101c\u101e\u102d\u1012\u1039\u1013\u102d\u101b\u1015\u103a\u1000\u103d\u1000\u103a", "parent_name": "\u1007\u1019\u1039\u1017\u1030\u101e\u102e\u101b\u102d", "overlap_of_source": 0.3574, "overlap_of_core": 0.1147, "centroid_dist_m": 674.9, "child_admins": 0, "settlements": 0, "postal": 0}, "geometry": {"type": "MultiPolygon", "coordinates": [[[[96.0328425, 19.735999], [96.0367808, 19.7247726], [96.0458815, 19.7252211], [96.0469007, 19.7251504], [96.0484993, 19.7248474], [96.0551834, 19.7232921], [96.0564709, 19.7230901], [96.062994, 19.7224841], [96.0639381, 19.7224336], [96.0646033, 19.7225043], [96.0656762, 19.722878], [96.0669851, 19.7232416], [96.0708797, 19.7239486], [96.0723388, 19.7242919], [96.0731542, 19.7248777], [96.0746562, 19.7262916], [96.0767805, 19.7276752], [96.0757239, 19.7321176], [96.075654, 19.7324116], [96.0753214, 19.7338254], [96.074903, 19.7349161], [96.0694313, 19.7332397], [96.0653758, 19.7321894], [96.0613203, 19.7320481], [96.0572004, 19.7323712], [96.0558271, 19.7329367], [96.0541105, 19.732856], [96.0550546, 19.7368147], [96.0425285, 19.7363544], [96.0328425, 19.735999]]]]}}]}