{"type": "FeatureCollection", "features": [{"type": "Feature", "properties": {"source_pcode": "MMR013029701504", "entity_type": "ward", "name_en": "Taung Bet Paing Ward", "name_my": "တောင်ဘက်ပိုင်းရပ်ကွက်"}, "geometry": {"type": "Polygon", "coordinates": [[[96.01042960194798, 16.436709916840528], [96.00956109868082, 16.439101275151184], [96.01302569350588, 16.440055570411747], [96.0158453547977, 16.44212272716061], [96.015744227705, 16.442503440921598], [96.01619632529611, 16.44305666560541], [96.01561633167609, 16.443404661777606], [96.01578289394628, 16.4443177799385], [96.01518822698364, 16.44488785913785], [96.01395668788825, 16.444707591223906], [96.01253614916573, 16.445039526208575], [96.01247904216075, 16.445392876151406], [96.01338204772514, 16.445578473917347], [96.0134784161458, 16.44615668304158], [96.01277171626037, 16.44626732821331], [96.01217209177605, 16.44677772241954], [96.0122827369479, 16.44773069684635], [96.01197935586771, 16.448316044113138], [96.01363641203721, 16.450027351937365], [96.01437404496113, 16.450132048734986], [96.01564467721977, 16.449646638726676], [96.01666784563463, 16.450251021817166], [96.01807648633269, 16.44949911214178], [96.01849051305106, 16.449789406239066], [96.01916152082515, 16.449156469646088], [96.02004667986768, 16.447062543956235], [96.0212792409448, 16.445225599788614], [96.02121737486738, 16.444487966864646], [96.02210729298235, 16.442946076332817], [96.02214536514634, 16.441394668170343], [96.01873797680776, 16.441480328227673], [96.01768149590441, 16.44054282073057], [96.01588447664608, 16.43984410321957], [96.01460670608594, 16.438719807894408], [96.01042960194798, 16.436709916840528]]]}}]}