{"type": "FeatureCollection", "features": [{"type": "Feature", "properties": {"source_pcode": "MMR005011701503", "entity_type": "ward", "name_en": "Ma Har Myaing Ward", "name_my": "မဟာမြိုင်ရပ်ကွက်"}, "geometry": {"type": "Polygon", "coordinates": [[[95.38855822170183, 22.945442060693768], [95.38854570295989, 22.94431594981745], [95.38529539518964, 22.944348921704716], [95.38529013253446, 22.943806861102253], [95.38357277198185, 22.943812684158786], [95.38361215208562, 22.94436495295287], [95.38037260287877, 22.94440296762673], [95.3804059757905, 22.94189085274547], [95.38076934198455, 22.94191222709526], [95.38091362008191, 22.939192320741938], [95.3802937589927, 22.93880757929861], [95.37707413312245, 22.93868010781068], [95.37575782728283, 22.937872484177433], [95.37573916895656, 22.937209874774], [95.37490926775689, 22.93706995286101], [95.37055182180313, 22.937386544002095], [95.36846807608066, 22.936977853312946], [95.3677600631218, 22.93747288704054], [95.3661178743234, 22.93779068384793], [95.36380407413014, 22.941440396187378], [95.36308268157131, 22.94463589877773], [95.36419746362554, 22.94595013077367], [95.3672894093945, 22.945202918492893], [95.37023295335288, 22.94511313719568], [95.37547447098974, 22.94542523408597], [95.37884768258473, 22.946357249456963], [95.38227433542811, 22.9463786259563], [95.38855822170183, 22.945442060693768]]]}}]}