{"type": "Feature", "properties": {"core_id": 5113, "public_id": "47b76aab-40fa-49e9-96a0-f44e42b6d630", "canonical_name": "\u1010\u1031\u102c\u1004\u103a\u1018\u1000\u103a\u1015\u102d\u102f\u1004\u103a\u1038\u101b\u1015\u103a\u1000\u103d\u1000\u103a", "aliases": "en:Taung Bet Paing Ward | my:\u1010\u1031\u102c\u1004\u103a\u1018\u1000\u103a\u1015\u102d\u102f\u1004\u103a\u1038\u101b\u1015\u103a\u1000\u103d\u1000\u103a", "parent_name": "\u1000\u103d\u1019\u103a\u1038\u1001\u103c\u1036\u1000\u102f\u1014\u103a\u1038", "overlap_of_source": 0.0037, "overlap_of_core": 0.0073, "centroid_dist_m": 1062.2, "child_admins": 0, "settlements": 0, "postal": 0}, "geometry": {"type": "MultiPolygon", "coordinates": [[[[96.0053618, 16.4320772], [96.0055997, 16.431744], [96.0059519, 16.4315918], [96.0060946, 16.4318773], [96.0064563, 16.4322104], [96.0070369, 16.432515], [96.0078269, 16.4325721], [96.0077031, 16.433048], [96.0078078, 16.4332003], [96.0082933, 16.4333526], [96.0087216, 16.4333811], [96.0090198, 16.432791], [96.0092577, 16.4328719], [96.0093291, 16.4326673], [96.0096051, 16.4327815], [96.0101952, 16.4331241], [96.0116277, 16.4338998], [96.0122701, 16.4342568], [96.0125985, 16.4343496], [96.0129554, 16.4345566], [96.0135412, 16.4348512], [96.0136412, 16.4345609], [96.0142265, 16.434756], [96.0144835, 16.4348036], [96.0146263, 16.4349939], [96.0148737, 16.4346132], [96.0155781, 16.4337042], [96.0156732, 16.4335377], [96.0157018, 16.4333426], [96.0157779, 16.4331808], [96.0159445, 16.4330475], [96.0160444, 16.4329952], [96.0160873, 16.4328143], [96.0162824, 16.4324193], [96.0165108, 16.4325002], [96.0164489, 16.4327049], [96.016901, 16.4328001], [96.0167678, 16.433157], [96.0164585, 16.4337423], [96.0162062, 16.4340659], [96.0158255, 16.4347607], [96.0155733, 16.4352699], [96.0153829, 16.4356269], [96.0152782, 16.4360123], [96.0154734, 16.4361075], [96.016092, 16.4362455], [96.0170248, 16.4367071], [96.0168344, 16.4376637], [96.0164822, 16.4388582], [96.0167821, 16.4390438], [96.0166345, 16.4395482], [96.0174198, 16.4397909], [96.017415, 16.4403905], [96.0167982, 16.4402082], [96.0162628, 16.4400297], [96.0158845, 16.4398441], [96.0154705, 16.43948], [96.0150885, 16.4390161], [96.0146067, 16.4387198], [96.0139571, 16.4384093], [96.0129792, 16.438006], [96.0117549, 16.4374599], [96.0109626, 16.4370601], [96.0104296, 16.4367099], [96.0098407, 16.4363292], [96.0089543, 16.4359306], [96.0080085, 16.4354488], [96.007259, 16.4349372], [96.0064539, 16.4343205], [96.0067014, 16.4341302], [96.0067585, 16.4339493], [96.006473, 16.4335972], [96.0062969, 16.4333925], [96.006116, 16.4332022], [96.0056378, 16.4328005], [96.0053618, 16.4320772]]]]}}