{"type": "Feature", "properties": {"core_id": 6794, "public_id": "78361f3d-1c68-4771-9960-71409026dbc6", "canonical_name": "\u1019\u101f\u102c\u1019\u103c\u102d\u102f\u1004\u103a\u101b\u1015\u103a\u1000\u103d\u1000\u103a", "aliases": "en:Ma Har Myaing Ward | my:\u1019\u101f\u102c\u1019\u103c\u102d\u102f\u1004\u103a\u101b\u1015\u103a\u1000\u103d\u1000\u103a", "parent_name": "\u1010\u1014\u103a\u1037\u1006\u100a\u103a", "overlap_of_source": 0.9926, "overlap_of_core": 0.9922, "centroid_dist_m": 5.5, "child_admins": 0, "settlements": 0, "postal": 0}, "geometry": {"type": "MultiPolygon", "coordinates": [[[[95.3630827, 22.9446359], [95.3631041, 22.9445611], [95.3631789, 22.9443634], [95.363227, 22.9442832], [95.3634033, 22.9440588], [95.3634033, 22.9440053], [95.3634193, 22.943845], [95.3634567, 22.9435672], [95.3635048, 22.9434763], [95.3635743, 22.9433641], [95.3635422, 22.9432198], [95.363585, 22.9429794], [95.3637186, 22.9425679], [95.3637239, 22.9424503], [95.36374, 22.9422687], [95.36374, 22.9418038], [95.3637506, 22.9416541], [95.3638041, 22.9414404], [95.3638682, 22.9413068], [95.3639697, 22.9411144], [95.3640499, 22.940906], [95.3641193, 22.9407724], [95.3642743, 22.9406656], [95.3644289, 22.9405046], [95.364611, 22.9402808], [95.3648033, 22.9399816], [95.3649904, 22.9396663], [95.3650812, 22.9395381], [95.3651453, 22.9394312], [95.3652148, 22.9392602], [95.3652736, 22.938977], [95.3653537, 22.9387739], [95.3656369, 22.938309], [95.3658026, 22.9380739], [95.3661179, 22.9377907], [95.3662889, 22.9377586], [95.3666416, 22.9377479], [95.3668232, 22.9377266], [95.367021, 22.9376731], [95.3673576, 22.9375502], [95.3676147, 22.9374982], [95.3677601, 22.9374729], [95.3679212, 22.9374153], [95.3680076, 22.9373635], [95.3680997, 22.9372484], [95.3682609, 22.9371045], [95.3683069, 22.9370469], [95.3683817, 22.9370066], [95.3684681, 22.9369779], [95.3688307, 22.9370297], [95.3689286, 22.9370297], [95.3690782, 22.9370412], [95.3694524, 22.9370412], [95.3695507, 22.9370848], [95.3697172, 22.9371505], [95.369792, 22.9371793], [95.3699302, 22.9372254], [95.3700913, 22.9373232], [95.3702007, 22.9373405], [95.3703734, 22.937375], [95.3705518, 22.9373865], [95.3708511, 22.9373347], [95.3712195, 22.9372944], [95.3714555, 22.9372829], [95.3716915, 22.9372772], [95.3719506, 22.9372772], [95.3721463, 22.9372714], [95.3724399, 22.9372426], [95.3727967, 22.9372139], [95.3733263, 22.9371966], [95.3738271, 22.9371966], [95.3743394, 22.9371621], [95.3744948, 22.9371678], [95.3746733, 22.9372023], [95.3747596, 22.9371218], [95.3749093, 22.93707], [95.375341, 22.937139], [95.3757392, 22.9372099], [95.3757651, 22.9372746], [95.3757434, 22.9374819], [95.3757048, 22.9376965], [95.3757193, 22.9378074], [95.3757578, 22.9378725], [95.3759459, 22.9379448], [95.3761484, 22.9380364], [95.3764304, 22.9382871], [95.3765896, 22.9383691], [95.3768572, 22.9385234], [95.3769825, 22.9386102], [95.3770741, 22.9386801], [95.3771633, 22.938709], [95.3774454, 22.9387042], [95.3779661, 22.9386825], [95.3780843, 22.9386632], [95.3783446, 22.9386801], [95.3787955, 22.9386849], [95.3791667, 22.9387331], [95.3794874, 22.9388031], [95.3798182, 22.9388183], [95.3801815, 22.9388022], [95.3802938, 22.9388076], [95.3803472, 22.938877], [95.3803899, 22.9389786], [95.380422, 22.9390427], [95.3805503, 22.9390801], [95.3806464, 22.9391175], [95.3807961, 22.9391656], [95.3809136, 22.9391923], [95.3808869, 22.9397801], [95.3808548, 22.9410198], [95.3807693, 22.9419122], [95.3805823, 22.9419496], [95.380406, 22.9418909], [95.3804434, 22.9431306], [95.3804113, 22.9439642], [95.3803726, 22.944403], [95.3807159, 22.944397], [95.3820358, 22.9443863], [95.3836122, 22.944365], [95.3835728, 22.9438127], [95.3844137, 22.9437825], [95.3852901, 22.9437985], [95.3852954, 22.9443489], [95.3871352, 22.9443159], [95.3885457, 22.9443159], [95.3885582, 22.9454421], [95.3881892, 22.9454594], [95.3878301, 22.945483], [95.3874581, 22.9455364], [95.3867121, 22.9456989], [95.3862461, 22.9457844], [95.3851537, 22.9460045], [95.3847048, 22.9460986], [95.3842559, 22.9461777], [95.3840443, 22.9462076], [95.3835355, 22.9462953], [95.3830888, 22.946353], [95.3827596, 22.9463572], [95.3822743, 22.9463786], [95.3818853, 22.9463786], [95.3815946, 22.9463722], [95.3798096, 22.9463679], [95.3793372, 22.9463744], [95.3788477, 22.9463572], [95.3785313, 22.9463124], [95.3780674, 22.9462076], [95.3777169, 22.9461413], [95.3772509, 22.9460024], [95.3767122, 22.9457908], [95.3762526, 22.9456198], [95.3758486, 22.9454915], [95.3754745, 22.9454252], [95.3749935, 22.9453825], [95.3745296, 22.9453697], [95.3730803, 22.9453119], [95.3722509, 22.9452564], [95.3718512, 22.9452478], [95.370233, 22.9451131], [95.3689076, 22.9450939], [95.3682385, 22.945111], [95.3677554, 22.9451431], [95.3672894, 22.9452029], [95.3668234, 22.945297], [95.3663424, 22.9453803], [95.3659299, 22.9454808], [95.3654318, 22.9455749], [95.3649713, 22.9456694], [95.3648593, 22.9456899], [95.364722, 22.9457262], [95.3646147, 22.9457593], [95.3641975, 22.9459501], [95.3630827, 22.9446359]]]]}}