{"type": "FeatureCollection", "features": [{"type": "Feature", "properties": {"source_pcode": "MMR013018701526", "entity_type": "ward", "name_en": "No (106) Ward", "name_my": "\u1021\u1019\u103e\u1010\u103a (\u1041\u1040\u1046) \u101b\u1015\u103a\u1000\u103d\u1000\u103a"}, "geometry": {"type": "Polygon", "coordinates": [[[96.25893211442559, 16.890470504410295], [96.26675904009767, 16.88404714436029], [96.26241031438457, 16.87913864643144], [96.25457440538459, 16.88553560418484], [96.25893211442559, 16.890470504410295]]]}}, {"type": "Feature", "properties": {"core_id": 5182, "public_id": "79e13a25-4ab4-458e-acf0-a0f34ef59969", "canonical_name": "\u1021\u1019\u103e\u1010\u103a (\u1041\u1040\u1046) \u101b\u1015\u103a\u1000\u103d\u1000\u103a", "aliases": "en:No (106) Ward | my:\u1021\u1019\u103e\u1010\u103a (\u1041\u1040\u1046) \u101b\u1015\u103a\u1000\u103d\u1000\u103a", "parent_name": "\u1012\u1002\u102f\u1036\u1019\u103c\u102d\u102f\u1037\u101e\u1005\u103a (\u1010\u1031\u102c\u1004\u103a\u1015\u102d\u102f\u1004\u103a\u1038)", "overlap_of_source": 0.9993, "overlap_of_core": 0.996, "centroid_dist_m": 1.5, "child_admins": 0, "settlements": 0, "postal": 0}, "geometry": {"type": "MultiPolygon", "coordinates": [[[[96.2545744, 16.8855356], [96.2558002, 16.8845501], [96.2596397, 16.8813934], [96.2603893, 16.8807926], [96.2615719, 16.8798332], [96.2624103, 16.8791386], [96.2665111, 16.8837673], [96.266759, 16.8840471], [96.2623046, 16.8877348], [96.2618141, 16.8881125], [96.2589321, 16.8904705], [96.2582901, 16.8897675], [96.2572621, 16.8886634], [96.2564626, 16.8877497], [96.2553395, 16.8863982], [96.2545744, 16.8855356]]]]}}, {"type": "Feature", "properties": {"core_id": 5183, "public_id": "b463e80f-9d80-4de1-b135-1e73f108eacb", "canonical_name": "\u1021\u1019\u103e\u1010\u103a (\u1041\u1040\u1046) \u101b\u1015\u103a\u1000\u103d\u1000\u103a", "aliases": "en:No (106) Ward | my:\u1021\u1019\u103e\u1010\u103a (\u1041\u1040\u1046) \u101b\u1015\u103a\u1000\u103d\u1000\u103a", "parent_name": "\u1012\u1002\u102f\u1036\u1019\u103c\u102d\u102f\u1037\u101e\u1005\u103a (\u1010\u1031\u102c\u1004\u103a\u1015\u102d\u102f\u1004\u103a\u1038)", "overlap_of_source": 0.9993, "overlap_of_core": 0.996, "centroid_dist_m": 1.5, "child_admins": 0, "settlements": 0, "postal": 0}, "geometry": {"type": "MultiPolygon", "coordinates": [[[[96.2545744, 16.8855356], [96.2558002, 16.8845501], [96.2596397, 16.8813934], [96.2603893, 16.8807926], [96.2615719, 16.8798332], [96.2624103, 16.8791386], [96.2665111, 16.8837673], [96.266759, 16.8840471], [96.2623046, 16.8877348], [96.2618141, 16.8881125], [96.2589321, 16.8904705], [96.2582901, 16.8897675], [96.2572621, 16.8886634], [96.2564626, 16.8877497], [96.2553395, 16.8863982], [96.2545744, 16.8855356]]]]}}]}