{"type": "Feature", "properties": {"core_id": 5897, "public_id": "fd127513-b00a-49ba-9761-07474aed3328", "canonical_name": "\u1002\u1014\u103a\u1037\u1002\u1031\u102b\u103a\u101d\u102d\u102f\u1004\u103a\u1038\u101b\u1015\u103a\u1000\u103d\u1000\u103a", "aliases": "en:Gant Gaw Waing Ward | my:\u1002\u1014\u103a\u1037\u1002\u1031\u102b\u103a\u101d\u102d\u102f\u1004\u103a\u1038\u101b\u1015\u103a\u1000\u103d\u1000\u103a", "parent_name": "\u101b\u103d\u103e\u1031\u1000\u103b\u1004\u103a", "overlap_of_source": 0.9811, "overlap_of_core": 0.9828, "centroid_dist_m": 5.6, "child_admins": 0, "settlements": 0, "postal": 0}, "geometry": {"type": "MultiPolygon", "coordinates": [[[[96.8742041, 17.9235608], [96.8750369, 17.9234942], [96.8757698, 17.923437], [96.8764646, 17.9233752], [96.8766407, 17.9233752], [96.8772498, 17.9234037], [96.877621, 17.9234323], [96.87784, 17.9234418], [96.877978, 17.9235037], [96.878116, 17.9235037], [96.8782956, 17.9234858], [96.8783844, 17.9238348], [96.8785176, 17.9242282], [96.8788476, 17.924666], [96.8795456, 17.9254465], [96.8802182, 17.9260366], [96.8804085, 17.9261508], [96.8798248, 17.9263856], [96.8799263, 17.9270835], [96.8800532, 17.9277307], [96.8801103, 17.9280797], [96.8801357, 17.9281495], [96.8813413, 17.9281368], [96.8813286, 17.9284478], [96.8812276, 17.9291704], [96.881156, 17.9291535], [96.8805151, 17.9290202], [96.8799631, 17.9288743], [96.8793476, 17.928741], [96.879062, 17.9287283], [96.8788336, 17.9287093], [96.8786179, 17.9287093], [96.8783387, 17.9287601], [96.8775836, 17.9289758], [96.876727, 17.9292931], [96.876629, 17.9290691], [96.8765782, 17.9289042], [96.8764957, 17.9286948], [96.8764259, 17.9284283], [96.8763815, 17.9281745], [96.8764196, 17.9278572], [96.8757787, 17.9278572], [96.8753346, 17.9278509], [96.8752775, 17.9276668], [96.8752267, 17.9274257], [96.8752267, 17.9271529], [96.875214, 17.9269371], [96.8751442, 17.9268166], [96.8749538, 17.9266706], [96.8747318, 17.9265437], [96.8745541, 17.9264676], [96.8744843, 17.9258013], [96.8743637, 17.9247671], [96.8742041, 17.9235608]]]]}}