{"type": "Feature", "properties": {"core_id": 6797, "public_id": "30309448-fabf-4601-ae5c-48a8ed285394", "canonical_name": "\u1019\u101f\u102c\u1019\u103c\u102d\u102f\u1004\u103a\u101b\u1015\u103a\u1000\u103d\u1000\u103a", "aliases": "en:Ma Har Myaing Ward | my:\u1019\u101f\u102c\u1019\u103c\u102d\u102f\u1004\u103a\u101b\u1015\u103a\u1000\u103d\u1000\u103a", "parent_name": "\u1010\u1014\u103a\u1037\u1006\u100a\u103a", "overlap_of_source": 0.0024, "overlap_of_core": 0.0049, "centroid_dist_m": 597.5, "child_admins": 0, "settlements": 0, "postal": 0}, "geometry": {"type": "MultiPolygon", "coordinates": [[[[95.3647428, 22.9488875], [95.3647597, 22.9486368], [95.3648103, 22.9484415], [95.3648754, 22.9480895], [95.364906, 22.9479432], [95.3649574, 22.9477858], [95.3649935, 22.9476556], [95.3650876, 22.947265], [95.365102, 22.9470625], [95.365102, 22.9468986], [95.3650634, 22.9466406], [95.3651149, 22.9465515], [95.3651354, 22.9463559], [95.3650849, 22.9461365], [95.3650455, 22.9459345], [95.3649713, 22.9456694], [95.3654318, 22.9455749], [95.3659299, 22.9454808], [95.3663424, 22.9453803], [95.3668234, 22.945297], [95.3672894, 22.9452029], [95.3677554, 22.9451431], [95.3682385, 22.945111], [95.3689076, 22.9450939], [95.370233, 22.9451131], [95.3718512, 22.9452478], [95.3722509, 22.9452564], [95.3730803, 22.9453119], [95.3745296, 22.9453697], [95.3749935, 22.9453825], [95.3754745, 22.9454252], [95.3758486, 22.9454915], [95.3762526, 22.9456198], [95.3767122, 22.9457908], [95.3772509, 22.9460024], [95.3777169, 22.9461413], [95.3780674, 22.9462076], [95.3785313, 22.9463124], [95.3788477, 22.9463572], [95.3793372, 22.9463744], [95.3798096, 22.9463679], [95.3815946, 22.9463722], [95.3818853, 22.9463786], [95.3822743, 22.9463786], [95.3827596, 22.9463572], [95.3830888, 22.946353], [95.3835355, 22.9462953], [95.3840443, 22.9462076], [95.3842559, 22.9461777], [95.3847048, 22.9460986], [95.3851537, 22.9460045], [95.3862461, 22.9457844], [95.3867121, 22.9456989], [95.3874581, 22.9455364], [95.3878301, 22.945483], [95.3881892, 22.9454594], [95.3885582, 22.9454421], [95.3885449, 22.946086], [95.3885502, 22.9465109], [95.3885475, 22.9473446], [95.3885155, 22.9473419], [95.3885128, 22.9477134], [95.3885058, 22.9479356], [95.3884543, 22.9479329], [95.3883047, 22.9479116], [95.3881871, 22.9478474], [95.3879093, 22.9478261], [95.3874177, 22.9478314], [95.386926, 22.94781], [95.3868299, 22.9478314], [95.3865734, 22.9478314], [95.3864237, 22.9478581], [95.3857451, 22.9478154], [95.3819466, 22.9477717], [95.3819376, 22.9483756], [95.3803124, 22.9483383], [95.3797399, 22.9482906], [95.3785888, 22.9482548], [95.3780692, 22.9482864], [95.3769867, 22.9482582], [95.3769529, 22.9487487], [95.3769212, 22.9489654], [95.3766034, 22.9489517], [95.375955, 22.948915], [95.375893, 22.9489038], [95.3759014, 22.949414], [95.3759231, 22.9497676], [95.3759073, 22.9499728], [95.3758757, 22.9501527], [95.3754212, 22.9500895], [95.3748437, 22.9500517], [95.3740957, 22.9499854], [95.3733761, 22.9499033], [95.3729405, 22.9498339], [95.3726281, 22.9497929], [95.3726123, 22.9505156], [95.372587, 22.9507176], [95.371514, 22.9505787], [95.3716209, 22.9496603], [95.3710721, 22.9495719], [95.3705892, 22.9495025], [95.3702263, 22.9494709], [95.3702484, 22.94925], [95.3695319, 22.9492121], [95.369109, 22.9492374], [95.3689575, 22.9491364], [95.3687871, 22.9490543], [95.3686577, 22.9489786], [95.3684746, 22.9489218], [95.3684715, 22.9487924], [95.3685062, 22.9487008], [95.3684904, 22.9486062], [95.36832, 22.9485273], [95.368219, 22.9484957], [95.3680738, 22.948502], [95.3679665, 22.9485146], [95.3678907, 22.9485494], [95.3678434, 22.9486219], [95.3678024, 22.9487166], [95.3677708, 22.948764], [95.3677484, 22.9488502], [95.3676271, 22.9487713], [95.3674519, 22.9486342], [95.3671244, 22.9484438], [95.3667208, 22.9482686], [95.366538, 22.9482229], [95.3663704, 22.9484209], [95.366279, 22.9484818], [95.3661876, 22.9485504], [95.3660734, 22.9486265], [95.3659287, 22.9486951], [95.365586, 22.9487408], [95.3649911, 22.9488369], [95.3647428, 22.9488875]]]]}}