{"type": "FeatureCollection", "features": [{"type": "Feature", "properties": {"source_pcode": "MMR013029701504", "entity_type": "ward", "name_en": "Taung Bet Paing Ward", "name_my": "\u1010\u1031\u102c\u1004\u103a\u1018\u1000\u103a\u1015\u102d\u102f\u1004\u103a\u1038\u101b\u1015\u103a\u1000\u103d\u1000\u103a"}, "geometry": {"type": "Polygon", "coordinates": [[[96.01042960194798, 16.436709916840528], [96.00956109868082, 16.439101275151184], [96.01302569350588, 16.440055570411747], [96.0158453547977, 16.44212272716061], [96.015744227705, 16.442503440921598], [96.01619632529611, 16.44305666560541], [96.01561633167609, 16.443404661777606], [96.01578289394628, 16.4443177799385], [96.01518822698364, 16.44488785913785], [96.01395668788825, 16.444707591223906], [96.01253614916573, 16.445039526208575], [96.01247904216075, 16.445392876151406], [96.01338204772514, 16.445578473917347], [96.0134784161458, 16.44615668304158], [96.01277171626037, 16.44626732821331], [96.01217209177605, 16.44677772241954], [96.0122827369479, 16.44773069684635], [96.01197935586771, 16.448316044113138], [96.01363641203721, 16.450027351937365], [96.01437404496113, 16.450132048734986], [96.01564467721977, 16.449646638726676], [96.01666784563463, 16.450251021817166], [96.01807648633269, 16.44949911214178], [96.01849051305106, 16.449789406239066], [96.01916152082515, 16.449156469646088], [96.02004667986768, 16.447062543956235], [96.0212792409448, 16.445225599788614], [96.02121737486738, 16.444487966864646], [96.02210729298235, 16.442946076332817], [96.02214536514634, 16.441394668170343], [96.01873797680776, 16.441480328227673], [96.01768149590441, 16.44054282073057], [96.01588447664608, 16.43984410321957], [96.01460670608594, 16.438719807894408], [96.01042960194798, 16.436709916840528]]]}}, {"type": "Feature", "properties": {"core_id": 5113, "public_id": "47b76aab-40fa-49e9-96a0-f44e42b6d630", "canonical_name": "\u1010\u1031\u102c\u1004\u103a\u1018\u1000\u103a\u1015\u102d\u102f\u1004\u103a\u1038\u101b\u1015\u103a\u1000\u103d\u1000\u103a", "aliases": "en:Taung Bet Paing Ward | my:\u1010\u1031\u102c\u1004\u103a\u1018\u1000\u103a\u1015\u102d\u102f\u1004\u103a\u1038\u101b\u1015\u103a\u1000\u103d\u1000\u103a", "parent_name": "\u1000\u103d\u1019\u103a\u1038\u1001\u103c\u1036\u1000\u102f\u1014\u103a\u1038", "overlap_of_source": 0.0037, "overlap_of_core": 0.0073, "centroid_dist_m": 1062.2, "child_admins": 0, "settlements": 0, "postal": 0}, "geometry": {"type": "MultiPolygon", "coordinates": [[[[96.0053618, 16.4320772], [96.0055997, 16.431744], [96.0059519, 16.4315918], [96.0060946, 16.4318773], [96.0064563, 16.4322104], [96.0070369, 16.432515], [96.0078269, 16.4325721], [96.0077031, 16.433048], [96.0078078, 16.4332003], [96.0082933, 16.4333526], [96.0087216, 16.4333811], [96.0090198, 16.432791], [96.0092577, 16.4328719], [96.0093291, 16.4326673], [96.0096051, 16.4327815], [96.0101952, 16.4331241], [96.0116277, 16.4338998], [96.0122701, 16.4342568], [96.0125985, 16.4343496], [96.0129554, 16.4345566], [96.0135412, 16.4348512], [96.0136412, 16.4345609], [96.0142265, 16.434756], [96.0144835, 16.4348036], [96.0146263, 16.4349939], [96.0148737, 16.4346132], [96.0155781, 16.4337042], [96.0156732, 16.4335377], [96.0157018, 16.4333426], [96.0157779, 16.4331808], [96.0159445, 16.4330475], [96.0160444, 16.4329952], [96.0160873, 16.4328143], [96.0162824, 16.4324193], [96.0165108, 16.4325002], [96.0164489, 16.4327049], [96.016901, 16.4328001], [96.0167678, 16.433157], [96.0164585, 16.4337423], [96.0162062, 16.4340659], [96.0158255, 16.4347607], [96.0155733, 16.4352699], [96.0153829, 16.4356269], [96.0152782, 16.4360123], [96.0154734, 16.4361075], [96.016092, 16.4362455], [96.0170248, 16.4367071], [96.0168344, 16.4376637], [96.0164822, 16.4388582], [96.0167821, 16.4390438], [96.0166345, 16.4395482], [96.0174198, 16.4397909], [96.017415, 16.4403905], [96.0167982, 16.4402082], [96.0162628, 16.4400297], [96.0158845, 16.4398441], [96.0154705, 16.43948], [96.0150885, 16.4390161], [96.0146067, 16.4387198], [96.0139571, 16.4384093], [96.0129792, 16.438006], [96.0117549, 16.4374599], [96.0109626, 16.4370601], [96.0104296, 16.4367099], [96.0098407, 16.4363292], [96.0089543, 16.4359306], [96.0080085, 16.4354488], [96.007259, 16.4349372], [96.0064539, 16.4343205], [96.0067014, 16.4341302], [96.0067585, 16.4339493], [96.006473, 16.4335972], [96.0062969, 16.4333925], [96.006116, 16.4332022], [96.0056378, 16.4328005], [96.0053618, 16.4320772]]]]}}, {"type": "Feature", "properties": {"core_id": 5119, "public_id": "4eccfe61-d04c-46d4-bc2f-0fd6ce3bcad2", "canonical_name": "\u1010\u1031\u102c\u1004\u103a\u1018\u1000\u103a\u1015\u102d\u102f\u1004\u103a\u1038\u101b\u1015\u103a\u1000\u103d\u1000\u103a", "aliases": "en:Taung Bet Paing Ward | my:\u1010\u1031\u102c\u1004\u103a\u1018\u1000\u103a\u1015\u102d\u102f\u1004\u103a\u1038\u101b\u1015\u103a\u1000\u103d\u1000\u103a", "parent_name": "\u1000\u103d\u1019\u103a\u1038\u1001\u103c\u1036\u1000\u102f\u1014\u103a\u1038", "overlap_of_source": 0.9875, "overlap_of_core": 0.9837, "centroid_dist_m": 3.1, "child_admins": 0, "settlements": 0, "postal": 0}, "geometry": {"type": "MultiPolygon", "coordinates": [[[[96.0095611, 16.4391013], [96.009805, 16.4384648], [96.0100846, 16.4374773], [96.0104296, 16.4367099], [96.0109626, 16.4370601], [96.0117549, 16.4374599], [96.0129792, 16.438006], [96.0139571, 16.4384093], [96.0146067, 16.4387198], [96.0150885, 16.4390161], [96.0154705, 16.43948], [96.0158845, 16.4398441], [96.0162628, 16.4400297], [96.0167982, 16.4402082], [96.017415, 16.4403905], [96.0176815, 16.4405428], [96.0182288, 16.4410853], [96.0185238, 16.4413233], [96.018738, 16.4414803], [96.018995, 16.4415517], [96.0192805, 16.4416041], [96.0196993, 16.4416041], [96.0201085, 16.4416279], [96.0204464, 16.441585], [96.0208414, 16.4414898], [96.0211936, 16.4413851], [96.0214886, 16.4413423], [96.0221454, 16.4413947], [96.0221263, 16.4416992], [96.022074, 16.4421466], [96.0221025, 16.4422751], [96.0221644, 16.4423845], [96.0221834, 16.4425273], [96.0221549, 16.4426986], [96.0221073, 16.4429461], [96.0220645, 16.4431079], [96.021974, 16.4431983], [96.0218503, 16.4433744], [96.021798, 16.4435314], [96.0217266, 16.4436694], [96.0216124, 16.4437884], [96.0214934, 16.4440026], [96.0213935, 16.4442167], [96.0212888, 16.4443452], [96.0212174, 16.444488], [96.021265, 16.4446545], [96.0212888, 16.4448782], [96.0212792, 16.4452256], [96.0211983, 16.4453874], [96.0210508, 16.4455016], [96.0209985, 16.4456206], [96.0209842, 16.4457824], [96.0208224, 16.4460489], [96.020594, 16.446382], [96.0203275, 16.4467247], [96.0200467, 16.4470625], [96.0199896, 16.4472434], [96.0200276, 16.4473624], [96.020061, 16.4475146], [96.0199563, 16.4476193], [96.0197326, 16.4478097], [96.0196089, 16.4480429], [96.0194899, 16.4483237], [96.019309, 16.4486092], [96.0192519, 16.4487377], [96.0192329, 16.4489566], [96.0191615, 16.4491565], [96.0189093, 16.4494277], [96.0184905, 16.4497894], [96.0180765, 16.4494991], [96.0180051, 16.4495562], [96.0173198, 16.4498989], [96.0169867, 16.4500749], [96.0166678, 16.450251], [96.0165298, 16.4500464], [96.016192, 16.4501844], [96.0160206, 16.4498513], [96.0158255, 16.4498751], [96.0156447, 16.4496466], [96.0153401, 16.4497513], [96.014374, 16.450132], [96.0136364, 16.4500274], [96.0133176, 16.4497513], [96.0130701, 16.4495039], [96.0128036, 16.4492754], [96.0127227, 16.449185], [96.0125466, 16.4490803], [96.0124276, 16.4489376], [96.0123563, 16.448771], [96.0122516, 16.4486092], [96.0119794, 16.448316], [96.0119508, 16.4482054], [96.0119651, 16.4481197], [96.012015, 16.4480091], [96.0121828, 16.4479127], [96.0122685, 16.4478056], [96.0122827, 16.4477307], [96.0121685, 16.4472631], [96.0121043, 16.447024], [96.0121114, 16.4469026], [96.0121721, 16.4467777], [96.0124398, 16.446585], [96.0125361, 16.44651], [96.0126397, 16.446378], [96.0127717, 16.4462673], [96.0128717, 16.4462495], [96.0129859, 16.4462602], [96.0131501, 16.4463173], [96.0133285, 16.4463351], [96.0134213, 16.4462709], [96.0134784, 16.4461567], [96.0134534, 16.4457319], [96.013382, 16.4455785], [96.0132643, 16.4455606], [96.0131037, 16.4455642], [96.0129894, 16.4455535], [96.012761, 16.4455035], [96.0125576, 16.4454357], [96.012479, 16.4453929], [96.0124326, 16.4453393], [96.0124291, 16.4452394], [96.0124576, 16.4451573], [96.0125361, 16.4450395], [96.0126468, 16.4449539], [96.0128609, 16.4448539], [96.0131251, 16.4448254], [96.0134177, 16.4447861], [96.0139567, 16.4447076], [96.0143768, 16.4448736], [96.0146219, 16.4448807], [96.0148028, 16.4449045], [96.0150026, 16.4448998], [96.0151882, 16.4448879], [96.0153405, 16.4448022], [96.0154619, 16.444688], [96.015588, 16.4445643], [96.0157829, 16.4443178], [96.0157918, 16.444172], [96.015774, 16.4439698], [96.0156907, 16.4438121], [96.0155747, 16.4436337], [96.0155717, 16.4435028], [96.0156163, 16.4434047], [96.0156996, 16.4432887], [96.0157888, 16.4432084], [96.015881, 16.4431459], [96.0160327, 16.4430596], [96.0161963, 16.4430567], [96.0160655, 16.4427414], [96.0157442, 16.4425034], [96.0158454, 16.4421227], [96.0151732, 16.4417301], [96.0144504, 16.4412364], [96.0141083, 16.4408021], [96.0139537, 16.4406564], [96.0133945, 16.4405374], [96.0130227, 16.4402905], [96.0130257, 16.4400556], [96.0122155, 16.4398777], [96.0117539, 16.4397445], [96.0112161, 16.4396064], [96.0105451, 16.4394161], [96.0095611, 16.4391013]]]]}}]}