{"type": "FeatureCollection", "features": [{"type": "Feature", "properties": {"role": "mimu_new", "label": "MIMU new", "source_key": "village_tract:MMR015004014:row12339:village_tract_boundary_Shan_v94.zip_mmr_shn_polbnda_adm4_250k_mimu_1.shp", "name_en": "Pang Nyawng", "name_mm": "\u1015\u1014\u103a\u100a\u1031\u102c\u1004\u103a"}, "geometry": {"type": "Polygon", "coordinates": [[[98.30412400282052, 22.59451741974317], [98.28275974516617, 22.590530977822425], [98.24966718319399, 22.591538331828584], [98.25638683118734, 22.609045414314494], [98.26020436693807, 22.615771520339422], [98.26664876123141, 22.622752946591273], [98.27443573721956, 22.628928824006092], [98.28302826114538, 22.64316019338827], [98.28598194231284, 22.653095299908216], [98.28667374669612, 22.662898984900266], [98.2965786638743, 22.665728960723012], [98.31728645780385, 22.676691911402646], [98.3432727100676, 22.694963494070056], [98.35301755421682, 22.699023845873853], [98.37104228917038, 22.700626043856914], [98.37249933207858, 22.691486043246368], [98.37118642261538, 22.68411281295601], [98.36796742705519, 22.67257807691675], [98.36662617815568, 22.653532348838898], [98.36850392571569, 22.62724388120023], [98.37252767061557, 22.60739340378262], [98.38122153374684, 22.590945557191787], [98.37842916397477, 22.59103017440309], [98.37279592129477, 22.588615927283286], [98.36930867505538, 22.581641434804386], [98.36662617815568, 22.57493519300482], [98.36260243325574, 22.574666944124196], [98.35868320126878, 22.576259022935634], [98.35804218879605, 22.578154188565016], [98.34758045097709, 22.58378743304366], [98.31887773531929, 22.592907921963107], [98.30412400282052, 22.59451741974317]]]}}, {"type": "Feature", "properties": {"role": "core_before", "label": "CoreMap 6493 before", "core_id": "6493"}, "geometry": {"type": "MultiPolygon", "coordinates": [[[[98.0742, 22.642363], [98.082461, 22.6396], [98.084993, 22.632867], [98.096495, 22.622885], [98.101988, 22.623994], [98.114691, 22.622132], [98.142285, 22.619478], [98.150439, 22.619082], [98.158293, 22.615596], [98.166318, 22.617101], [98.187003, 22.619755], [98.198848, 22.620785], [98.205843, 22.622647], [98.22464, 22.611079], [98.261375, 22.596975], [98.272104, 22.59541], [98.277233, 22.596896], [98.282576, 22.603354], [98.283949, 22.610406], [98.290043, 22.613298], [98.293047, 22.620587], [98.302188, 22.632284], [98.310396, 22.643486], [98.31814, 22.649197], [98.332049, 22.705091], [98.355029, 22.729688], [98.369865, 22.73249], [98.3846, 22.740433], [98.395758, 22.74637], [98.405456, 22.75352], [98.420978, 22.761448], [98.430352, 22.769306], [98.439574, 22.777208], [98.450816, 22.78158], [98.463281, 22.784129], [98.469144, 22.785725], [98.474409, 22.785759], [98.478208, 22.785448], [98.482357, 22.783621], [98.499638, 22.781805], [98.508711, 22.779568], [98.517188, 22.777931], [98.522459, 22.776912], [98.530227, 22.780384], [98.539275, 22.78536], [98.542897, 22.792806], [98.543104, 22.794297], [98.543638, 22.798128], [98.543984, 22.802813], [98.547985, 22.811131], [98.553298, 22.818156], [98.557016, 22.82049], [98.566643, 22.818383], [98.570726, 22.821069], [98.580893, 22.821323], [98.589714, 22.821775], [98.604839, 22.819642], [98.607356, 22.819287], [98.612613, 22.819951], [98.632463, 22.821775], [98.63857, 22.82268], [98.64073, 22.823991], [98.643347, 22.825578], [98.646048, 22.828092], [98.64689, 22.83143], [98.646883, 22.834974], [98.647554, 22.837947], [98.64834, 22.840086], [98.650771, 22.842598], [98.651381, 22.843228], [98.654535, 22.846472], [98.657507, 22.851538], [98.657972, 22.852327], [98.658083, 22.85243], [98.660105, 22.857965], [98.660665, 22.860571], [98.660665, 22.86096], [98.660661, 22.863176], [98.66099, 22.868284], [98.661027, 22.869908], [98.661099, 22.873097], [98.661141, 22.874981], [98.661162, 22.875894], [98.661276, 22.878212], [98.661382, 22.880376], [98.661533, 22.882211], [98.661603, 22.882982], [98.662272, 22.886217], [98.662946, 22.888929], [98.66249, 22.891115], [98.661186, 22.892739], [98.660906, 22.893088], [98.657518, 22.895471], [98.653447, 22.897329], [98.65023, 22.89773], [98.649282, 22.897932], [98.647012, 22.898446], [98.643794, 22.899576], [98.640574, 22.901437], [98.63617, 22.904023], [98.632216, 22.905568], [98.627927, 22.906694], [98.622056, 22.90896], [98.614992, 22.912878], [98.608786, 22.917437], [98.603483, 22.921061], [98.600439, 22.92209], [98.598185, 22.922498], [98.594125, 22.924878], [98.5939, 22.924876], [98.591078, 22.927575], [98.587408, 22.929533], [98.579332, 22.931364], [98.57681, 22.932718], [98.572569, 22.937494], [98.567942, 22.943102], [98.5632, 22.950895], [98.559812, 22.958384], [98.557245, 22.960035], [98.551555, 22.960427], [98.549424, 22.959572], [98.546376, 22.957147], [98.543678, 22.955496], [98.540891, 22.954899], [98.537763, 22.95682], [98.53517, 22.957746], [98.534463, 22.958039], [98.532462, 22.957234], [98.53143, 22.956119], [98.530381, 22.954829], [98.530174, 22.953331], [98.528572, 22.952702], [98.527407, 22.952841], [98.524339, 22.953554], [98.523756, 22.95368], [98.52222, 22.954], [98.521967, 22.954092], [98.517084, 22.95548], [98.51682, 22.955572], [98.511933, 22.949509], [98.506465, 22.943259], [98.500605, 22.940915], [98.492011, 22.941696], [98.487505, 22.938923], [98.486933, 22.938571], [98.481074, 22.933492], [98.475996, 22.928023], [98.472871, 22.92021], [98.464668, 22.914741], [98.456074, 22.913959], [98.445917, 22.91474], [98.435761, 22.91474], [98.42873, 22.912396], [98.419354, 22.910833], [98.41224, 22.9088], [98.405682, 22.906926], [98.391229, 22.904973], [98.369744, 22.903019], [98.355682, 22.903019], [98.349432, 22.906534], [98.343962, 22.913566], [98.336931, 22.917082], [98.327165, 22.915519], [98.317637, 22.910412], [98.306436, 22.912705], [98.292446, 22.901004], [98.272346, 22.899038], [98.269767, 22.896326], [98.264502, 22.895251], [98.25723, 22.894221], [98.249796, 22.893484], [98.243798, 22.893139], [98.237583, 22.892306], [98.231554, 22.890514], [98.227264, 22.889206], [98.21846, 22.88802], [98.212174, 22.887069], [98.206421, 22.886298], [98.201359, 22.886219], [98.199636, 22.88619], [98.194908, 22.885582], [98.192239, 22.885881], [98.188846, 22.884777], [98.186534, 22.8848], [98.18433, 22.885233], [98.180678, 22.885911], [98.174331, 22.884812], [98.168475, 22.883894], [98.163498, 22.88263], [98.1617, 22.883246], [98.1561, 22.88343], [98.149175, 22.881392], [98.143849, 22.880931], [98.141729, 22.880603], [98.140854, 22.874905], [98.141827, 22.871304], [98.145224, 22.867016], [98.146731, 22.863944], [98.148192, 22.855835], [98.147806, 22.850134], [98.145186, 22.843546], [98.14403, 22.838791], [98.143293, 22.836737], [98.140151, 22.83439], [98.136341, 22.836866], [98.132471, 22.839706], [98.129626, 22.835357], [98.127454, 22.833325], [98.125234, 22.830983], [98.124704, 22.828266], [98.124187, 22.825277], [98.125493, 22.823448], [98.12623, 22.820758], [98.123466, 22.818983], [98.123537, 22.817139], [98.123726, 22.813793], [98.124203, 22.810041], [98.122815, 22.8087], [98.121904, 22.80538], [98.120864, 22.802477], [98.119961, 22.800018], [98.12111, 22.796277], [98.122038, 22.792161], [98.122348, 22.785574], [98.122447, 22.783097], [98.122183, 22.780146], [98.122098, 22.777705], [98.123564, 22.774835], [98.122363, 22.773803], [98.120237, 22.770215], [98.120007, 22.767596], [98.117998, 22.764932], [98.117488, 22.761731], [98.114607, 22.758278], [98.119387, 22.753484], [98.120887, 22.751496], [98.120762, 22.747953], [98.121617, 22.747067], [98.12566, 22.74548], [98.12774, 22.744047], [98.127765, 22.740133], [98.130161, 22.738134], [98.130174, 22.736081], [98.127397, 22.732253], [98.124864, 22.729852], [98.121181, 22.728115], [98.115804, 22.726265], [98.114104, 22.726106], [98.114604, 22.72057], [98.114978, 22.719142], [98.116865, 22.717952], [98.115245, 22.713612], [98.115033, 22.709836], [98.111148, 22.705382], [98.11014, 22.702946], [98.108859, 22.701198], [98.107484, 22.699195], [98.105295, 22.695769], [98.102015, 22.695048], [98.100058, 22.69612], [98.097832, 22.694942], [98.097177, 22.692787], [98.098437, 22.69076], [98.098774, 22.686908], [98.096247, 22.686362], [98.094824, 22.684961], [98.091707, 22.682131], [98.091543, 22.679049], [98.09209, 22.678284], [98.093255, 22.674782], [98.094338, 22.673141], [98.095477, 22.669462], [98.096488, 22.666984], [98.09759, 22.664074], [98.097184, 22.661478], [98.097274, 22.659425], [98.092637, 22.657584], [98.088739, 22.651911], [98.086854, 22.647027], [98.083386, 22.646216], [98.077777, 22.644042], [98.0743, 22.642655], [98.0742, 22.642363]]]]}}, {"type": "Feature", "properties": {"role": "core_after", "label": "CoreMap 6493 after clip", "core_id": "6493"}, "geometry": {"type": "Polygon", "coordinates": [[[98.22464, 22.611079], [98.205843, 22.622647], [98.198848, 22.620785], [98.187003, 22.619755], [98.166318, 22.617101], [98.158293, 22.615596], [98.150439, 22.619082], [98.142285, 22.619478], [98.114691, 22.622132], [98.101988, 22.623994], [98.096495, 22.622885], [98.084993, 22.632867], [98.082461, 22.6396], [98.0742, 22.642363], [98.0743, 22.642655], [98.077777, 22.644042], [98.083386, 22.646216], [98.086854, 22.647027], [98.088739, 22.651911], [98.092637, 22.657584], [98.097274, 22.659425], [98.097184, 22.661478], [98.09759, 22.664074], [98.096488, 22.666984], [98.095477, 22.669462], [98.094338, 22.673141], [98.093255, 22.674782], [98.09209, 22.678284], [98.091543, 22.679049], [98.091707, 22.682131], [98.094824, 22.684961], [98.096247, 22.686362], [98.098774, 22.686908], [98.098437, 22.69076], [98.097177, 22.692787], [98.097832, 22.694942], [98.100058, 22.69612], [98.102015, 22.695048], [98.105295, 22.695769], [98.107484, 22.699195], [98.108859, 22.701198], [98.11014, 22.702946], [98.111148, 22.705382], [98.115033, 22.709836], [98.115245, 22.713612], [98.116865, 22.717952], [98.114978, 22.719142], [98.114604, 22.72057], [98.114104, 22.726106], [98.115804, 22.726265], [98.121181, 22.728115], [98.124864, 22.729852], [98.127397, 22.732253], [98.130174, 22.736081], [98.130161, 22.738134], [98.127765, 22.740133], [98.12774, 22.744047], [98.12566, 22.74548], [98.121617, 22.747067], [98.120762, 22.747953], [98.120887, 22.751496], [98.119387, 22.753484], [98.114607, 22.758278], [98.117488, 22.761731], [98.117998, 22.764932], [98.120007, 22.767596], [98.120237, 22.770215], [98.122363, 22.773803], [98.123564, 22.774835], [98.122098, 22.777705], [98.122183, 22.780146], [98.122447, 22.783097], [98.122348, 22.785574], [98.122038, 22.792161], [98.12111, 22.796277], [98.119961, 22.800018], [98.120864, 22.802477], [98.121904, 22.80538], [98.122815, 22.8087], [98.124203, 22.810041], [98.123726, 22.813793], [98.123537, 22.817139], [98.123466, 22.818983], [98.12623, 22.820758], [98.125493, 22.823448], [98.124187, 22.825277], [98.124704, 22.828266], [98.125234, 22.830983], [98.127454, 22.833325], [98.129626, 22.835357], [98.132471, 22.839706], [98.136341, 22.836866], [98.140151, 22.83439], [98.143293, 22.836737], [98.14403, 22.838791], [98.145186, 22.843546], [98.147806, 22.850134], [98.148192, 22.855835], [98.146731, 22.863944], [98.145224, 22.867016], [98.141827, 22.871304], [98.140854, 22.874905], [98.141729, 22.880603], [98.143849, 22.880931], [98.149175, 22.881392], [98.1561, 22.88343], [98.1617, 22.883246], [98.163498, 22.88263], [98.168475, 22.883894], [98.174331, 22.884812], [98.180678, 22.885911], [98.18433, 22.885233], [98.186534, 22.8848], [98.188846, 22.884777], [98.192239, 22.885881], [98.194908, 22.885582], [98.199636, 22.88619], [98.201359, 22.886219], [98.206421, 22.886298], [98.212174, 22.887069], [98.21846, 22.88802], [98.227264, 22.889206], [98.231554, 22.890514], [98.237583, 22.892306], [98.243798, 22.893139], [98.249796, 22.893484], [98.25723, 22.894221], [98.264502, 22.895251], [98.269767, 22.896326], [98.272346, 22.899038], [98.292446, 22.901004], [98.306436, 22.912705], [98.317637, 22.910412], [98.327165, 22.915519], [98.336931, 22.917082], [98.343962, 22.913566], [98.349432, 22.906534], [98.355682, 22.903019], [98.369744, 22.903019], [98.391229, 22.904973], [98.405682, 22.906926], [98.41224, 22.9088], [98.419354, 22.910833], [98.42873, 22.912396], [98.435761, 22.91474], [98.445917, 22.91474], [98.456074, 22.913959], [98.464668, 22.914741], [98.472871, 22.92021], [98.475996, 22.928023], [98.481074, 22.933492], [98.486933, 22.938571], [98.487505, 22.938923], [98.492011, 22.941696], [98.500605, 22.940915], [98.506465, 22.943259], [98.511933, 22.949509], [98.51682, 22.955572], [98.517084, 22.95548], [98.521967, 22.954092], [98.52222, 22.954], [98.523756, 22.95368], [98.524339, 22.953554], [98.527407, 22.952841], [98.528572, 22.952702], [98.530174, 22.953331], [98.530381, 22.954829], [98.53143, 22.956119], [98.532462, 22.957234], [98.534463, 22.958039], [98.53517, 22.957746], [98.537763, 22.95682], [98.540891, 22.954899], [98.543678, 22.955496], [98.546376, 22.957147], [98.549424, 22.959572], [98.551555, 22.960427], [98.557245, 22.960035], [98.559812, 22.958384], [98.5632, 22.950895], [98.567942, 22.943102], [98.572569, 22.937494], [98.57681, 22.932718], [98.579332, 22.931364], [98.587408, 22.929533], [98.591078, 22.927575], [98.5939, 22.924876], [98.594125, 22.924878], [98.598185, 22.922498], [98.600439, 22.92209], [98.603483, 22.921061], [98.608786, 22.917437], [98.614992, 22.912878], [98.622056, 22.90896], [98.627927, 22.906694], [98.632216, 22.905568], [98.63617, 22.904023], [98.640574, 22.901437], [98.643794, 22.899576], [98.647012, 22.898446], [98.649282, 22.897932], [98.65023, 22.89773], [98.653447, 22.897329], [98.657518, 22.895471], [98.660906, 22.893088], [98.661186, 22.892739], [98.66249, 22.891115], [98.662946, 22.888929], [98.662272, 22.886217], [98.661603, 22.882982], [98.661533, 22.882211], [98.661382, 22.880376], [98.661276, 22.878212], [98.661162, 22.875894], [98.661141, 22.874981], [98.661099, 22.873097], [98.661027, 22.869908], [98.66099, 22.868284], [98.660661, 22.863176], [98.660665, 22.86096], [98.660665, 22.860571], [98.660105, 22.857965], [98.658083, 22.85243], [98.657972, 22.852327], [98.657507, 22.851538], [98.654535, 22.846472], [98.651381, 22.843228], [98.650771, 22.842598], [98.64834, 22.840086], [98.647554, 22.837947], [98.646883, 22.834974], [98.64689, 22.83143], [98.646048, 22.828092], [98.643347, 22.825578], [98.64073, 22.823991], [98.63857, 22.82268], [98.632463, 22.821775], [98.612613, 22.819951], [98.607356, 22.819287], [98.604839, 22.819642], [98.589714, 22.821775], [98.580893, 22.821323], [98.570726, 22.821069], [98.566643, 22.818383], [98.557016, 22.82049], [98.553298, 22.818156], [98.547985, 22.811131], [98.543984, 22.802813], [98.543638, 22.798128], [98.543104, 22.794297], [98.542897, 22.792806], [98.539275, 22.78536], [98.530227, 22.780384], [98.522459, 22.776912], [98.517188, 22.777931], [98.508711, 22.779568], [98.499638, 22.781805], [98.482357, 22.783621], [98.478208, 22.785448], [98.474409, 22.785759], [98.469144, 22.785725], [98.463281, 22.784129], [98.450816, 22.78158], [98.439574, 22.777208], [98.430352, 22.769306], [98.420978, 22.761448], [98.405456, 22.75352], [98.395758, 22.74637], [98.3846, 22.740433], [98.369865, 22.73249], [98.355029, 22.729688], [98.332049, 22.705091], [98.3266140463732, 22.683250371772488], [98.31728645780385, 22.676691911402646], [98.2965786638743, 22.665728960723012], [98.28667374669612, 22.662898984900266], [98.28598194231284, 22.653095299908216], [98.28302826114538, 22.64316019338827], [98.27443573721956, 22.628928824006092], [98.26664876123141, 22.622752946591273], [98.26020436693807, 22.615771520339422], [98.25638683118734, 22.609045414314494], [98.25298962284778, 22.60019447350905], [98.22464, 22.611079]]]}}, {"type": "Feature", "properties": {"role": "intersection", "label": "Overlap removed", "core_id": "6493"}, "geometry": {"type": "Polygon", "coordinates": [[[98.31814, 22.649197], [98.310396, 22.643486], [98.302188, 22.632284], [98.293047, 22.620587], [98.290043, 22.613298], [98.283949, 22.610406], [98.282576, 22.603354], [98.277233, 22.596896], [98.272104, 22.59541], [98.261375, 22.596975], [98.25298962284778, 22.60019447350905], [98.25638683118734, 22.609045414314494], [98.26020436693807, 22.615771520339422], [98.26664876123141, 22.622752946591273], [98.27443573721956, 22.628928824006092], [98.28302826114538, 22.64316019338827], [98.28598194231284, 22.653095299908216], [98.28667374669612, 22.662898984900266], [98.2965786638743, 22.665728960723012], [98.31728645780385, 22.676691911402646], [98.3266140463732, 22.683250371772488], [98.31814, 22.649197]]]}}]}