{"type": "FeatureCollection", "features": [{"type": "Feature", "properties": {"role": "mimu_new", "label": "MIMU new", "source_key": "village_tract:MMR015009027:row12618:village_tract_boundary_Shan_v94.zip_mmr_shn_polbnda_adm4_250k_mimu_1.shp", "name_en": "Kying Yang Ton", "name_mm": "\u1000\u103b\u102d\u1014\u103a\u1038\u101a\u1014\u103a\u1038\u1010\u102f\u1036"}, "geometry": {"type": "Polygon", "coordinates": [[[98.00382428816044, 24.054572211438483], [98.0087163266972, 24.056830721160907], [98.0231204135763, 24.065036488942837], [98.04103669928429, 24.073868248720768], [98.05077950377114, 24.07370664504566], [98.05621379662949, 24.078123185936306], [98.05843935159487, 24.069563357762775], [98.05879627093123, 24.059569621740707], [98.05688541213215, 24.050206409398296], [98.0413072333422, 24.03601295813155], [98.0358225083022, 24.03033234995802], [98.03451230489901, 24.032843573672043], [98.01919670116689, 24.042470524794908], [98.00382428816044, 24.054572211438483]]]}}, {"type": "Feature", "properties": {"role": "core_before", "label": "CoreMap 6619 before", "core_id": "6619"}, "geometry": {"type": "MultiPolygon", "coordinates": [[[[97.974692, 24.070432], [97.975716, 24.062247], [97.975665, 24.059143], [97.97593, 24.054849], [97.975977, 24.053252], [97.975454, 24.051852], [97.975435, 24.050127], [97.977873, 24.046951], [97.978781, 24.046388], [97.978951, 24.046181], [97.978999, 24.04537], [97.979102, 24.044564], [97.980273, 24.042564], [97.980456, 24.037943], [97.980192, 24.036565], [97.97842, 24.035452], [97.97784, 24.034297], [97.97667, 24.032568], [97.976637, 24.032513], [97.977144, 24.032206], [97.977299, 24.032195], [97.977773, 24.032207], [97.977812, 24.032224], [97.978116, 24.03228], [97.97828, 24.032274], [97.978481, 24.032347], [97.9789, 24.032895], [97.978951, 24.033036], [97.978948, 24.033228], [97.978968, 24.033304], [97.97902, 24.03336], [97.979113, 24.033399], [97.979419, 24.033379], [97.979493, 24.033404], [97.979912, 24.033886], [97.980117, 24.03392], [97.980649, 24.033783], [97.980872, 24.033684], [97.981149, 24.033638], [97.981481, 24.033555], [97.981642, 24.033564], [97.981808, 24.033697], [97.98197, 24.033868], [97.982114, 24.034128], [97.982517, 24.034427], [97.98279, 24.034481], [97.983037, 24.034476], [97.983477, 24.034236], [97.983767, 24.034201], [97.983885, 24.034255], [97.983928, 24.034383], [97.983847, 24.03452], [97.983643, 24.034721], [97.983488, 24.034946], [97.983466, 24.035127], [97.983472, 24.035274], [97.983563, 24.035402], [97.983745, 24.035323], [97.984121, 24.034819], [97.984276, 24.034721], [97.984421, 24.034721], [97.984469, 24.034853], [97.984512, 24.035196], [97.984673, 24.03548], [97.98477, 24.035554], [97.984931, 24.035612], [97.985022, 24.035519], [97.985054, 24.035372], [97.984984, 24.035122], [97.985065, 24.035015], [97.985236, 24.035029], [97.985532, 24.035176], [97.985708, 24.035201], [97.985778, 24.035309], [97.985687, 24.035382], [97.985569, 24.035426], [97.985328, 24.035485], [97.985285, 24.035534], [97.985317, 24.035647], [97.985387, 24.035808], [97.98551, 24.03595], [97.985666, 24.036083], [97.985757, 24.03624], [97.985816, 24.036372], [97.985722, 24.036434], [97.985529, 24.0364], [97.985215, 24.036318], [97.985022, 24.036288], [97.984914, 24.036328], [97.984877, 24.036401], [97.984898, 24.036494], [97.985016, 24.036568], [97.985242, 24.036685], [97.985328, 24.036788], [97.985306, 24.036862], [97.985231, 24.036925], [97.984893, 24.037077], [97.984711, 24.037249], [97.984426, 24.037778], [97.984298, 24.03794], [97.984298, 24.038023], [97.984324, 24.038111], [97.984475, 24.038189], [97.984748, 24.038238], [97.984947, 24.038248], [97.985156, 24.038209], [97.985301, 24.038101], [97.985542, 24.037935], [97.985628, 24.03794], [97.985687, 24.038033], [97.985714, 24.038268], [97.985719, 24.03842], [97.985859, 24.038503], [97.986046, 24.038464], [97.986631, 24.038425], [97.986776, 24.038312], [97.986787, 24.038086], [97.986873, 24.037856], [97.987012, 24.037802], [97.987345, 24.037861], [97.987479, 24.03791], [97.987473, 24.038077], [97.987253, 24.038273], [97.986958, 24.038469], [97.986958, 24.038547], [97.987001, 24.038679], [97.987178, 24.038733], [97.987377, 24.038782], [97.987645, 24.038748], [97.987956, 24.038576], [97.988375, 24.038572], [97.988938, 24.038694], [97.989029, 24.038792], [97.98904, 24.038914], [97.988959, 24.039027], [97.988868, 24.039071], [97.98878, 24.039084], [97.988584, 24.039047], [97.988476, 24.039096], [97.988375, 24.03915], [97.988342, 24.039257], [97.988396, 24.03935], [97.9886, 24.039483], [97.988772, 24.039571], [97.988992, 24.039542], [97.989152, 24.039537], [97.989211, 24.039664], [97.989249, 24.039831], [97.989147, 24.040272], [97.989195, 24.040418], [97.989254, 24.040502], [97.989536, 24.040652], [97.98986, 24.040894], [97.990048, 24.041026], [97.990215, 24.041379], [97.990343, 24.041707], [97.990451, 24.041913], [97.990885, 24.042892], [97.99095, 24.043529], [97.991084, 24.043784], [97.99132, 24.043969], [97.991438, 24.044083], [97.992513, 24.044947], [97.992615, 24.045167], [97.992661, 24.045401], [97.992695, 24.045902], [97.992765, 24.046269], [97.992881, 24.04641], [97.993049, 24.046598], [97.993316, 24.046724], [97.99345, 24.04667], [97.993654, 24.046567], [97.9938, 24.046333], [97.993929, 24.046309], [97.994074, 24.046485], [97.994104, 24.046724], [97.994077, 24.046876], [97.99389, 24.047228], [97.993886, 24.047416], [97.993967, 24.047602], [97.99419, 24.047674], [97.994471, 24.047577], [97.994642, 24.047592], [97.994723, 24.047778], [97.99478, 24.048007], [97.994726, 24.048301], [97.994662, 24.048507], [97.994684, 24.048639], [97.994916, 24.048876], [97.995115, 24.048949], [97.995233, 24.049003], [97.99529, 24.049158], [97.995372, 24.049218], [97.99581, 24.049158], [97.995901, 24.048938], [97.995998, 24.048703], [97.996153, 24.048673], [97.996223, 24.048732], [97.996116, 24.048987], [97.996196, 24.049193], [97.996438, 24.049359], [97.996695, 24.049447], [97.996808, 24.049349], [97.996695, 24.04906], [97.9967, 24.048869], [97.996834, 24.04882], [97.997054, 24.04883], [97.99728, 24.048737], [97.997398, 24.048801], [97.997736, 24.049114], [97.998009, 24.049188], [97.998154, 24.049104], [97.998331, 24.048752], [97.998336, 24.048428], [97.998208, 24.048139], [97.997725, 24.048046], [97.997704, 24.047978], [97.997859, 24.047801], [97.998122, 24.047875], [97.99832, 24.048076], [97.998728, 24.047988], [97.99897, 24.048017], [97.999243, 24.048198], [97.999431, 24.048673], [98.000273, 24.049031], [98.00082, 24.04872], [98.00104, 24.048737], [98.001185, 24.048967], [98.001324, 24.049864], [98.001003, 24.050168], [98.000799, 24.050383], [98.0006, 24.050356], [98.00044, 24.050986], [98.0011, 24.051283], [98.001218, 24.051315], [98.001296, 24.051291], [98.001412, 24.051205], [98.001485, 24.051065], [98.001638, 24.05106], [98.001779, 24.050856], [98.00186, 24.050706], [98.002104, 24.050471], [98.00204, 24.050225], [98.00203, 24.050057], [98.002124, 24.049673], [98.002164, 24.04966], [98.002236, 24.049692], [98.002365, 24.049967], [98.002762, 24.050011], [98.002891, 24.050148], [98.002816, 24.050324], [98.002389, 24.050792], [98.002478, 24.051015], [98.003009, 24.051152], [98.003207, 24.05127], [98.003406, 24.051338], [98.00351, 24.051279], [98.003794, 24.050979], [98.003735, 24.050644], [98.003443, 24.050602], [98.003191, 24.050182], [98.003274, 24.050035], [98.003513, 24.050088], [98.003869, 24.050415], [98.004439, 24.050686], [98.004784, 24.050687], [98.005037, 24.050741], [98.005364, 24.050878], [98.0056, 24.05102], [98.005822, 24.051291], [98.006063, 24.05182], [98.006165, 24.05252], [98.006464, 24.053489], [98.006589, 24.053799], [98.00677, 24.053905], [98.007013, 24.053951], [98.00734, 24.053956], [98.00763, 24.053882], [98.008304, 24.053572], [98.008642, 24.053455], [98.009216, 24.053275], [98.00935, 24.053489], [98.009433, 24.053778], [98.009339, 24.054361], [98.009379, 24.054606], [98.009575, 24.054753], [98.010256, 24.054929], [98.010895, 24.054914], [98.011774, 24.0551], [98.012434, 24.056541], [98.012906, 24.057261], [98.013067, 24.057452], [98.01316, 24.057487], [98.013509, 24.057512], [98.013942, 24.057511], [98.014274, 24.057442], [98.014773, 24.057099], [98.015202, 24.056996], [98.015632, 24.056991], [98.01647, 24.057277], [98.017102, 24.057716], [98.017606, 24.058417], [98.017806, 24.058472], [98.018233, 24.058319], [98.018566, 24.058284], [98.019056, 24.058413], [98.019405, 24.058732], [98.019952, 24.059466], [98.020148, 24.059769], [98.020476, 24.059989], [98.021009, 24.060191], [98.021146, 24.06018], [98.021307, 24.060151], [98.021672, 24.060239], [98.021908, 24.060376], [98.02199, 24.060603], [98.022001, 24.060936], [98.021958, 24.061195], [98.021946, 24.061552], [98.022064, 24.062015], [98.022226, 24.062351], [98.022393, 24.062611], [98.023095, 24.062954], [98.023946, 24.063423], [98.024265, 24.063728], [98.024426, 24.063801], [98.024478, 24.063894], [98.024572, 24.064125], [98.024687, 24.064311], [98.025609, 24.064525], [98.025888, 24.064525], [98.02628, 24.064569], [98.02658, 24.064652], [98.02684, 24.06505], [98.027181, 24.065554], [98.027532, 24.065819], [98.027707, 24.065857], [98.028047, 24.065888], [98.028318, 24.06596], [98.028544, 24.066107], [98.029458, 24.067122], [98.029949, 24.067449], [98.029713, 24.067797], [98.02974, 24.067831], [98.030067, 24.068106], [98.030271, 24.068164], [98.03085, 24.068228], [98.031083, 24.068131], [98.031555, 24.067926], [98.031936, 24.067837], [98.032315, 24.067998], [98.03275, 24.068292], [98.033007, 24.068644], [98.033377, 24.069075], [98.033849, 24.06935], [98.034069, 24.06958], [98.034616, 24.070466], [98.034933, 24.070829], [98.035582, 24.071416], [98.036415, 24.071966], [98.03708, 24.072294], [98.037738, 24.072426], [98.038216, 24.072754], [98.038658, 24.073058], [98.039092, 24.07323], [98.039289, 24.073361], [98.039492, 24.073645], [98.040034, 24.073826], [98.040691, 24.073921], [98.04149, 24.073886], [98.04186, 24.073769], [98.042338, 24.07371], [98.04277, 24.073572], [98.043301, 24.073537], [98.044004, 24.073586], [98.04417, 24.073611], [98.044435, 24.073529], [98.044526, 24.073529], [98.044669, 24.073674], [98.044884, 24.074012], [98.045122, 24.074273], [98.045318, 24.074409], [98.045485, 24.074419], [98.04571, 24.074522], [98.04584, 24.074665], [98.045898, 24.074899], [98.046203, 24.07559], [98.046608, 24.076169], [98.046815, 24.07631], [98.047003, 24.076344], [98.047257, 24.076335], [98.047504, 24.076242], [98.047632, 24.076105], [98.047952, 24.075697], [98.048607, 24.075124], [98.049054, 24.074773], [98.04989, 24.074153], [98.050641, 24.073564], [98.051498, 24.073356], [98.051862, 24.073718], [98.052111, 24.073956], [98.052656, 24.073895], [98.053107, 24.074022], [98.0533, 24.074267], [98.053364, 24.074923], [98.053667, 24.075592], [98.054663, 24.07603], [98.055446, 24.076637], [98.055532, 24.076892], [98.055542, 24.077431], [98.055437, 24.077708], [98.055135, 24.077921], [98.055135, 24.078097], [98.055639, 24.078371], [98.055834, 24.078599], [98.055886, 24.079086], [98.055982, 24.079576], [98.056272, 24.079742], [98.056669, 24.079703], [98.057036, 24.079578], [98.057197, 24.079432], [98.057302, 24.078939], [98.057356, 24.078479], [98.057506, 24.078293], [98.058278, 24.078479], [98.058675, 24.078704], [98.058858, 24.078557], [98.058997, 24.078283], [98.059115, 24.078264], [98.059491, 24.078283], [98.059587, 24.07845], [98.059534, 24.078841], [98.059469, 24.079145], [98.059875, 24.079154], [98.060296, 24.079005], [98.0608, 24.07892], [98.061113, 24.078687], [98.061274, 24.078609], [98.061797, 24.078518], [98.062044, 24.078596], [98.0624, 24.078638], [98.062559, 24.078626], [98.062733, 24.078481], [98.063052, 24.078577], [98.063578, 24.0789], [98.063774, 24.079226], [98.063892, 24.079353], [98.064093, 24.07938], [98.064286, 24.079233], [98.064406, 24.078971], [98.064447, 24.078665], [98.0642, 24.07842], [98.064128, 24.078217], [98.06419, 24.078038], [98.064372, 24.078009], [98.064876, 24.078195], [98.065037, 24.07842], [98.065286, 24.078893], [98.065949, 24.079547], [98.066153, 24.079674], [98.066509, 24.079735], [98.066778, 24.079951], [98.066872, 24.080291], [98.067089, 24.080548], [98.067282, 24.080656], [98.068514, 24.080771], [98.068762, 24.081009], [98.068835, 24.081437], [98.068841, 24.081632], [98.068919, 24.081835], [98.069025, 24.081997], [98.069119, 24.082048], [98.069355, 24.081898], [98.069663, 24.081753], [98.069886, 24.081682], [98.070044, 24.08173], [98.070177, 24.081855], [98.070279, 24.082002], [98.070394, 24.082124], [98.070516, 24.082171], [98.070556, 24.082186], [98.070586, 24.082184], [98.070628, 24.082172], [98.070658, 24.082123], [98.070865, 24.081773], [98.071252, 24.08136], [98.071329, 24.081268], [98.071313, 24.081179], [98.07129, 24.08106], [98.071303, 24.080993], [98.071382, 24.080876], [98.071506, 24.080819], [98.071588, 24.080797], [98.071706, 24.080743], [98.072132, 24.080518], [98.07232, 24.080354], [98.072648, 24.080072], [98.072718, 24.079984], [98.0727, 24.07991], [98.072706, 24.079845], [98.07272, 24.079783], [98.072752, 24.079724], [98.072831, 24.079685], [98.072948, 24.079678], [98.073029, 24.079698], [98.073115, 24.079746], [98.073147, 24.079779], [98.073287, 24.079864], [98.073393, 24.079903], [98.073516, 24.0799], [98.073599, 24.079897], [98.073668, 24.079885], [98.073755, 24.079812], [98.073756, 24.07977], [98.073711, 24.079719], [98.073599, 24.079669], [98.073374, 24.079466], [98.073304, 24.079391], [98.073205, 24.079106], [98.073011, 24.078687], [98.072988, 24.078499], [98.073008, 24.078386], [98.073036, 24.07832], [98.073095, 24.078273], [98.073176, 24.078267], [98.073308, 24.078271], [98.073398, 24.078271], [98.073504, 24.078245], [98.073581, 24.078207], [98.073755, 24.078134], [98.073888, 24.078119], [98.074016, 24.078115], [98.074121, 24.078115], [98.074409, 24.078188], [98.07467, 24.078244], [98.074778, 24.078245], [98.074951, 24.078245], [98.075042, 24.078226], [98.075203, 24.078254], [98.075582, 24.078308], [98.075868, 24.078403], [98.076378, 24.078685], [98.076544, 24.078882], [98.076693, 24.079023], [98.076811, 24.079025], [98.07689, 24.079004], [98.077108, 24.079321], [98.077308, 24.079596], [98.077422, 24.079714], [98.077498, 24.079892], [98.077609, 24.080022], [98.077741, 24.080098], [98.077843, 24.080099], [98.077939, 24.080084], [98.078104, 24.08004], [98.0784, 24.079968], [98.078502, 24.079942], [98.078571, 24.079946], [98.078654, 24.08], [98.078842, 24.080117], [98.079007, 24.080238], [98.079086, 24.080384], [98.079374, 24.08074], [98.079457, 24.08084], [98.079637, 24.08093], [98.079929, 24.081084], [98.080406, 24.08163], [98.080712, 24.081741], [98.081004, 24.082292], [98.08127, 24.082603], [98.081538, 24.082573], [98.081884, 24.082262], [98.082118, 24.082211], [98.082624, 24.08239], [98.083309, 24.082475], [98.083437, 24.082671], [98.083512, 24.082887], [98.083437, 24.083151], [98.083512, 24.083396], [98.083738, 24.083474], [98.084255, 24.08334], [98.084534, 24.082703], [98.084843, 24.082338], [98.084984, 24.082086], [98.085124, 24.081968], [98.085347, 24.081888], [98.085862, 24.081938], [98.086238, 24.081888], [98.086645, 24.081682], [98.086873, 24.081482], [98.087313, 24.081234], [98.087621, 24.081218], [98.087637, 24.081424], [98.087626, 24.081581], [98.087476, 24.08177], [98.087439, 24.081962], [98.087461, 24.082282], [98.087711, 24.082517], [98.087843, 24.082675], [98.087883, 24.082972], [98.087592, 24.083199], [98.087524, 24.083518], [98.087676, 24.083745], [98.087865, 24.08368], [98.088288, 24.083629], [98.088418, 24.083772], [98.088446, 24.084019], [98.088396, 24.084491], [98.088381, 24.084929], [98.088135, 24.085715], [98.088226, 24.085943], [98.088462, 24.086139], [98.088502, 24.086365], [98.088266, 24.086669], [98.088004, 24.08682], [98.088146, 24.087372], [98.088369, 24.087662], [98.088428, 24.087816], [98.088818, 24.088119], [98.089048, 24.088527], [98.089372, 24.088748], [98.089712, 24.08887], [98.090287, 24.088783], [98.090934, 24.088685], [98.091663, 24.088626], [98.092003, 24.088706], [98.092568, 24.088744], [98.093029, 24.088788], [98.093084, 24.088802], [98.093951, 24.088735], [98.094022, 24.08871], [98.094209, 24.088656], [98.094365, 24.088597], [98.094773, 24.088582], [98.095095, 24.088666], [98.095427, 24.088906], [98.095706, 24.089053], [98.096017, 24.088986], [98.096425, 24.08869], [98.096715, 24.088661], [98.096978, 24.088631], [98.097324, 24.088665], [98.097543, 24.088674], [98.098075, 24.088848], [98.099295, 24.089204], [98.099644, 24.089449], [98.099804, 24.089645], [98.099858, 24.090071], [98.100346, 24.091056], [98.100534, 24.091139], [98.100824, 24.090987], [98.101451, 24.090532], [98.102245, 24.090732], [98.10275, 24.090786], [98.103164, 24.090823], [98.103693, 24.091121], [98.104311, 24.091521], [98.104574, 24.091722], [98.104895, 24.092035], [98.105507, 24.092055], [98.105952, 24.092358], [98.106371, 24.092765], [98.108178, 24.094376], [98.108908, 24.09511], [98.110732, 24.095463], [98.111697, 24.095473], [98.11298, 24.095532], [98.114042, 24.095385], [98.114567, 24.095257], [98.114905, 24.094895], [98.115614, 24.095184], [98.116139, 24.09514], [98.116456, 24.095027], [98.116794, 24.094768], [98.1174, 24.094552], [98.117825, 24.094322], [98.118197, 24.094245], [98.119049, 24.094252], [98.119633, 24.094311], [98.12004, 24.094291], [98.120348, 24.094393], [98.120621, 24.094597], [98.121112, 24.094767], [98.121382, 24.094594], [98.121731, 24.094612], [98.121918, 24.09479], [98.122346, 24.094784], [98.122935, 24.095131], [98.12315, 24.095149], [98.124051, 24.094938], [98.124778, 24.09486], [98.125282, 24.095026], [98.125532, 24.095392], [98.125828, 24.095574], [98.126266, 24.095694], [98.127266, 24.0957], [98.127766, 24.095581], [98.128345, 24.095444], [98.128791, 24.095451], [98.129272, 24.095346], [98.129738, 24.095372], [98.130184, 24.095588], [98.130652, 24.095614], [98.131084, 24.095811], [98.131349, 24.095832], [98.131813, 24.095541], [98.132262, 24.095438], [98.132722, 24.095589], [98.133221, 24.095484], [98.133994, 24.095594], [98.134287, 24.095817], [98.134362, 24.095961], [98.134921, 24.096034], [98.13507, 24.096163], [98.135255, 24.09624], [98.135512, 24.096158], [98.135923, 24.095912], [98.136604, 24.096046], [98.136746, 24.096176], [98.136946, 24.09626], [98.137434, 24.096122], [98.137919, 24.096356], [98.139275, 24.096468], [98.140353, 24.096672], [98.141481, 24.096702], [98.142025, 24.096608], [98.142872, 24.096725], [98.143749, 24.096637], [98.144713, 24.096696], [98.145668, 24.096588], [98.147463, 24.096632], [98.14841, 24.096936], [98.14887, 24.09677], [98.149412, 24.09712], [98.150056, 24.097594], [98.150805, 24.097753], [98.151619, 24.09821], [98.153452, 24.098756], [98.156487, 24.100377], [98.160139, 24.100961], [98.162185, 24.101166], [98.16385, 24.101166], [98.165223, 24.10102], [98.167735, 24.100669], [98.169634, 24.100757], [98.17054, 24.100903], [98.170921, 24.101051], [98.171008, 24.101341], [98.170774, 24.101604], [98.170248, 24.101954], [98.169634, 24.102276], [98.168261, 24.10286], [98.167969, 24.103386], [98.167735, 24.104905], [98.167765, 24.105519], [98.16794, 24.105753], [98.167511, 24.106366], [98.16696, 24.106838], [98.166332, 24.106799], [98.16584, 24.107288], [98.164828, 24.107835], [98.160739, 24.116949], [98.160653, 24.12635], [98.159838, 24.127211], [98.153744, 24.124626], [98.149495, 24.125762], [98.138938, 24.131676], [98.130441, 24.131715], [98.123832, 24.130384], [98.11924, 24.127015], [98.108168, 24.127877], [98.096409, 24.129835], [98.093061, 24.132303], [98.085465, 24.14413], [98.081989, 24.143621], [98.079543, 24.141036], [98.074951, 24.139235], [98.070531, 24.138765], [98.067312, 24.135514], [98.063407, 24.133243], [98.060617, 24.130384], [98.058386, 24.129639], [98.05345, 24.130227], [98.048386, 24.12917], [98.044782, 24.128856], [98.043234, 24.128518], [98.041575, 24.126178], [98.039661, 24.124698], [98.039444, 24.122474], [98.038296, 24.121006], [98.037907, 24.120743], [98.037301, 24.120331], [98.036076, 24.119935], [98.034378, 24.120168], [98.033204, 24.12018], [98.031329, 24.119644], [98.029198, 24.118161], [98.026017, 24.116382], [98.024334, 24.114867], [98.023414, 24.113558], [98.02114, 24.111466], [98.02022, 24.110782], [98.018577, 24.110057], [98.017025, 24.109085], [98.015952, 24.108188], [98.014003, 24.103921], [98.012694, 24.102488], [98.011115, 24.10187], [98.008724, 24.102258], [98.005777, 24.103077], [98.003544, 24.103342], [98.001374, 24.103563], [97.99923, 24.103662], [97.996659, 24.10283], [97.992863, 24.099696], [97.992199, 24.098438], [97.989941, 24.095293], [97.988594, 24.094146], [97.987389, 24.092311], [97.986017, 24.08902], [97.984658, 24.086952], [97.982801, 24.083504], [97.98127, 24.081949], [97.976829, 24.076898], [97.975649, 24.074021], [97.974692, 24.070432]]]]}}, {"type": "Feature", "properties": {"role": "core_after", "label": "CoreMap 6619 after clip", "core_id": "6619"}, "geometry": {"type": "Polygon", "coordinates": [[[98.006165, 24.05252], [98.006063, 24.05182], [98.005822, 24.051291], [98.0056, 24.05102], [98.005364, 24.050878], [98.005037, 24.050741], [98.004784, 24.050687], [98.004439, 24.050686], [98.003869, 24.050415], [98.003513, 24.050088], [98.003274, 24.050035], [98.003191, 24.050182], [98.003443, 24.050602], [98.003735, 24.050644], [98.003794, 24.050979], [98.00351, 24.051279], [98.003406, 24.051338], [98.003207, 24.05127], [98.003009, 24.051152], [98.002478, 24.051015], [98.002389, 24.050792], [98.002816, 24.050324], [98.002891, 24.050148], [98.002762, 24.050011], [98.002365, 24.049967], [98.002236, 24.049692], [98.002164, 24.04966], [98.002124, 24.049673], [98.00203, 24.050057], [98.00204, 24.050225], [98.002104, 24.050471], [98.00186, 24.050706], [98.001779, 24.050856], [98.001638, 24.05106], [98.001485, 24.051065], [98.001412, 24.051205], [98.001296, 24.051291], [98.001218, 24.051315], [98.0011, 24.051283], [98.00044, 24.050986], [98.0006, 24.050356], [98.000799, 24.050383], [98.001003, 24.050168], [98.001324, 24.049864], [98.001185, 24.048967], [98.00104, 24.048737], [98.00082, 24.04872], [98.000273, 24.049031], [97.999431, 24.048673], [97.999243, 24.048198], [97.99897, 24.048017], [97.998728, 24.047988], [97.99832, 24.048076], [97.998122, 24.047875], [97.997859, 24.047801], [97.997704, 24.047978], [97.997725, 24.048046], [97.998208, 24.048139], [97.998336, 24.048428], [97.998331, 24.048752], [97.998154, 24.049104], [97.998009, 24.049188], [97.997736, 24.049114], [97.997398, 24.048801], [97.99728, 24.048737], [97.997054, 24.04883], [97.996834, 24.04882], [97.9967, 24.048869], [97.996695, 24.04906], [97.996808, 24.049349], [97.996695, 24.049447], [97.996438, 24.049359], [97.996196, 24.049193], [97.996116, 24.048987], [97.996223, 24.048732], [97.996153, 24.048673], [97.995998, 24.048703], [97.995901, 24.048938], [97.99581, 24.049158], [97.995372, 24.049218], [97.99529, 24.049158], [97.995233, 24.049003], [97.995115, 24.048949], [97.994916, 24.048876], [97.994684, 24.048639], [97.994662, 24.048507], [97.994726, 24.048301], [97.99478, 24.048007], [97.994723, 24.047778], [97.994642, 24.047592], [97.994471, 24.047577], [97.99419, 24.047674], [97.993967, 24.047602], [97.993886, 24.047416], [97.99389, 24.047228], [97.994077, 24.046876], [97.994104, 24.046724], [97.994074, 24.046485], [97.993929, 24.046309], [97.9938, 24.046333], [97.993654, 24.046567], [97.99345, 24.04667], [97.993316, 24.046724], [97.993049, 24.046598], [97.992881, 24.04641], [97.992765, 24.046269], [97.992695, 24.045902], [97.992661, 24.045401], [97.992615, 24.045167], [97.992513, 24.044947], [97.991438, 24.044083], [97.99132, 24.043969], [97.991084, 24.043784], [97.99095, 24.043529], [97.990885, 24.042892], [97.990451, 24.041913], [97.990343, 24.041707], [97.990215, 24.041379], [97.990048, 24.041026], [97.98986, 24.040894], [97.989536, 24.040652], [97.989254, 24.040502], [97.989195, 24.040418], [97.989147, 24.040272], [97.989249, 24.039831], [97.989211, 24.039664], [97.989152, 24.039537], [97.988992, 24.039542], [97.988772, 24.039571], [97.9886, 24.039483], [97.988396, 24.03935], [97.988342, 24.039257], [97.988375, 24.03915], [97.988476, 24.039096], [97.988584, 24.039047], [97.98878, 24.039084], [97.988868, 24.039071], [97.988959, 24.039027], [97.98904, 24.038914], [97.989029, 24.038792], [97.988938, 24.038694], [97.988375, 24.038572], [97.987956, 24.038576], [97.987645, 24.038748], [97.987377, 24.038782], [97.987178, 24.038733], [97.987001, 24.038679], [97.986958, 24.038547], [97.986958, 24.038469], [97.987253, 24.038273], [97.987473, 24.038077], [97.987479, 24.03791], [97.987345, 24.037861], [97.987012, 24.037802], [97.986873, 24.037856], [97.986787, 24.038086], [97.986776, 24.038312], [97.986631, 24.038425], [97.986046, 24.038464], [97.985859, 24.038503], [97.985719, 24.03842], [97.985714, 24.038268], [97.985687, 24.038033], [97.985628, 24.03794], [97.985542, 24.037935], [97.985301, 24.038101], [97.985156, 24.038209], [97.984947, 24.038248], [97.984748, 24.038238], [97.984475, 24.038189], [97.984324, 24.038111], [97.984298, 24.038023], [97.984298, 24.03794], [97.984426, 24.037778], [97.984711, 24.037249], [97.984893, 24.037077], [97.985231, 24.036925], [97.985306, 24.036862], [97.985328, 24.036788], [97.985242, 24.036685], [97.985016, 24.036568], [97.984898, 24.036494], [97.984877, 24.036401], [97.984914, 24.036328], [97.985022, 24.036288], [97.985215, 24.036318], [97.985529, 24.0364], [97.985722, 24.036434], [97.985816, 24.036372], [97.985757, 24.03624], [97.985666, 24.036083], [97.98551, 24.03595], [97.985387, 24.035808], [97.985317, 24.035647], [97.985285, 24.035534], [97.985328, 24.035485], [97.985569, 24.035426], [97.985687, 24.035382], [97.985778, 24.035309], [97.985708, 24.035201], [97.985532, 24.035176], [97.985236, 24.035029], [97.985065, 24.035015], [97.984984, 24.035122], [97.985054, 24.035372], [97.985022, 24.035519], [97.984931, 24.035612], [97.98477, 24.035554], [97.984673, 24.03548], [97.984512, 24.035196], [97.984469, 24.034853], [97.984421, 24.034721], [97.984276, 24.034721], [97.984121, 24.034819], [97.983745, 24.035323], [97.983563, 24.035402], [97.983472, 24.035274], [97.983466, 24.035127], [97.983488, 24.034946], [97.983643, 24.034721], [97.983847, 24.03452], [97.983928, 24.034383], [97.983885, 24.034255], [97.983767, 24.034201], [97.983477, 24.034236], [97.983037, 24.034476], [97.98279, 24.034481], [97.982517, 24.034427], [97.982114, 24.034128], [97.98197, 24.033868], [97.981808, 24.033697], [97.981642, 24.033564], [97.981481, 24.033555], [97.981149, 24.033638], [97.980872, 24.033684], [97.980649, 24.033783], [97.980117, 24.03392], [97.979912, 24.033886], [97.979493, 24.033404], [97.979419, 24.033379], [97.979113, 24.033399], [97.97902, 24.03336], [97.978968, 24.033304], [97.978948, 24.033228], [97.978951, 24.033036], [97.9789, 24.032895], [97.978481, 24.032347], [97.97828, 24.032274], [97.978116, 24.03228], [97.977812, 24.032224], [97.977773, 24.032207], [97.977299, 24.032195], [97.977144, 24.032206], [97.976637, 24.032513], [97.97667, 24.032568], [97.97784, 24.034297], [97.97842, 24.035452], [97.980192, 24.036565], [97.980456, 24.037943], [97.980273, 24.042564], [97.979102, 24.044564], [97.978999, 24.04537], [97.978951, 24.046181], [97.978781, 24.046388], [97.977873, 24.046951], [97.975435, 24.050127], [97.975454, 24.051852], [97.975977, 24.053252], [97.97593, 24.054849], [97.975665, 24.059143], [97.975716, 24.062247], [97.974692, 24.070432], [97.975649, 24.074021], [97.976829, 24.076898], [97.98127, 24.081949], [97.982801, 24.083504], [97.984658, 24.086952], [97.986017, 24.08902], [97.987389, 24.092311], [97.988594, 24.094146], [97.989941, 24.095293], [97.992199, 24.098438], [97.992863, 24.099696], [97.996659, 24.10283], [97.99923, 24.103662], [98.001374, 24.103563], [98.003544, 24.103342], [98.005777, 24.103077], [98.008724, 24.102258], [98.011115, 24.10187], [98.012694, 24.102488], [98.014003, 24.103921], [98.015952, 24.108188], [98.017025, 24.109085], [98.018577, 24.110057], [98.02022, 24.110782], [98.02114, 24.111466], [98.023414, 24.113558], [98.024334, 24.114867], [98.026017, 24.116382], [98.029198, 24.118161], [98.031329, 24.119644], [98.033204, 24.12018], [98.034378, 24.120168], [98.036076, 24.119935], [98.037301, 24.120331], [98.037907, 24.120743], [98.038296, 24.121006], [98.039444, 24.122474], [98.039661, 24.124698], [98.041575, 24.126178], [98.043234, 24.128518], [98.044782, 24.128856], [98.048386, 24.12917], [98.05345, 24.130227], [98.058386, 24.129639], [98.060617, 24.130384], [98.063407, 24.133243], [98.067312, 24.135514], [98.070531, 24.138765], [98.074951, 24.139235], [98.079543, 24.141036], [98.081989, 24.143621], [98.085465, 24.14413], [98.093061, 24.132303], [98.096409, 24.129835], [98.108168, 24.127877], [98.11924, 24.127015], [98.123832, 24.130384], [98.130441, 24.131715], [98.138938, 24.131676], [98.149495, 24.125762], [98.153744, 24.124626], [98.159838, 24.127211], [98.160653, 24.12635], [98.160739, 24.116949], [98.164828, 24.107835], [98.16584, 24.107288], [98.166332, 24.106799], [98.16696, 24.106838], [98.167511, 24.106366], [98.16794, 24.105753], [98.167765, 24.105519], [98.167735, 24.104905], [98.167969, 24.103386], [98.168261, 24.10286], [98.169634, 24.102276], [98.170248, 24.101954], [98.170774, 24.101604], [98.171008, 24.101341], [98.170921, 24.101051], [98.17054, 24.100903], [98.169634, 24.100757], [98.167735, 24.100669], [98.165223, 24.10102], [98.16385, 24.101166], [98.162185, 24.101166], [98.160139, 24.100961], [98.156487, 24.100377], [98.153452, 24.098756], [98.151619, 24.09821], [98.150805, 24.097753], [98.150056, 24.097594], [98.149412, 24.09712], [98.14887, 24.09677], [98.14841, 24.096936], [98.147463, 24.096632], [98.145668, 24.096588], [98.144713, 24.096696], [98.143749, 24.096637], [98.142872, 24.096725], [98.142025, 24.096608], [98.141481, 24.096702], [98.140353, 24.096672], [98.139275, 24.096468], [98.137919, 24.096356], [98.137434, 24.096122], [98.136946, 24.09626], [98.136746, 24.096176], [98.136604, 24.096046], [98.135923, 24.095912], [98.135512, 24.096158], [98.135255, 24.09624], [98.13507, 24.096163], [98.134921, 24.096034], [98.134362, 24.095961], [98.134287, 24.095817], [98.133994, 24.095594], [98.133221, 24.095484], [98.132722, 24.095589], [98.132262, 24.095438], [98.131813, 24.095541], [98.131349, 24.095832], [98.131084, 24.095811], [98.130652, 24.095614], [98.130184, 24.095588], [98.129738, 24.095372], [98.129272, 24.095346], [98.128791, 24.095451], [98.128345, 24.095444], [98.127766, 24.095581], [98.127266, 24.0957], [98.126266, 24.095694], [98.125828, 24.095574], [98.125532, 24.095392], [98.125282, 24.095026], [98.124778, 24.09486], [98.124051, 24.094938], [98.12315, 24.095149], [98.122935, 24.095131], [98.122346, 24.094784], [98.121918, 24.09479], [98.121731, 24.094612], [98.121382, 24.094594], [98.121112, 24.094767], [98.120621, 24.094597], [98.120348, 24.094393], [98.12004, 24.094291], [98.119633, 24.094311], [98.119049, 24.094252], [98.118197, 24.094245], [98.117825, 24.094322], [98.1174, 24.094552], [98.116794, 24.094768], [98.116456, 24.095027], [98.116139, 24.09514], [98.115614, 24.095184], [98.114905, 24.094895], [98.114567, 24.095257], [98.114042, 24.095385], [98.11298, 24.095532], [98.111697, 24.095473], [98.110732, 24.095463], [98.108908, 24.09511], [98.108178, 24.094376], [98.106371, 24.092765], [98.105952, 24.092358], [98.105507, 24.092055], [98.104895, 24.092035], [98.104574, 24.091722], [98.104311, 24.091521], [98.103693, 24.091121], [98.103164, 24.090823], [98.10275, 24.090786], [98.102245, 24.090732], [98.101451, 24.090532], [98.100824, 24.090987], [98.100534, 24.091139], [98.100346, 24.091056], [98.099858, 24.090071], [98.099804, 24.089645], [98.099644, 24.089449], [98.099295, 24.089204], [98.098075, 24.088848], [98.097543, 24.088674], [98.097324, 24.088665], [98.096978, 24.088631], [98.096715, 24.088661], [98.096425, 24.08869], [98.096017, 24.088986], [98.095706, 24.089053], [98.095427, 24.088906], [98.095095, 24.088666], [98.094773, 24.088582], [98.094365, 24.088597], [98.094209, 24.088656], [98.094022, 24.08871], [98.093951, 24.088735], [98.093084, 24.088802], [98.093029, 24.088788], [98.092568, 24.088744], [98.092003, 24.088706], [98.091663, 24.088626], [98.090934, 24.088685], [98.090287, 24.088783], [98.089712, 24.08887], [98.089372, 24.088748], [98.089048, 24.088527], [98.088818, 24.088119], [98.088428, 24.087816], [98.088369, 24.087662], [98.088146, 24.087372], [98.088004, 24.08682], [98.088266, 24.086669], [98.088502, 24.086365], [98.088462, 24.086139], [98.088226, 24.085943], [98.088135, 24.085715], [98.088381, 24.084929], [98.088396, 24.084491], [98.088446, 24.084019], [98.088418, 24.083772], [98.088288, 24.083629], [98.087865, 24.08368], [98.087676, 24.083745], [98.087524, 24.083518], [98.087592, 24.083199], [98.087883, 24.082972], [98.087843, 24.082675], [98.087711, 24.082517], [98.087461, 24.082282], [98.087439, 24.081962], [98.087476, 24.08177], [98.087626, 24.081581], [98.087637, 24.081424], [98.087621, 24.081218], [98.087313, 24.081234], [98.086873, 24.081482], [98.086645, 24.081682], [98.086238, 24.081888], [98.085862, 24.081938], [98.085347, 24.081888], [98.085124, 24.081968], [98.084984, 24.082086], [98.084843, 24.082338], [98.084534, 24.082703], [98.084255, 24.08334], [98.083738, 24.083474], [98.083512, 24.083396], [98.083437, 24.083151], [98.083512, 24.082887], [98.083437, 24.082671], [98.083309, 24.082475], [98.082624, 24.08239], [98.082118, 24.082211], [98.081884, 24.082262], [98.081538, 24.082573], [98.08127, 24.082603], [98.081004, 24.082292], [98.080712, 24.081741], [98.080406, 24.08163], [98.079929, 24.081084], [98.079637, 24.08093], [98.079457, 24.08084], [98.079374, 24.08074], [98.079086, 24.080384], [98.079007, 24.080238], [98.078842, 24.080117], [98.078654, 24.08], [98.078571, 24.079946], [98.078502, 24.079942], [98.0784, 24.079968], [98.078104, 24.08004], [98.077939, 24.080084], [98.077843, 24.080099], [98.077741, 24.080098], [98.077609, 24.080022], [98.077498, 24.079892], [98.077422, 24.079714], [98.077308, 24.079596], [98.077108, 24.079321], [98.07689, 24.079004], [98.076811, 24.079025], [98.076693, 24.079023], [98.076544, 24.078882], [98.076378, 24.078685], [98.075868, 24.078403], [98.075582, 24.078308], [98.075203, 24.078254], [98.075042, 24.078226], [98.074951, 24.078245], [98.074778, 24.078245], [98.07467, 24.078244], [98.074409, 24.078188], [98.074121, 24.078115], [98.074016, 24.078115], [98.073888, 24.078119], [98.073755, 24.078134], [98.073581, 24.078207], [98.073504, 24.078245], [98.073398, 24.078271], [98.073308, 24.078271], [98.073176, 24.078267], [98.073095, 24.078273], [98.073036, 24.07832], [98.073008, 24.078386], [98.072988, 24.078499], [98.073011, 24.078687], [98.073205, 24.079106], [98.073304, 24.079391], [98.073374, 24.079466], [98.073599, 24.079669], [98.073711, 24.079719], [98.073756, 24.07977], [98.073755, 24.079812], [98.073668, 24.079885], [98.073599, 24.079897], [98.073516, 24.0799], [98.073393, 24.079903], [98.073287, 24.079864], [98.073147, 24.079779], [98.073115, 24.079746], [98.073029, 24.079698], [98.072948, 24.079678], [98.072831, 24.079685], [98.072752, 24.079724], [98.07272, 24.079783], [98.072706, 24.079845], [98.0727, 24.07991], [98.072718, 24.079984], [98.072648, 24.080072], [98.07232, 24.080354], [98.072132, 24.080518], [98.071706, 24.080743], [98.071588, 24.080797], [98.071506, 24.080819], [98.071382, 24.080876], [98.071303, 24.080993], [98.07129, 24.08106], [98.071313, 24.081179], [98.071329, 24.081268], [98.071252, 24.08136], [98.070865, 24.081773], [98.070658, 24.082123], [98.070628, 24.082172], [98.070586, 24.082184], [98.070556, 24.082186], [98.070516, 24.082171], [98.070394, 24.082124], [98.070279, 24.082002], [98.070177, 24.081855], [98.070044, 24.08173], [98.069886, 24.081682], [98.069663, 24.081753], [98.069355, 24.081898], [98.069119, 24.082048], [98.069025, 24.081997], [98.068919, 24.081835], [98.068841, 24.081632], [98.068835, 24.081437], [98.068762, 24.081009], [98.068514, 24.080771], [98.067282, 24.080656], [98.067089, 24.080548], [98.066872, 24.080291], [98.066778, 24.079951], [98.066509, 24.079735], [98.066153, 24.079674], [98.065949, 24.079547], [98.065286, 24.078893], [98.065037, 24.07842], [98.064876, 24.078195], [98.064372, 24.078009], [98.06419, 24.078038], [98.064128, 24.078217], [98.0642, 24.07842], [98.064447, 24.078665], [98.064406, 24.078971], [98.064286, 24.079233], [98.064093, 24.07938], [98.063892, 24.079353], [98.063774, 24.079226], [98.063578, 24.0789], [98.063052, 24.078577], [98.062733, 24.078481], [98.062559, 24.078626], [98.0624, 24.078638], [98.062044, 24.078596], [98.061797, 24.078518], [98.061274, 24.078609], [98.061113, 24.078687], [98.0608, 24.07892], [98.060296, 24.079005], [98.059875, 24.079154], [98.059469, 24.079145], [98.059534, 24.078841], [98.059587, 24.07845], [98.059491, 24.078283], [98.059115, 24.078264], [98.058997, 24.078283], [98.058858, 24.078557], [98.058675, 24.078704], [98.058278, 24.078479], [98.057506, 24.078293], [98.057356, 24.078479], [98.057302, 24.078939], [98.057197, 24.079432], [98.057036, 24.079578], [98.056669, 24.079703], [98.056272, 24.079742], [98.055982, 24.079576], [98.055886, 24.079086], [98.055834, 24.078599], [98.055639, 24.078371], [98.055135, 24.078097], [98.055135, 24.077921], [98.055437, 24.077708], [98.05549963155005, 24.07754277200606], [98.05077950377114, 24.07370664504566], [98.05045219931768, 24.073712074037143], [98.04989, 24.074153], [98.049054, 24.074773], [98.048607, 24.075124], [98.047952, 24.075697], [98.047632, 24.076105], [98.047504, 24.076242], [98.047257, 24.076335], [98.047003, 24.076344], [98.046815, 24.07631], [98.046608, 24.076169], [98.046203, 24.07559], [98.045898, 24.074899], [98.04584, 24.074665], [98.04571, 24.074522], [98.045485, 24.074419], [98.045318, 24.074409], [98.045122, 24.074273], [98.044884, 24.074012], [98.04475334664745, 24.073806600775992], [98.04157433812371, 24.07385933091764], [98.04149, 24.073886], [98.040691, 24.073921], [98.040034, 24.073826], [98.039492, 24.073645], [98.039289, 24.073361], [98.039092, 24.07323], [98.038658, 24.073058], [98.038216, 24.072754], [98.037738, 24.072426], [98.03708, 24.072294], [98.036415, 24.071966], [98.035582, 24.071416], [98.03500700595879, 24.070895936052093], [98.0231204135763, 24.065036488942837], [98.0087163266972, 24.056830721160907], [98.00382428816044, 24.054572211438483], [98.00621701626474, 24.052688574449977], [98.006165, 24.05252]]]}}, {"type": "Feature", "properties": {"role": "intersection", "label": "Overlap removed", "core_id": "6619"}, "geometry": {"type": "MultiPolygon", "coordinates": [[[[98.034933, 24.070829], [98.034616, 24.070466], [98.034069, 24.06958], [98.033849, 24.06935], [98.033377, 24.069075], [98.033007, 24.068644], [98.03275, 24.068292], [98.032315, 24.067998], [98.031936, 24.067837], [98.031555, 24.067926], [98.031083, 24.068131], [98.03085, 24.068228], [98.030271, 24.068164], [98.030067, 24.068106], [98.02974, 24.067831], [98.029713, 24.067797], [98.029949, 24.067449], [98.029458, 24.067122], [98.028544, 24.066107], [98.028318, 24.06596], [98.028047, 24.065888], [98.027707, 24.065857], [98.027532, 24.065819], [98.027181, 24.065554], [98.02684, 24.06505], [98.02658, 24.064652], [98.02628, 24.064569], [98.025888, 24.064525], [98.025609, 24.064525], [98.024687, 24.064311], [98.024572, 24.064125], [98.024478, 24.063894], [98.024426, 24.063801], [98.024265, 24.063728], [98.023946, 24.063423], [98.023095, 24.062954], [98.022393, 24.062611], [98.022226, 24.062351], [98.022064, 24.062015], [98.021946, 24.061552], [98.021958, 24.061195], [98.022001, 24.060936], [98.02199, 24.060603], [98.021908, 24.060376], [98.021672, 24.060239], [98.021307, 24.060151], [98.021146, 24.06018], [98.021009, 24.060191], [98.020476, 24.059989], [98.020148, 24.059769], [98.019952, 24.059466], [98.019405, 24.058732], [98.019056, 24.058413], [98.018566, 24.058284], [98.018233, 24.058319], [98.017806, 24.058472], [98.017606, 24.058417], [98.017102, 24.057716], [98.01647, 24.057277], [98.015632, 24.056991], [98.015202, 24.056996], [98.014773, 24.057099], [98.014274, 24.057442], [98.013942, 24.057511], [98.013509, 24.057512], [98.01316, 24.057487], [98.013067, 24.057452], [98.012906, 24.057261], [98.012434, 24.056541], [98.011774, 24.0551], [98.010895, 24.054914], [98.010256, 24.054929], [98.009575, 24.054753], [98.009379, 24.054606], [98.009339, 24.054361], [98.009433, 24.053778], [98.00935, 24.053489], [98.009216, 24.053275], [98.008642, 24.053455], [98.008304, 24.053572], [98.00763, 24.053882], [98.00734, 24.053956], [98.007013, 24.053951], [98.00677, 24.053905], [98.006589, 24.053799], [98.006464, 24.053489], [98.00621701626474, 24.052688574449977], [98.00382428816044, 24.054572211438483], [98.0087163266972, 24.056830721160907], [98.0231204135763, 24.065036488942837], [98.03500700595879, 24.070895936052093], [98.034933, 24.070829]]], [[[98.044669, 24.073674], [98.044526, 24.073529], [98.044435, 24.073529], [98.04417, 24.073611], [98.044004, 24.073586], [98.043301, 24.073537], [98.04277, 24.073572], [98.042338, 24.07371], [98.04186, 24.073769], [98.04157433812371, 24.07385933091764], [98.04475334664745, 24.073806600775992], [98.044669, 24.073674]]], [[[98.055542, 24.077431], [98.055532, 24.076892], [98.055446, 24.076637], [98.054663, 24.07603], [98.053667, 24.075592], [98.053364, 24.074923], [98.0533, 24.074267], [98.053107, 24.074022], [98.052656, 24.073895], [98.052111, 24.073956], [98.051862, 24.073718], [98.051498, 24.073356], [98.050641, 24.073564], [98.05045219931768, 24.073712074037143], [98.05077950377114, 24.07370664504566], [98.05549963155005, 24.07754277200606], [98.055542, 24.077431]]]]}}]}