{"type": "FeatureCollection", "features": [{"type": "Feature", "properties": {"role": "mimu_new", "label": "MIMU new", "source_key": "village_tract:MMR006001016:row13238:village_tract_boundary_Tanintharyi_v94.zip_mmr_tni_polbnda_adm4_unhcr_mimu_250k.", "name_en": "Shin Moke Tee", "name_mm": "\u101b\u103e\u1004\u103a\u1019\u102f\u1010\u1039\u1010\u102e\u1038"}, "geometry": {"type": "Polygon", "coordinates": [[[98.19937223983703, 14.036944680252809], [98.20420037974378, 14.035565204770421], [98.20784124008122, 14.03082809963712], [98.2139576399332, 14.026828770431445], [98.21748636020743, 14.026123079616465], [98.22195612027878, 14.025887819667215], [98.22948407982648, 14.026123260380189], [98.23418891998274, 14.030357940366688], [98.23536503986475, 14.031063720214544], [98.2423238400732, 14.030438939605405], [98.24558485195939, 14.028815327865118], [98.23959971985124, 14.022829710123062], [98.23465943988128, 14.016007169795097], [98.23324823991442, 14.010596190062188], [98.23300905082709, 14.001824344917619], [98.23285151658428, 14.002049393065075], [98.23199473606826, 14.001706680319097], [98.23081058074376, 14.002120506056544], [98.2298350015841, 14.001834971306947], [98.22919254659882, 14.00150184623328], [98.22814558465109, 14.000097964049875], [98.2276221027779, 13.998075422942458], [98.22810989325706, 13.994101722616442], [98.22766374408656, 13.992793019282487], [98.2265632427995, 13.99252532978022], [98.22608735125033, 13.992941734773295], [98.22464568764843, 13.996208528400928], [98.2214474016763, 13.99704630624211], [98.2210213973197, 14.00325653596042], [98.22030146034416, 14.003632991269567], [98.22108041173169, 14.004613105710291], [98.22165148302958, 14.006212103006192], [98.22193701777923, 14.008382171599978], [98.22159437607968, 14.010209597594894], [98.220851983932, 14.011408846241295], [98.21297120865444, 14.0129507365873], [98.21040139141115, 14.013179165286314], [98.20840264366711, 14.013750236584201], [98.20537596992511, 14.015177912130975], [98.20132136838652, 14.014549734782458], [98.19995079889031, 14.014606842631741], [98.19698123119896, 14.016662696426353], [98.1982946937452, 14.0211741535644], [98.19612462515141, 14.02488611340345], [98.19612462515141, 14.027056181097917], [98.19755230159751, 14.030368391388208], [98.19932262064248, 14.033109530380552], [98.19937223983703, 14.036944680252809]]]}}, {"type": "Feature", "properties": {"role": "core_before", "label": "CoreMap 7522 before", "core_id": "7522"}, "geometry": {"type": "MultiPolygon", "coordinates": [[[[98.186878, 14.02165], [98.19216, 14.016867], [98.19523, 14.014511], [98.197728, 14.011906], [98.19944, 14.010009], [98.201726, 14.008694], [98.203332, 14.007016], [98.204831, 14.004839], [98.206187, 14.001805], [98.208686, 14.002733], [98.210684, 14.002947], [98.213647, 14.004018], [98.216109, 14.004518], [98.220535, 14.003875], [98.22107, 14.004625], [98.221356, 14.005303], [98.221499, 14.006409], [98.221463, 14.007373], [98.22182, 14.008122], [98.221963, 14.0093], [98.221713, 14.010514], [98.220928, 14.011478], [98.219643, 14.012048], [98.217644, 14.012334], [98.215431, 14.012762], [98.213468, 14.012727], [98.211898, 14.01262], [98.211112, 14.013048], [98.210697, 14.013831], [98.210911, 14.01456], [98.211482, 14.014945], [98.212381, 14.015245], [98.213238, 14.015059], [98.214095, 14.014945], [98.215151, 14.014902], [98.21595, 14.015102], [98.21645, 14.015445], [98.216836, 14.015873], [98.217144, 14.016367], [98.2168, 14.027577], [98.21684, 14.028405], [98.217294, 14.030895], [98.217384, 14.031493], [98.217426, 14.031795], [98.217482, 14.032301], [98.217524, 14.032621], [98.217587, 14.032968], [98.217668, 14.033521], [98.217775, 14.03452], [98.217807, 14.034897], [98.217812, 14.035217], [98.217832, 14.035615], [98.217874, 14.035974], [98.21787, 14.036198], [98.217848, 14.036446], [98.217817, 14.036682], [98.217767, 14.036936], [98.21773, 14.037095], [98.21751, 14.037632], [98.217374, 14.037952], [98.217236, 14.03825], [98.217127, 14.038507], [98.216986, 14.038773], [98.21674, 14.039071], [98.216573, 14.039352], [98.216472, 14.039558], [98.216351, 14.039776], [98.216172, 14.040176], [98.215778, 14.040808], [98.215375, 14.041357], [98.215144, 14.04162], [98.214834, 14.041909], [98.214699, 14.042022], [98.214315, 14.042227], [98.214082, 14.042298], [98.213819, 14.042321], [98.213571, 14.042314], [98.213369, 14.042299], [98.213173, 14.042262], [98.212803, 14.042075], [98.212622, 14.041946], [98.212381, 14.041799], [98.212182, 14.041655], [98.211758, 14.041324], [98.211587, 14.041216], [98.211366, 14.041144], [98.211054, 14.041125], [98.210702, 14.04119], [98.210466, 14.041287], [98.210272, 14.041397], [98.210011, 14.041606], [98.209787, 14.041817], [98.209599, 14.042083], [98.209445, 14.04225], [98.209247, 14.042817], [98.209204, 14.04308], [98.209245, 14.043574], [98.209286, 14.043891], [98.209328, 14.044157], [98.20942, 14.044391], [98.20951, 14.044666], [98.209672, 14.044996], [98.21019, 14.045631], [98.210538, 14.045886], [98.210758, 14.046067], [98.211404, 14.046356], [98.211908, 14.04654], [98.21272, 14.046716], [98.213127, 14.046786], [98.213347, 14.046838], [98.213917, 14.046872], [98.214235, 14.0469], [98.214511, 14.046901], [98.214753, 14.046896], [98.215206, 14.046945], [98.215442, 14.046991], [98.21583, 14.047088], [98.216185, 14.047271], [98.216322, 14.047347], [98.216496, 14.047527], [98.216576, 14.04767], [98.216951, 14.048102], [98.217213, 14.048441], [98.217344, 14.048666], [98.217441, 14.048968], [98.217513, 14.04936], [98.21751, 14.049545], [98.217457, 14.049769], [98.217398, 14.049916], [98.217284, 14.050053], [98.217161, 14.050175], [98.217032, 14.050285], [98.216851, 14.050368], [98.21663, 14.050481], [98.216259, 14.050686], [98.216081, 14.050844], [98.215912, 14.05102], [98.215727, 14.051241], [98.215638, 14.051342], [98.215543, 14.051506], [98.215468, 14.051823], [98.215443, 14.051943], [98.215424, 14.052146], [98.215433, 14.052325], [98.215496, 14.052684], [98.215626, 14.053238], [98.215707, 14.053663], [98.215797, 14.054055], [98.215802, 14.054524], [98.21577, 14.054898], [98.215736, 14.055125], [98.215643, 14.055349], [98.21547, 14.055639], [98.215372, 14.055746], [98.215224, 14.055958], [98.215095, 14.056095], [98.21496, 14.056187], [98.214742, 14.056369], [98.214594, 14.056479], [98.214475, 14.056601], [98.214395, 14.056697], [98.214312, 14.056822], [98.214207, 14.056959], [98.21412, 14.057222], [98.21412, 14.057414], [98.214179, 14.057601], [98.214246, 14.057736], [98.214432, 14.057856], [98.214643, 14.05795], [98.214919, 14.058019], [98.215194, 14.058044], [98.215418, 14.058042], [98.215709, 14.058001], [98.215911, 14.057963], [98.216509, 14.057812], [98.216712, 14.057714], [98.216884, 14.057616], [98.217055, 14.057512], [98.217353, 14.057315], [98.217498, 14.057202], [98.21767, 14.057056], [98.21779, 14.056925], [98.218014, 14.05677], [98.218376, 14.056619], [98.218743, 14.056596], [98.219016, 14.056648], [98.21923, 14.056777], [98.219352, 14.056879], [98.219486, 14.056984], [98.219983, 14.057686], [98.220312, 14.058162], [98.220592, 14.058731], [98.220677, 14.059084], [98.220773, 14.059527], [98.220848, 14.05997], [98.220902, 14.060467], [98.220934, 14.060969], [98.220935, 14.061633], [98.220869, 14.062105], [98.220691, 14.063076], [98.220588, 14.063492], [98.220488, 14.064032], [98.22038, 14.064517], [98.22028, 14.065022], [98.219985, 14.066232], [98.219889, 14.066569], [98.219818, 14.06674], [98.219664, 14.067008], [98.219562, 14.067136], [98.21935, 14.067315], [98.219212, 14.067398], [98.219083, 14.067461], [98.218957, 14.067511], [98.218703, 14.067591], [98.218372, 14.067617], [98.21821, 14.067607], [98.218056, 14.067586], [98.21787, 14.067511], [98.217735, 14.06743], [98.21765, 14.06734], [98.217571, 14.067226], [98.217491, 14.067127], [98.217384, 14.067025], [98.217268, 14.066946], [98.217112, 14.066907], [98.216904, 14.066868], [98.216616, 14.066822], [98.216497, 14.066827], [98.216371, 14.066839], [98.21608, 14.066904], [98.215939, 14.066951], [98.215838, 14.067005], [98.215693, 14.067163], [98.215595, 14.067312], [98.215539, 14.067419], [98.215483, 14.067667], [98.215489, 14.067787], [98.215501, 14.067883], [98.215522, 14.067976], [98.215589, 14.068185], [98.215674, 14.068317], [98.215772, 14.068431], [98.215863, 14.068548], [98.216156, 14.068845], [98.216464, 14.069145], [98.216816, 14.069454], [98.217121, 14.069691], [98.217794, 14.070151], [98.218154, 14.070379], [98.218325, 14.070493], [98.218518, 14.070581], [98.218751, 14.070665], [98.219014, 14.070732], [98.219378, 14.070784], [98.219684, 14.070836], [98.220003, 14.070872], [98.220211, 14.070924], [98.220379, 14.070996], [98.220507, 14.071101], [98.220584, 14.071179], [98.220684, 14.071347], [98.220714, 14.071455], [98.220732, 14.071592], [98.220729, 14.071826], [98.2207, 14.072071], [98.220632, 14.072364], [98.220551, 14.072576], [98.220419, 14.072868], [98.220262, 14.073098], [98.220129, 14.073283], [98.219945, 14.073468], [98.219408, 14.073789], [98.219205, 14.073869], [98.218969, 14.073937], [98.218503, 14.074058], [98.218276, 14.074072], [98.218056, 14.074111], [98.217826, 14.074116], [98.217633, 14.074103], [98.217112, 14.074099], [98.216895, 14.074116], [98.216683, 14.074148], [98.216303, 14.07426], [98.216098, 14.074278], [98.215892, 14.074307], [98.215696, 14.074402], [98.215579, 14.074497], [98.215518, 14.074611], [98.215484, 14.074703], [98.21548, 14.074826], [98.215495, 14.074958], [98.215528, 14.07508], [98.215647, 14.075308], [98.2134, 14.076372], [98.212657, 14.076647], [98.212606, 14.076684], [98.212344, 14.076836], [98.212261, 14.07694], [98.212172, 14.077066], [98.212114, 14.07716], [98.212047, 14.077231], [98.211948, 14.077365], [98.211882, 14.077511], [98.211882, 14.077614], [98.211874, 14.077714], [98.211849, 14.077774], [98.211783, 14.077826], [98.211697, 14.077876], [98.211609, 14.077886], [98.211235, 14.077564], [98.210696, 14.077239], [98.209494, 14.076576], [98.209081, 14.076358], [98.207479, 14.075489], [98.207171, 14.076364], [98.206757, 14.077578], [98.206733, 14.077906], [98.206739, 14.078132], [98.206707, 14.078369], [98.206669, 14.078417], [98.206588, 14.078471], [98.206482, 14.078508], [98.206394, 14.078515], [98.205593, 14.078563], [98.205219, 14.078609], [98.204952, 14.078628], [98.204766, 14.078647], [98.204678, 14.078696], [98.20462, 14.078765], [98.20458, 14.078938], [98.204582, 14.079402], [98.204587, 14.079623], [98.204593, 14.079665], [98.203187, 14.079545], [98.201736, 14.07946], [98.201671, 14.078996], [98.20169, 14.0784], [98.201764, 14.07706], [98.201735, 14.077009], [98.201167, 14.076946], [98.200746, 14.076903], [98.200732, 14.076902], [98.20077, 14.07685], [98.20083, 14.076814], [98.201037, 14.076825], [98.201143, 14.07685], [98.201306, 14.076875], [98.201371, 14.076879], [98.201397, 14.076874], [98.201441, 14.076597], [98.201428, 14.076531], [98.201429, 14.07642], [98.201468, 14.076235], [98.201503, 14.0761], [98.201555, 14.075948], [98.201594, 14.075729], [98.201666, 14.07517], [98.201693, 14.074882], [98.201745, 14.074582], [98.201791, 14.074225], [98.201864, 14.074092], [98.201906, 14.073926], [98.201951, 14.073653], [98.201965, 14.073535], [98.201968, 14.073517], [98.201979, 14.073421], [98.201998, 14.073263], [98.202042, 14.072978], [98.202077, 14.072805], [98.202095, 14.07274], [98.202162, 14.072387], [98.202204, 14.072143], [98.202223, 14.071984], [98.202259, 14.071842], [98.202283, 14.071782], [98.202314, 14.071723], [98.202372, 14.071655], [98.202456, 14.071566], [98.20253, 14.071472], [98.20266, 14.071292], [98.202698, 14.071176], [98.202715, 14.071047], [98.202699, 14.070912], [98.202642, 14.070776], [98.202465, 14.070478], [98.202379, 14.070394], [98.202291, 14.070325], [98.202135, 14.070226], [98.202022, 14.070148], [98.201819, 14.069923], [98.201685, 14.069812], [98.201631, 14.069792], [98.201541, 14.069796], [98.201478, 14.069782], [98.201265, 14.069703], [98.201095, 14.06965], [98.200947, 14.069608], [98.200781, 14.069566], [98.200542, 14.069495], [98.200452, 14.069439], [98.200386, 14.069407], [98.200323, 14.069395], [98.200198, 14.069356], [98.200111, 14.069304], [98.199967, 14.069271], [98.199826, 14.06925], [98.199625, 14.069254], [98.199543, 14.069271], [98.199443, 14.069279], [98.199354, 14.069266], [98.199262, 14.069236], [98.199176, 14.069223], [98.198968, 14.069198], [98.198271, 14.069086], [98.198085, 14.069068], [98.197812, 14.069019], [98.197435, 14.068985], [98.197163, 14.068935], [98.197128, 14.068909], [98.197049, 14.068887], [98.196891, 14.068894], [98.196739, 14.068873], [98.196635, 14.068836], [98.19652, 14.068812], [98.196444, 14.068806], [98.196441, 14.068736], [98.197376, 14.065552], [98.196811, 14.065117], [98.196603, 14.064772], [98.196472, 14.064267], [98.196472, 14.063832], [98.196508, 14.063493], [98.196576, 14.063223], [98.196924, 14.062351], [98.197425, 14.06105], [98.196526, 14.057909], [98.195332, 14.053746], [98.194871, 14.051935], [98.194627, 14.051751], [98.193303, 14.051297], [98.192755, 14.051103], [98.192428, 14.051], [98.192179, 14.050912], [98.19177, 14.050779], [98.191197, 14.050584], [98.190755, 14.050428], [98.190408, 14.050319], [98.190206, 14.050241], [98.189984, 14.050247], [98.189731, 14.050234], [98.189536, 14.050114], [98.189287, 14.049921], [98.189166, 14.049771], [98.189154, 14.04967], [98.189079, 14.049553], [98.18874, 14.049442], [98.188331, 14.049314], [98.188204, 14.047375], [98.188283, 14.045724], [98.188362, 14.044361], [98.188306, 14.043457], [98.188412, 14.042495], [98.18862, 14.041893], [98.188768, 14.041592], [98.18896, 14.04132], [98.189168, 14.040819], [98.18947, 14.038466], [98.189733, 14.034778], [98.189553, 14.031605], [98.189268, 14.029064], [98.18895, 14.027563], [98.186878, 14.02165]]]]}}, {"type": "Feature", "properties": {"role": "core_after", "label": "CoreMap 7522 after clip", "core_id": "7522"}, "geometry": {"type": "Polygon", "coordinates": [[[98.216109, 14.004518], [98.213647, 14.004018], [98.210684, 14.002947], [98.208686, 14.002733], [98.206187, 14.001805], [98.204831, 14.004839], [98.203332, 14.007016], [98.201726, 14.008694], [98.19944, 14.010009], [98.197728, 14.011906], [98.19523, 14.014511], [98.19216, 14.016867], [98.186878, 14.02165], [98.18895, 14.027563], [98.189268, 14.029064], [98.189553, 14.031605], [98.189733, 14.034778], [98.18947, 14.038466], [98.189168, 14.040819], [98.18896, 14.04132], [98.188768, 14.041592], [98.18862, 14.041893], [98.188412, 14.042495], [98.188306, 14.043457], [98.188362, 14.044361], [98.188283, 14.045724], [98.188204, 14.047375], [98.188331, 14.049314], [98.18874, 14.049442], [98.189079, 14.049553], [98.189154, 14.04967], [98.189166, 14.049771], [98.189287, 14.049921], [98.189536, 14.050114], [98.189731, 14.050234], [98.189984, 14.050247], [98.190206, 14.050241], [98.190408, 14.050319], [98.190755, 14.050428], [98.191197, 14.050584], [98.19177, 14.050779], [98.192179, 14.050912], [98.192428, 14.051], [98.192755, 14.051103], [98.193303, 14.051297], [98.194627, 14.051751], [98.194871, 14.051935], [98.195332, 14.053746], [98.196526, 14.057909], [98.197425, 14.06105], [98.196924, 14.062351], [98.196576, 14.063223], [98.196508, 14.063493], [98.196472, 14.063832], [98.196472, 14.064267], [98.196603, 14.064772], [98.196811, 14.065117], [98.197376, 14.065552], [98.196441, 14.068736], [98.196444, 14.068806], [98.19652, 14.068812], [98.196635, 14.068836], [98.196739, 14.068873], [98.196891, 14.068894], [98.197049, 14.068887], [98.197128, 14.068909], [98.197163, 14.068935], [98.197435, 14.068985], [98.197812, 14.069019], [98.198085, 14.069068], [98.198271, 14.069086], [98.198968, 14.069198], [98.199176, 14.069223], [98.199262, 14.069236], [98.199354, 14.069266], [98.199443, 14.069279], [98.199543, 14.069271], [98.199625, 14.069254], [98.199826, 14.06925], [98.199967, 14.069271], [98.200111, 14.069304], [98.200198, 14.069356], [98.200323, 14.069395], [98.200386, 14.069407], [98.200452, 14.069439], [98.200542, 14.069495], [98.200781, 14.069566], [98.200947, 14.069608], [98.201095, 14.06965], [98.201265, 14.069703], [98.201478, 14.069782], [98.201541, 14.069796], [98.201631, 14.069792], [98.201685, 14.069812], [98.201819, 14.069923], [98.202022, 14.070148], [98.202135, 14.070226], [98.202291, 14.070325], [98.202379, 14.070394], [98.202465, 14.070478], [98.202642, 14.070776], [98.202699, 14.070912], [98.202715, 14.071047], [98.202698, 14.071176], [98.20266, 14.071292], [98.20253, 14.071472], [98.202456, 14.071566], [98.202372, 14.071655], [98.202314, 14.071723], [98.202283, 14.071782], [98.202259, 14.071842], [98.202223, 14.071984], [98.202204, 14.072143], [98.202162, 14.072387], [98.202095, 14.07274], [98.202077, 14.072805], [98.202042, 14.072978], [98.201998, 14.073263], [98.201979, 14.073421], [98.201968, 14.073517], [98.201965, 14.073535], [98.201951, 14.073653], [98.201906, 14.073926], [98.201864, 14.074092], [98.201791, 14.074225], [98.201745, 14.074582], [98.201693, 14.074882], [98.201666, 14.07517], [98.201594, 14.075729], [98.201555, 14.075948], [98.201503, 14.0761], [98.201468, 14.076235], [98.201429, 14.07642], [98.201428, 14.076531], [98.201441, 14.076597], [98.201397, 14.076874], [98.201371, 14.076879], [98.201306, 14.076875], [98.201143, 14.07685], [98.201037, 14.076825], [98.20083, 14.076814], [98.20077, 14.07685], [98.200732, 14.076902], [98.200746, 14.076903], [98.201167, 14.076946], [98.201735, 14.077009], [98.201764, 14.07706], [98.20169, 14.0784], [98.201671, 14.078996], [98.201736, 14.07946], [98.203187, 14.079545], [98.204593, 14.079665], [98.204587, 14.079623], [98.204582, 14.079402], [98.20458, 14.078938], [98.20462, 14.078765], [98.204678, 14.078696], [98.204766, 14.078647], [98.204952, 14.078628], [98.205219, 14.078609], [98.205593, 14.078563], [98.206394, 14.078515], [98.206482, 14.078508], [98.206588, 14.078471], [98.206669, 14.078417], [98.206707, 14.078369], [98.206739, 14.078132], [98.206733, 14.077906], [98.206757, 14.077578], [98.207171, 14.076364], [98.207479, 14.075489], [98.209081, 14.076358], [98.209494, 14.076576], [98.210696, 14.077239], [98.211235, 14.077564], [98.211609, 14.077886], [98.211697, 14.077876], [98.211783, 14.077826], [98.211849, 14.077774], [98.211874, 14.077714], [98.211882, 14.077614], [98.211882, 14.077511], [98.211948, 14.077365], [98.212047, 14.077231], [98.212114, 14.07716], [98.212172, 14.077066], [98.212261, 14.07694], [98.212344, 14.076836], [98.212606, 14.076684], [98.212657, 14.076647], [98.2134, 14.076372], [98.215647, 14.075308], [98.215528, 14.07508], [98.215495, 14.074958], [98.21548, 14.074826], [98.215484, 14.074703], [98.215518, 14.074611], [98.215579, 14.074497], [98.215696, 14.074402], [98.215892, 14.074307], [98.216098, 14.074278], [98.216303, 14.07426], [98.216683, 14.074148], [98.216895, 14.074116], [98.217112, 14.074099], [98.217633, 14.074103], [98.217826, 14.074116], [98.218056, 14.074111], [98.218276, 14.074072], [98.218503, 14.074058], [98.218969, 14.073937], [98.219205, 14.073869], [98.219408, 14.073789], [98.219945, 14.073468], [98.220129, 14.073283], [98.220262, 14.073098], [98.220419, 14.072868], [98.220551, 14.072576], [98.220632, 14.072364], [98.2207, 14.072071], [98.220729, 14.071826], [98.220732, 14.071592], [98.220714, 14.071455], [98.220684, 14.071347], [98.220584, 14.071179], [98.220507, 14.071101], [98.220379, 14.070996], [98.220211, 14.070924], [98.220003, 14.070872], [98.219684, 14.070836], [98.219378, 14.070784], [98.219014, 14.070732], [98.218751, 14.070665], [98.218518, 14.070581], [98.218325, 14.070493], [98.218154, 14.070379], [98.217794, 14.070151], [98.217121, 14.069691], [98.216816, 14.069454], [98.216464, 14.069145], [98.216156, 14.068845], [98.215863, 14.068548], [98.215772, 14.068431], [98.215674, 14.068317], [98.215589, 14.068185], [98.215522, 14.067976], [98.215501, 14.067883], [98.215489, 14.067787], [98.215483, 14.067667], [98.215539, 14.067419], [98.215595, 14.067312], [98.215693, 14.067163], [98.215838, 14.067005], [98.215939, 14.066951], [98.21608, 14.066904], [98.216371, 14.066839], [98.216497, 14.066827], [98.216616, 14.066822], [98.216904, 14.066868], [98.217112, 14.066907], [98.217268, 14.066946], [98.217384, 14.067025], [98.217491, 14.067127], [98.217571, 14.067226], [98.21765, 14.06734], [98.217735, 14.06743], [98.21787, 14.067511], [98.218056, 14.067586], [98.21821, 14.067607], [98.218372, 14.067617], [98.218703, 14.067591], [98.218957, 14.067511], [98.219083, 14.067461], [98.219212, 14.067398], [98.21935, 14.067315], [98.219562, 14.067136], [98.219664, 14.067008], [98.219818, 14.06674], [98.219889, 14.066569], [98.219985, 14.066232], [98.22028, 14.065022], [98.22038, 14.064517], [98.220488, 14.064032], [98.220588, 14.063492], [98.220691, 14.063076], [98.220869, 14.062105], [98.220935, 14.061633], [98.220934, 14.060969], [98.220902, 14.060467], [98.220848, 14.05997], [98.220773, 14.059527], [98.220677, 14.059084], [98.220592, 14.058731], [98.220312, 14.058162], [98.219983, 14.057686], [98.219486, 14.056984], [98.219352, 14.056879], [98.21923, 14.056777], [98.219016, 14.056648], [98.218743, 14.056596], [98.218376, 14.056619], [98.218014, 14.05677], [98.21779, 14.056925], [98.21767, 14.057056], [98.217498, 14.057202], [98.217353, 14.057315], [98.217055, 14.057512], [98.216884, 14.057616], [98.216712, 14.057714], [98.216509, 14.057812], [98.215911, 14.057963], [98.215709, 14.058001], [98.215418, 14.058042], [98.215194, 14.058044], [98.214919, 14.058019], [98.214643, 14.05795], [98.214432, 14.057856], [98.214246, 14.057736], [98.214179, 14.057601], [98.21412, 14.057414], [98.21412, 14.057222], [98.214207, 14.056959], [98.214312, 14.056822], [98.214395, 14.056697], [98.214475, 14.056601], [98.214594, 14.056479], [98.214742, 14.056369], [98.21496, 14.056187], [98.215095, 14.056095], [98.215224, 14.055958], [98.215372, 14.055746], [98.21547, 14.055639], [98.215643, 14.055349], [98.215736, 14.055125], [98.21577, 14.054898], [98.215802, 14.054524], [98.215797, 14.054055], [98.215707, 14.053663], [98.215626, 14.053238], [98.215496, 14.052684], [98.215433, 14.052325], [98.215424, 14.052146], [98.215443, 14.051943], [98.215468, 14.051823], [98.215543, 14.051506], [98.215638, 14.051342], [98.215727, 14.051241], [98.215912, 14.05102], [98.216081, 14.050844], [98.216259, 14.050686], [98.21663, 14.050481], [98.216851, 14.050368], [98.217032, 14.050285], [98.217161, 14.050175], [98.217284, 14.050053], [98.217398, 14.049916], [98.217457, 14.049769], [98.21751, 14.049545], [98.217513, 14.04936], [98.217441, 14.048968], [98.217344, 14.048666], [98.217213, 14.048441], [98.216951, 14.048102], [98.216576, 14.04767], [98.216496, 14.047527], [98.216322, 14.047347], [98.216185, 14.047271], [98.21583, 14.047088], [98.215442, 14.046991], [98.215206, 14.046945], [98.214753, 14.046896], [98.214511, 14.046901], [98.214235, 14.0469], [98.213917, 14.046872], [98.213347, 14.046838], [98.213127, 14.046786], [98.21272, 14.046716], [98.211908, 14.04654], [98.211404, 14.046356], [98.210758, 14.046067], [98.210538, 14.045886], [98.21019, 14.045631], [98.209672, 14.044996], [98.20951, 14.044666], [98.20942, 14.044391], [98.209328, 14.044157], [98.209286, 14.043891], [98.209245, 14.043574], [98.209204, 14.04308], [98.209247, 14.042817], [98.209445, 14.04225], [98.209599, 14.042083], [98.209787, 14.041817], [98.210011, 14.041606], [98.210272, 14.041397], [98.210466, 14.041287], [98.210702, 14.04119], [98.211054, 14.041125], [98.211366, 14.041144], [98.211587, 14.041216], [98.211758, 14.041324], [98.212182, 14.041655], [98.212381, 14.041799], [98.212622, 14.041946], [98.212803, 14.042075], [98.213173, 14.042262], [98.213369, 14.042299], [98.213571, 14.042314], [98.213819, 14.042321], [98.214082, 14.042298], [98.214315, 14.042227], [98.214699, 14.042022], [98.214834, 14.041909], [98.215144, 14.04162], [98.215375, 14.041357], [98.215778, 14.040808], [98.216172, 14.040176], [98.216351, 14.039776], [98.216472, 14.039558], [98.216573, 14.039352], [98.21674, 14.039071], [98.216986, 14.038773], [98.217127, 14.038507], [98.217236, 14.03825], [98.217374, 14.037952], [98.21751, 14.037632], [98.21773, 14.037095], [98.217767, 14.036936], [98.217817, 14.036682], [98.217848, 14.036446], [98.21787, 14.036198], [98.217874, 14.035974], [98.217832, 14.035615], [98.217812, 14.035217], [98.217807, 14.034897], [98.217775, 14.03452], [98.217668, 14.033521], [98.217587, 14.032968], [98.217524, 14.032621], [98.217482, 14.032301], [98.217426, 14.031795], [98.217384, 14.031493], [98.217294, 14.030895], [98.21684, 14.028405], [98.2168, 14.027577], [98.21684065364423, 14.026252211186954], [98.2139576399332, 14.026828770431445], [98.20784124008122, 14.03082809963712], [98.20420037974378, 14.035565204770421], [98.19937223983703, 14.036944680252809], [98.19932262064248, 14.033109530380552], [98.19755230159751, 14.030368391388208], [98.19612462515141, 14.027056181097917], [98.19612462515141, 14.02488611340345], [98.1982946937452, 14.0211741535644], [98.19698123119896, 14.016662696426353], [98.19995079889031, 14.014606842631741], [98.20132136838652, 14.014549734782458], [98.20537596992511, 14.015177912130975], [98.20840264366711, 14.013750236584201], [98.21040139141115, 14.013179165286314], [98.21107417724433, 14.013119361970343], [98.211112, 14.013048], [98.211898, 14.01262], [98.213468, 14.012727], [98.21406073535897, 14.012737568383884], [98.220851983932, 14.011408846241295], [98.22159437607968, 14.010209597594894], [98.22188515811213, 14.008658757035615], [98.22182, 14.008122], [98.221463, 14.007373], [98.221499, 14.006409], [98.22137256815213, 14.005431142491338], [98.22116559919665, 14.004851630263413], [98.22107, 14.004625], [98.22089596625167, 14.004381027455615], [98.22049806289813, 14.003880366144713], [98.216109, 14.004518]]]}}, {"type": "Feature", "properties": {"role": "intersection", "label": "Overlap removed", "core_id": "7522"}, "geometry": {"type": "MultiPolygon", "coordinates": [[[[98.220535, 14.003875], [98.22049806289813, 14.003880366144713], [98.22089596625167, 14.004381027455615], [98.220535, 14.003875]]], [[[98.221356, 14.005303], [98.22116559919665, 14.004851630263413], [98.22137256815213, 14.005431142491338], [98.221356, 14.005303]]], [[[98.215431, 14.012762], [98.217644, 14.012334], [98.219643, 14.012048], [98.220928, 14.011478], [98.221713, 14.010514], [98.221963, 14.0093], [98.22188515811213, 14.008658757035615], [98.22159437607968, 14.010209597594894], [98.220851983932, 14.011408846241295], [98.21406073535897, 14.012737568383884], [98.215431, 14.012762]]], [[[98.217144, 14.016367], [98.216836, 14.015873], [98.21645, 14.015445], [98.21595, 14.015102], [98.215151, 14.014902], [98.214095, 14.014945], [98.213238, 14.015059], [98.212381, 14.015245], [98.211482, 14.014945], [98.210911, 14.01456], [98.210697, 14.013831], [98.21107417724433, 14.013119361970343], [98.21040139141115, 14.013179165286314], [98.20840264366711, 14.013750236584201], [98.20537596992511, 14.015177912130975], [98.20132136838652, 14.014549734782458], [98.19995079889031, 14.014606842631741], [98.19698123119896, 14.016662696426353], [98.1982946937452, 14.0211741535644], [98.19612462515141, 14.02488611340345], [98.19612462515141, 14.027056181097917], [98.19755230159751, 14.030368391388208], [98.19932262064248, 14.033109530380552], [98.19937223983703, 14.036944680252809], [98.20420037974378, 14.035565204770421], [98.20784124008122, 14.03082809963712], [98.2139576399332, 14.026828770431445], [98.21684065364423, 14.026252211186954], [98.217144, 14.016367]]]]}}]}