{"type": "FeatureCollection", "features": [{"type": "Feature", "properties": {"role": "empty_pcode_source_vt", "source_row": 12402, "shan_layer_row": 806, "source_pcode": "", "name_en": "", "name_my": "", "ts_pcode": "MMR015005", "ts_name": "Pangsang (Panghkam)", "mimu_remark": "No VT info", "self_admin": "Wa", "audit_source_key": "village_tract:nopcode:row12402:village_tract_boundary_Shan_v94.zip_mmr_shn_polbnda_adm4_250k_mimu_1.shp:geom:701aa2d8c5d389ea", "geometry_hash": "701aa2d8c5d389ea37e9bf961fd1f541bc02a085221216f6747620d3dd659de4", "decision": "reject_source_error"}, "geometry": {"type": "MultiPolygon", "coordinates": [[[[98.92328237248357, 22.431909089532887], [98.91429794559382, 22.4272211053698], [98.9060945448275, 22.431908710018956], [98.89320349534512, 22.438940106201056], [98.8909276556868, 22.43941420719996], [98.89674343376254, 22.44278123746416], [98.90594104404403, 22.447240684110337], [98.90761333698593, 22.455602147021548], [98.90765345214513, 22.457246854159052], [98.90789205307587, 22.467029482424728], [98.91987681796083, 22.490720296104783], [98.9241358947558, 22.498386635235057], [98.92823828087204, 22.505770931683145], [98.93492745263991, 22.52639587556925], [98.93488637340754, 22.52755849033211], [98.93419953687918, 22.546996812952614], [98.93687846077238, 22.552316413471807], [98.94301020036055, 22.559841732609954], [98.95170329816872, 22.563191221597634], [98.94984211342285, 22.555745366555502], [98.95257713073005, 22.532697149953574], [98.96039011870913, 22.519415264103227], [98.96742173342628, 22.510430497269674], [98.96664062816252, 22.504180099332228], [98.96859412022255, 22.491288732389137], [98.973282292344, 22.472537665381054], [98.96586050495844, 22.463552579288127], [98.95804791537908, 22.46120851436152], [98.94671965378906, 22.458083074374436], [98.93890719371207, 22.450660576524484], [98.93109475342023, 22.442456778257725], [98.92328237248357, 22.431909089532887]]], [[[98.82443989908211, 22.728721342116287], [98.82589341305058, 22.728530191215402], [98.82814458520451, 22.730781363369246], [98.83213607322124, 22.732111859974403], [98.83517720626308, 22.734772851386065], [98.84449067890178, 22.73800405614227], [98.848102027087, 22.739334550049495], [98.85019280425456, 22.73724377108327], [98.85050866684158, 22.73453261278985], [98.8514631182284, 22.73324352636771], [98.85314353024975, 22.731957929315072], [98.85518775491103, 22.731371095599584], [98.85846257139062, 22.730661656410323], [98.85988827112685, 22.730256308581865], [98.85996342836958, 22.730211149125335], [98.8621672701035, 22.730211149125246], [98.86958003189304, 22.728690584403022], [98.87604244230491, 22.72717001518413], [98.88079421178351, 22.727930301142496], [98.88535591404434, 22.728500512688566], [98.89124811111148, 22.73116150320086], [98.89904101543057, 22.733822497310452], [98.90626370820368, 22.737813985327183], [98.9072490620946, 22.738108050146433], [98.9104937117155, 22.739076372676504], [98.91443675505224, 22.74427639573914], [98.91709774916183, 22.74693738625143], [98.9245105100521, 22.747507597797412], [98.92965698478203, 22.744720558307197], [98.92978787391134, 22.74450139532317], [98.9328736286151, 22.739334550049495], [98.94541830690937, 22.72831044097411], [98.95074029063198, 22.722418245705523], [98.95416156530409, 22.720517536655016], [98.95628029699817, 22.720164415155686], [98.9615743288922, 22.718236685074967], [98.96575588862348, 22.71519555203313], [98.9691771623962, 22.716145906108743], [98.97202822732088, 22.71519555203313], [98.97194789897637, 22.7111108250046], [98.97278850968203, 22.703981371243376], [98.97259843886687, 22.697138820999808], [98.97522966721549, 22.69476222669543], [98.97522972567131, 22.692472976346856], [98.974309076203, 22.688015419176278], [98.97677999769877, 22.684594143604897], [98.97895226243699, 22.683787303341408], [98.97991759741925, 22.68153491710282], [98.98304301402398, 22.666690343184815], [98.97679302707661, 22.661611771765855], [98.96780854173088, 22.659267678960216], [98.95491784388341, 22.65262636461508], [98.94515213456344, 22.64871966018419], [98.93773034088257, 22.640125224299712], [98.9353867067312, 22.633874793986564], [98.93550250523656, 22.633378557074824], [98.93807986509374, 22.622333544157847], [98.93952135242857, 22.61735593243034], [98.94089360365695, 22.612617395576418], [98.93381259097833, 22.608895652012773], [98.9272058375794, 22.60542710717529], [98.92266397166502, 22.603042628514547], [98.91012177549963, 22.599419327440085], [98.90148159649848, 22.598025750587947], [98.89339884877793, 22.596632171937248], [98.87862692839005, 22.58882813940718], [98.86636344921381, 22.583253830200157], [98.8559650776263, 22.572408216765794], [98.84044291131134, 22.55621843063612], [98.83433474115544, 22.552754101820394], [98.83124530013058, 22.56708833296023], [98.82065411299695, 22.5740562190193], [98.82078356141231, 22.5755125145909], [98.81647338064207, 22.57907309874455], [98.80309503890497, 22.581860252448738], [98.80050559215941, 22.581277626661212], [98.79194641959164, 22.579351813035753], [98.77605963844157, 22.569596772373213], [98.77048532833527, 22.563186317594564], [98.76323872708562, 22.55092283751904], [98.7622100870259, 22.542434774345377], [98.75802023014953, 22.534402189909198], [98.75300802420102, 22.533222847756285], [98.74961741371274, 22.53558153296139], [98.74401553668773, 22.543984347599622], [98.74224169679694, 22.5449285593056], [98.74484350652264, 22.54757825163506], [98.75125396220066, 22.552037698281236], [98.75487726237584, 22.557054576207836], [98.75487726237584, 22.563186317594564], [98.75264753995208, 22.569875488463065], [98.75181139258181, 22.57544979856946], [98.74233506800903, 22.58213896943796], [98.74067014770918, 22.58592572769026], [98.74740614717602, 22.585261337340945], [98.75389253081565, 22.589978708650527], [98.77422811963207, 22.60757681331932], [98.77688971089154, 22.60988011467563], [98.78891542550659, 22.61904375666405], [98.78573477973636, 22.625801237337296], [98.78470285445327, 22.641869780465996], [98.78584682357209, 22.662721579237555], [98.78565861885023, 22.669989210233854], [98.78497853263329, 22.700593041435713], [98.77522349197066, 22.71675853597771], [98.76463230483704, 22.717037252067563], [98.7534836855237, 22.717037252067563], [98.7483993674369, 22.721237342329548], [98.74707322984578, 22.722332846084015], [98.74344992877123, 22.735432472630535], [98.72812057890167, 22.74435136772145], [98.72747314167223, 22.746050889437075], [98.72589085467925, 22.750204392119045], [98.73759690437363, 22.769993190433436], [98.74995789883808, 22.78628741932892], [98.75166741561874, 22.780398153152326], [98.75224890915989, 22.778394918690637], [98.75265323355998, 22.77705804139555], [98.75591765837329, 22.776968581334945], [98.75667794343238, 22.768415393755415], [98.7600992172052, 22.76347355256244], [98.76694176744867, 22.75891185030171], [98.7798665882725, 22.75168915842797], [98.78328786114595, 22.751309017697075], [98.78727934916267, 22.74693738625143], [98.79089069734789, 22.746177102990906], [98.79317154802857, 22.74085511836902], [98.8002041699865, 22.73572320456231], [98.80530669574743, 22.735180382768483], [98.80913750009566, 22.734772851386065], [98.81393974672197, 22.732873747625327], [98.81506145222433, 22.732636772668958], [98.81864376219991, 22.73151518317923], [98.82155716183364, 22.730440326959556], [98.82443989908211, 22.728721342116287]]], [[[98.73845337552292, 22.798810794482616], [98.71386163810415, 22.794680884615193], [98.69659110519538, 22.79599494521064], [98.68590271663716, 22.802592716181003], [98.68138552632105, 22.805381106452927], [98.6744397689802, 22.815518158436266], [98.67120135705706, 22.8334065273894], [98.670497581798, 22.83729404748235], [98.6674940107401, 22.858882215641774], [98.66126229621808, 22.867718007080462], [98.66115124883116, 22.868759059582977], [98.66155099658125, 22.873510367709383], [98.66223628267836, 22.88184799858629], [98.66292156787611, 22.885388636676296], [98.66257179005616, 22.88742370084317], [98.66294595659072, 22.88892907691541], [98.66248945532415, 22.891115005053464], [98.66865304620121, 22.891000528551587], [98.66917298114822, 22.890926359663844], [98.67419161095417, 22.890210424671398], [98.68500284060862, 22.88599131194954], [98.69163958280062, 22.882846542833757], [98.69502394120205, 22.88124289244554], [98.70187940930734, 22.878606584726125], [98.70689125462778, 22.873331365749994], [98.71058113431198, 22.86726599433021], [98.71173480261909, 22.865231615446724], [98.71506624491134, 22.859356959656008], [98.71741510142587, 22.857253910339715], [98.71885384133175, 22.853567138712528], [98.72968787959205, 22.846914659284135], [98.73596021828955, 22.83741111493106], [98.73900135223067, 22.82619693504059], [98.74508362011308, 22.80852034293951], [98.74513819277342, 22.808415746389688], [98.74539323241181, 22.80714156892837], [98.74688833912562, 22.799419875626803], [98.73845337552292, 22.798810794482616]]]]}}, {"type": "Feature", "properties": {"pcode": "MMR015005", "name_en": "Pangsang (Panghkam)", "name_my": "ပန်ဆန်း (ပန်ခမ်း)", "parent": "MMR015D007", "level": "township", "role": "pangsang_township"}, "geometry": {"type": "Polygon", "coordinates": [[[99.1557163, 22.1626891], [99.1584407, 22.165489], [99.1596273, 22.1667085], [99.1597874, 22.166873], [99.1674344, 22.1671441], [99.1736357, 22.1685915], [99.1819504, 22.1663354], [99.1891108, 22.1668462], [99.1893635, 22.1670683], [99.1953381, 22.1692056], [99.195837, 22.1694217], [99.1971655, 22.1728133], [99.1942427, 22.1740257], [99.1888055, 22.1734731], [99.1856686, 22.175832], [99.1802442, 22.1757355], [99.176822, 22.1767318], [99.1759396, 22.1804058], [99.1770404, 22.1844885], [99.1746864, 22.1884271], [99.174902, 22.188933], [99.1765373, 22.1927696], [99.1808206, 22.1960888], [99.1866335, 22.2011967], [99.1880457, 22.2075529], [99.1906122, 22.2111424], [99.1942358, 22.2085436], [99.1943523, 22.2126493], [99.1962126, 22.2173975], [99.2005625, 22.2229988], [99.2035903, 22.2254363], [99.2051921, 22.2297352], [99.2060549, 22.2340525], [99.2095436, 22.2353376], [99.2139919, 22.2356861], [99.2178024, 22.2343513], [99.2230685, 22.2374187], [99.2284132, 22.2432226], [99.2335244, 22.2494879], [99.234181, 22.2551771], [99.2296826, 22.2616769], [99.229639, 22.2627422], [99.2293925, 22.2687581], [99.2315796, 22.2762347], [99.2335008, 22.2830331], [99.2331908, 22.2894299], [99.2334129, 22.2971828], [99.2350223, 22.3017071], [99.2371508, 22.3071314], [99.2452411, 22.3140065], [99.2504135, 22.3223229], [99.2528814, 22.330935], [99.2584958, 22.3374158], [99.2633054, 22.3416341], [99.2695619, 22.3446755], [99.276039, 22.3467984], [99.2773647, 22.3499619], [99.2772958, 22.3561667], [99.2764618, 22.3614365], [99.2721953, 22.3674763], [99.2659422, 22.3731089], [99.260803, 22.3764647], [99.2518702, 22.3626007], [99.2398335, 22.3655283], [99.2257351, 22.3612392], [99.2256337, 22.3612083], [99.2158679, 22.3615988], [99.2092271, 22.3615986], [99.2018052, 22.3584732], [99.1932115, 22.3514414], [99.1885238, 22.3541758], [99.1878851, 22.35487], [99.179539, 22.3639418], [99.1748512, 22.3729267], [99.171726, 22.3799583], [99.1639133, 22.3807394], [99.1510224, 22.3807391], [99.140866, 22.3799576], [99.1346159, 22.3776136], [99.1338348, 22.3705819], [99.1322725, 22.3647221], [99.1217254, 22.3655032], [99.1080532, 22.3655029], [99.0971155, 22.3658933], [99.0935998, 22.3643306], [99.0939906, 22.3580802], [99.0933718, 22.3496088], [99.0933313, 22.3490535], [99.0853939, 22.3511219], [99.0820131, 22.3473068], [99.0752277, 22.3396546], [99.0627344, 22.3340124], [99.0506614, 22.3363493], [99.050241, 22.3364307], [99.0502409, 22.3428782], [99.0454041, 22.3505374], [99.0445987, 22.3577901], [99.0433895, 22.3658507], [99.0397618, 22.3727046], [99.0381487, 22.3763297], [99.0401631, 22.379556], [99.0490314, 22.3884219], [99.0518511, 22.3932588], [99.0510458, 22.3976917], [99.0494326, 22.4025286], [99.047822, 22.4053509], [99.0454036, 22.4097839], [99.0437097, 22.4160899], [99.0389536, 22.4198589], [99.0300878, 22.4242918], [99.0268641, 22.4299365], [99.0264601, 22.4375932], [99.0175942, 22.4468629], [99.0159164, 22.4472988], [99.0029708, 22.450662], [98.9991984, 22.4537783], [98.9939861, 22.4580841], [98.9846108, 22.4623811], [98.9732823, 22.4725377], [98.9685941, 22.4912887], [98.9666406, 22.5041801], [98.9674217, 22.5104305], [98.9603901, 22.5194153], [98.9525771, 22.5326971], [98.9498421, 22.5557454], [98.9517033, 22.5631912], [98.9525763, 22.5666836], [98.9463258, 22.5803562], [98.9482787, 22.5920757], [98.9432002, 22.6026231], [98.9408936, 22.6126174], [98.9395214, 22.6173559], [98.9380799, 22.6223335], [98.9355025, 22.6333786], [98.9353867, 22.6338748], [98.9377303, 22.6401252], [98.9451521, 22.6487197], [98.9549178, 22.6526264], [98.9678085, 22.6592677], [98.976793, 22.6616118], [98.983043, 22.6666903], [98.9799176, 22.6815349], [98.9789523, 22.6837873], [98.97678, 22.6845941], [98.9743091, 22.6880154], [98.9752297, 22.692473], [98.9752297, 22.6947622], [98.9725984, 22.6971388], [98.9727885, 22.7039814], [98.9719479, 22.7111108], [98.9720282, 22.7151956], [98.9691772, 22.7161459], [98.9657559, 22.7151956], [98.9615743, 22.7182367], [98.9562803, 22.7201644], [98.9541616, 22.7205175], [98.9507403, 22.7224182], [98.9454183, 22.7283104], [98.9328736, 22.7393346], [98.9297879, 22.7445014], [98.929657, 22.7447206], [98.9245105, 22.7475076], [98.9170977, 22.7469374], [98.9144368, 22.7442764], [98.9104937, 22.7390764], [98.9072491, 22.7381081], [98.9062637, 22.737814], [98.899041, 22.7338225], [98.8912481, 22.7311615], [98.8853559, 22.7285005], [98.8807942, 22.7279303], [98.8760424, 22.72717], [98.86958, 22.7286906], [98.8621673, 22.7302111], [98.8599634, 22.7302111], [98.8598883, 22.7302563], [98.8584626, 22.7306617], [98.8551878, 22.7313711], [98.8531435, 22.7319579], [98.8514631, 22.7332435], [98.8505087, 22.7345326], [98.8501928, 22.7372438], [98.848102, 22.7393346], [98.8444907, 22.7380041], [98.8351772, 22.7347729], [98.8321361, 22.7321119], [98.8281446, 22.7307814], [98.8258934, 22.7285302], [98.8244399, 22.7287213], [98.8215572, 22.7304403], [98.8186438, 22.7315152], [98.8150615, 22.7326368], [98.8139397, 22.7328737], [98.8091375, 22.7347729], [98.8053067, 22.7351804], [98.8002042, 22.7357232], [98.7931715, 22.7408551], [98.7908907, 22.7461771], [98.7872793, 22.7469374], [98.7832879, 22.751309], [98.7798666, 22.7516892], [98.7669418, 22.7589119], [98.7600992, 22.7634736], [98.7566779, 22.7684154], [98.7559177, 22.7769686], [98.7526532, 22.777058], [98.7522489, 22.7783949], [98.7516674, 22.7803982], [98.7499579, 22.7862874], [98.7499515, 22.7863094], [98.7498759, 22.7865699], [98.7484084, 22.7921933], [98.748293, 22.7926353], [98.7469761, 22.7989666], [98.7468883, 22.7994199], [98.7453932, 22.8071416], [98.7451382, 22.8084157], [98.7450836, 22.8085203], [98.7390014, 22.8261969], [98.7359602, 22.8374111], [98.7296879, 22.8469147], [98.7188538, 22.8535671], [98.7174151, 22.8572539], [98.7150662, 22.859357], [98.7117348, 22.8652316], [98.7105811, 22.867266], [98.7068913, 22.8733314], [98.7018794, 22.8786066], [98.6950239, 22.8812429], [98.6916396, 22.8828465], [98.6850028, 22.8859913], [98.6741916, 22.8902104], [98.669173, 22.8909264], [98.668653, 22.8910005], [98.6624895, 22.891115], [98.662946, 22.8889291], [98.6625718, 22.8874237], [98.6629216, 22.8853886], [98.6622363, 22.881848], [98.661551, 22.8735104], [98.6611512, 22.8687591], [98.6612623, 22.867718], [98.6616081, 22.864476], [98.661551, 22.8604785], [98.6598949, 22.8560813], [98.6583259, 22.8530958], [98.6575071, 22.8515376], [98.6546981, 22.8483718], [98.651957, 22.844717], [98.6509485, 22.8427817], [98.6483404, 22.8400861], [98.6475544, 22.8379473], [98.6471628, 22.8362132], [98.6473884, 22.8346661], [98.6479024, 22.8327074], [98.6472742, 22.829852], [98.646075, 22.8267111], [98.6442476, 22.8243126], [98.6410496, 22.8231705], [98.6399048, 22.82349], [98.638594, 22.8238558], [98.6365228, 22.8238558], [98.6357386, 22.8238558], [98.6341739, 22.8230563], [98.6306332, 22.822371], [98.6256649, 22.8221426], [98.6205253, 22.8217999], [98.6158425, 22.8209433], [98.6099034, 22.8198583], [98.6058385, 22.8199984], [98.6049351, 22.8200296], [98.6001952, 22.8208862], [98.596369, 22.8211717], [98.5901443, 22.8225994], [98.5863524, 22.8224852], [98.5825262, 22.8224281], [98.577615, 22.8223139], [98.5745884, 22.8217428], [98.5729149, 22.8211239], [98.5704195, 22.8202009], [98.5687527, 22.8197708], [98.5668789, 22.8192872], [98.5647659, 22.8190017], [98.5618535, 22.8198583], [98.5585413, 22.820772], [98.5554004, 22.8203722], [98.5539156, 22.8190588], [98.553763, 22.8184482], [98.5532981, 22.8181564], [98.5482663, 22.8115035], [98.5483648, 22.8095219], [98.5477798, 22.8079132], [98.5472227, 22.806381], [98.5448813, 22.802098], [98.5436378, 22.7981278], [98.5445386, 22.796313], [98.5443102, 22.7942001], [98.5425399, 22.7907737], [98.5420437, 22.789427], [98.5417404, 22.7886036], [98.5397973, 22.7864342], [98.5368292, 22.7851201], [98.533517, 22.7831784], [98.530319, 22.7810655], [98.5255791, 22.7785527], [98.5214674, 22.7768966], [98.5192402, 22.7743268], [98.5190064, 22.7732045], [98.5183836, 22.7702151], [98.5183265, 22.7675882], [98.5188404, 22.7659321], [98.5208392, 22.762677], [98.5239801, 22.7592905], [98.5251595, 22.7578441], [98.5300334, 22.7518666], [98.531918, 22.748897], [98.5323746, 22.7461184], [98.5330601, 22.7439287], [98.5340976, 22.7434886], [98.5345247, 22.7428367], [98.5361054, 22.7417938], [98.5361731, 22.7417042], [98.5362069, 22.7416615], [98.5366007, 22.7415302], [98.5379713, 22.7399883], [98.5396845, 22.7381609], [98.5402802, 22.7365492], [98.5406553, 22.735534], [98.542083, 22.7326786], [98.5453952, 22.7277674], [98.5472931, 22.725691], [98.5474331, 22.7253934], [98.5503669, 22.7214454], [98.5510456, 22.7198851], [98.5510746, 22.7195909], [98.5520196, 22.7185732], [98.5529905, 22.7156607], [98.5529408, 22.7155209], [98.5520768, 22.7130909], [98.5496783, 22.7116632], [98.5472227, 22.7113206], [98.5446528, 22.7107495], [98.5424223, 22.7097817], [98.5417404, 22.7078371], [98.5408267, 22.7053244], [98.5401414, 22.7023548], [98.5402556, 22.7002418], [98.5405411, 22.6967583], [98.5410304, 22.6935292], [98.5412237, 22.6929564], [98.543279, 22.6896336], [98.5435384, 22.6892142], [98.5481624, 22.6846484], [98.5514352, 22.6804941], [98.5532427, 22.6774803], [98.554372, 22.6751918], [98.5544605, 22.6747385], [98.5559029, 22.6724307], [98.5560673, 22.6713535], [98.5564169, 22.6690614], [98.556988, 22.665121], [98.556474, 22.6622085], [98.5556174, 22.6590105], [98.5555032, 22.6564978], [98.5561314, 22.6541564], [98.5566453, 22.6515638], [98.5574448, 22.6485371], [98.5572164, 22.6461957], [98.5562456, 22.6440256], [98.5559403, 22.6431099], [98.555389, 22.6414558], [98.5551558, 22.6391204], [98.5566147, 22.6356869], [98.5592901, 22.6311492], [98.5602382, 22.6298652], [98.5607178, 22.6292159], [98.561471, 22.6290447], [98.5629591, 22.6287065], [98.5633352, 22.628621], [98.5658634, 22.6286507], [98.5696019, 22.6294445], [98.5702619, 22.6295179], [98.5730796, 22.6308797], [98.5732263, 22.6309507], [98.5750325, 22.6307301], [98.5761746, 22.6297593], [98.5773167, 22.6266184], [98.5775452, 22.6234775], [98.5776821, 22.6202607], [98.5777736, 22.6181094], [98.5787444, 22.6150257], [98.5800008, 22.6115421], [98.580629, 22.6068594], [98.5807279, 22.606117], [98.5812, 22.6025763], [98.5819424, 22.6003491], [98.5840554, 22.5981106], [98.5910224, 22.5852044], [98.5945631, 22.5768667], [98.5974184, 22.571156], [98.5989437, 22.5687109], [98.600685, 22.5659193], [98.6038258, 22.56255], [98.6072523, 22.5595233], [98.6087501, 22.5567442], [98.608929, 22.5564131], [98.6111355, 22.5523278], [98.6137054, 22.5489585], [98.6147333, 22.5459318], [98.6147904, 22.5434762], [98.6146191, 22.5414661], [98.6138767, 22.5371259], [98.6144478, 22.5340421], [98.6142487, 22.5302569], [98.6150188, 22.5274748], [98.6158754, 22.5250763], [98.616042, 22.5247015], [98.617246, 22.5219925], [98.6198158, 22.5186803], [98.6218119, 22.5149667], [98.6222714, 22.5141118], [98.6241581, 22.5117026], [98.6259834, 22.5093719], [98.62875, 22.5071766], [98.6312372, 22.5052031], [98.6334073, 22.5024048], [98.6335635, 22.5022139], [98.633637, 22.5021241], [98.6339213, 22.5017766], [98.6345611, 22.5002966], [98.6352347, 22.4987385], [98.6348985, 22.4956563], [98.6348921, 22.4955977], [98.6346582, 22.4946768], [98.6339784, 22.4919999], [98.6345494, 22.4894872], [98.6358629, 22.485661], [98.6368416, 22.482416], [98.6369479, 22.4820633], [98.6369479, 22.479265], [98.636434, 22.4760099], [98.6354989, 22.4738726], [98.6352347, 22.4732688], [98.6351776, 22.4713843], [98.6354061, 22.4703335], [98.6360482, 22.4697831], [98.6374048, 22.4686203], [98.6382043, 22.4670213], [98.6381472, 22.4638804], [98.6388896, 22.4615961], [98.6388896, 22.458341], [98.6377474, 22.4559425], [98.6379188, 22.454058], [98.639632, 22.4520592], [98.6403277, 22.4507044], [98.640717, 22.4499463], [98.6409033, 22.4477107], [98.6410597, 22.4458346], [98.6420876, 22.4430363], [98.642059, 22.4429567], [98.6412881, 22.4408091], [98.6381472, 22.4401239], [98.6351205, 22.4386391], [98.6332931, 22.437554], [98.6323223, 22.4361835], [98.6291814, 22.4344132], [98.6264973, 22.4336708], [98.6239161, 22.4331397], [98.6218031, 22.4326257], [98.6208459, 22.432179], [98.6200899, 22.4318262], [98.620036, 22.4313882], [98.6196331, 22.4281142], [98.6191191, 22.4257157], [98.6180303, 22.4229875], [98.6164922, 22.4182347], [98.6165166, 22.4177219], [98.6166064, 22.4158362], [98.6168274, 22.4130081], [98.6168919, 22.4121814], [98.6171775, 22.4092689], [98.6174059, 22.4073273], [98.6171204, 22.4044148], [98.6165493, 22.4015595], [98.6151787, 22.4003031], [98.6136368, 22.3977333], [98.6128047, 22.3964295], [98.6120949, 22.3953177], [98.6124947, 22.3938329], [98.6127231, 22.3920054], [98.6136939, 22.3884648], [98.6144179, 22.3856967], [98.6146648, 22.3847528], [98.6144363, 22.3830967], [98.6124947, 22.3806982], [98.6095251, 22.3764723], [98.6057767, 22.3739904], [98.6022154, 22.3711614], [98.599303, 22.3695053], [98.5954197, 22.366707], [98.5933067, 22.3637946], [98.5924468, 22.3622688], [98.5915364, 22.3606537], [98.5914222, 22.3578554], [98.5922217, 22.3547145], [98.5920096, 22.349141], [98.5919933, 22.3487126], [98.5914222, 22.3475704], [98.5912724, 22.3469284], [98.5906227, 22.344144], [98.5899945, 22.3422595], [98.5874818, 22.3411744], [98.5861112, 22.339347], [98.5851975, 22.3364917], [98.5844551, 22.3340932], [98.5804005, 22.3235855], [98.5792013, 22.3198164], [98.5793726, 22.3184458], [98.5810858, 22.3146768], [98.5840554, 22.3088404], [98.5847978, 22.3068988], [98.5839983, 22.3051856], [98.5814856, 22.3045574], [98.5770134, 22.3040207], [98.5743472, 22.3037008], [98.5713776, 22.303301], [98.5693068, 22.3025463], [98.568922, 22.3006741], [98.5687167, 22.2990315], [98.5684652, 22.2970193], [98.568408, 22.2944494], [98.5687783, 22.2934913], [98.5693789, 22.2919367], [98.5698928, 22.2900522], [98.5696073, 22.287254], [98.5709208, 22.2831423], [98.5712063, 22.2791448], [98.5704639, 22.2764607], [98.5705781, 22.2730343], [98.5704068, 22.269882], [98.5702355, 22.2653705], [98.5695834, 22.2609211], [98.5692646, 22.2587461], [98.5693218, 22.2562334], [98.5693789, 22.2529212], [98.5695834, 22.2524399], [98.5703497, 22.2506369], [98.5723484, 22.2461255], [98.5758891, 22.2401863], [98.5773739, 22.2382447], [98.5800579, 22.2344756], [98.5804316, 22.2341787], [98.5810858, 22.233659], [98.5852546, 22.2294902], [98.5869107, 22.2250358], [98.5879387, 22.219268], [98.5892402, 22.2155636], [98.5913243, 22.2113293], [98.5937636, 22.2079608], [98.5947539, 22.2069104], [98.5975496, 22.2071359], [98.6091774, 22.2100849], [98.6212971, 22.2011971], [98.6354367, 22.1975614], [98.6509672, 22.201309], [98.6572516, 22.2048338], [98.6653313, 22.20443], [98.6730069, 22.2068542], [98.6839144, 22.2092784], [98.6911861, 22.2121065], [98.6976498, 22.2104907], [98.7077494, 22.2121069], [98.717849, 22.2112991], [98.7263326, 22.2145313], [98.7311804, 22.2125113], [98.7340084, 22.2084714], [98.7388562, 22.2084715], [98.7505716, 22.2137237], [98.7590552, 22.2161479], [98.7670759, 22.2156082], [98.7992475, 22.2134434], [98.8010696, 22.2133208], [98.8111691, 22.214937], [98.8220768, 22.2096852], [98.8366203, 22.2076655], [98.8468685, 22.2068089], [98.8467762, 22.2072925], [98.8446997, 22.2181697], [98.8447797, 22.2182265], [98.8492377, 22.2213945], [98.8495474, 22.2254418], [98.854799, 22.2327139], [98.8556068, 22.2399859], [98.8608586, 22.23837], [98.8657312, 22.2402526], [98.8709581, 22.2403902], [98.8814616, 22.2464504], [98.891965, 22.2508947], [98.9000445, 22.2585708], [98.9057003, 22.2569549], [98.9125682, 22.2504911], [98.9206479, 22.2508952], [98.9275157, 22.2484714], [98.9297406, 22.2416921], [98.929789, 22.2415448], [98.9287791, 22.2346793], [98.930344, 22.2307673], [98.9343839, 22.2271314], [98.9364039, 22.2218794], [98.9400399, 22.2170315], [98.9403672, 22.2151498], [98.9416561, 22.2077395], [98.9440801, 22.2012755], [98.9537758, 22.1996597], [98.9634715, 22.1944079], [98.9683194, 22.188348], [98.9699356, 22.181076], [98.9739756, 22.1738041], [98.9743797, 22.1661281], [98.9832676, 22.1560283], [98.9881156, 22.1483524], [98.9915623, 22.1464965], [98.9933674, 22.1455245], [99.0027492, 22.138962], [99.0182377, 22.1436879], [99.0263757, 22.1447381], [99.0317319, 22.1403857], [99.0363515, 22.1418505], [99.042728, 22.1430056], [99.0492149, 22.1410632], [99.0578382, 22.145653], [99.0580936, 22.1457889], [99.0639464, 22.1439267], [99.0663406, 22.1465872], [99.0756518, 22.1492479], [99.0817706, 22.1455233], [99.0910817, 22.1495142], [99.0953383, 22.147652], [99.1017231, 22.1489823], [99.1091721, 22.1489825], [99.1176851, 22.1535054], [99.1211628, 22.1510951], [99.1211093, 22.1506563], [99.1208349, 22.1484064], [99.1208378, 22.1479546], [99.1208349, 22.1479305], [99.1251277, 22.1498125], [99.1294039, 22.1548437], [99.1375406, 22.1563124], [99.1461238, 22.1605014], [99.1557163, 22.1626891]]]}}]}