{"type": "FeatureCollection", "features": [{"type": "Feature", "properties": {"role": "empty_pcode_source_vt", "source_row": 12402, "shan_layer_row": 806, "source_pcode": "", "name_en": "", "name_my": "", "ts_pcode": "MMR015005", "ts_name": "Pangsang (Panghkam)", "mimu_remark": "No VT info", "self_admin": "Wa", "audit_source_key": "village_tract:nopcode:row12402:village_tract_boundary_Shan_v94.zip_mmr_shn_polbnda_adm4_250k_mimu_1.shp:geom:701aa2d8c5d389ea", "geometry_hash": "701aa2d8c5d389ea37e9bf961fd1f541bc02a085221216f6747620d3dd659de4", "decision": "reject_source_error"}, "geometry": {"type": "MultiPolygon", "coordinates": [[[[98.92328237248357, 22.431909089532887], [98.91429794559382, 22.4272211053698], [98.9060945448275, 22.431908710018956], [98.89320349534512, 22.438940106201056], [98.8909276556868, 22.43941420719996], [98.89674343376254, 22.44278123746416], [98.90594104404403, 22.447240684110337], [98.90761333698593, 22.455602147021548], [98.90765345214513, 22.457246854159052], [98.90789205307587, 22.467029482424728], [98.91987681796083, 22.490720296104783], [98.9241358947558, 22.498386635235057], [98.92823828087204, 22.505770931683145], [98.93492745263991, 22.52639587556925], [98.93488637340754, 22.52755849033211], [98.93419953687918, 22.546996812952614], [98.93687846077238, 22.552316413471807], [98.94301020036055, 22.559841732609954], [98.95170329816872, 22.563191221597634], [98.94984211342285, 22.555745366555502], [98.95257713073005, 22.532697149953574], [98.96039011870913, 22.519415264103227], [98.96742173342628, 22.510430497269674], [98.96664062816252, 22.504180099332228], [98.96859412022255, 22.491288732389137], [98.973282292344, 22.472537665381054], [98.96586050495844, 22.463552579288127], [98.95804791537908, 22.46120851436152], [98.94671965378906, 22.458083074374436], [98.93890719371207, 22.450660576524484], [98.93109475342023, 22.442456778257725], [98.92328237248357, 22.431909089532887]]], [[[98.82443989908211, 22.728721342116287], [98.82589341305058, 22.728530191215402], [98.82814458520451, 22.730781363369246], [98.83213607322124, 22.732111859974403], [98.83517720626308, 22.734772851386065], [98.84449067890178, 22.73800405614227], [98.848102027087, 22.739334550049495], [98.85019280425456, 22.73724377108327], [98.85050866684158, 22.73453261278985], [98.8514631182284, 22.73324352636771], [98.85314353024975, 22.731957929315072], [98.85518775491103, 22.731371095599584], [98.85846257139062, 22.730661656410323], [98.85988827112685, 22.730256308581865], [98.85996342836958, 22.730211149125335], [98.8621672701035, 22.730211149125246], [98.86958003189304, 22.728690584403022], [98.87604244230491, 22.72717001518413], [98.88079421178351, 22.727930301142496], [98.88535591404434, 22.728500512688566], [98.89124811111148, 22.73116150320086], [98.89904101543057, 22.733822497310452], [98.90626370820368, 22.737813985327183], [98.9072490620946, 22.738108050146433], [98.9104937117155, 22.739076372676504], [98.91443675505224, 22.74427639573914], [98.91709774916183, 22.74693738625143], [98.9245105100521, 22.747507597797412], [98.92965698478203, 22.744720558307197], [98.92978787391134, 22.74450139532317], [98.9328736286151, 22.739334550049495], [98.94541830690937, 22.72831044097411], [98.95074029063198, 22.722418245705523], [98.95416156530409, 22.720517536655016], [98.95628029699817, 22.720164415155686], [98.9615743288922, 22.718236685074967], [98.96575588862348, 22.71519555203313], [98.9691771623962, 22.716145906108743], [98.97202822732088, 22.71519555203313], [98.97194789897637, 22.7111108250046], [98.97278850968203, 22.703981371243376], [98.97259843886687, 22.697138820999808], [98.97522966721549, 22.69476222669543], [98.97522972567131, 22.692472976346856], [98.974309076203, 22.688015419176278], [98.97677999769877, 22.684594143604897], [98.97895226243699, 22.683787303341408], [98.97991759741925, 22.68153491710282], [98.98304301402398, 22.666690343184815], [98.97679302707661, 22.661611771765855], [98.96780854173088, 22.659267678960216], [98.95491784388341, 22.65262636461508], [98.94515213456344, 22.64871966018419], [98.93773034088257, 22.640125224299712], [98.9353867067312, 22.633874793986564], [98.93550250523656, 22.633378557074824], [98.93807986509374, 22.622333544157847], [98.93952135242857, 22.61735593243034], [98.94089360365695, 22.612617395576418], [98.93381259097833, 22.608895652012773], [98.9272058375794, 22.60542710717529], [98.92266397166502, 22.603042628514547], [98.91012177549963, 22.599419327440085], [98.90148159649848, 22.598025750587947], [98.89339884877793, 22.596632171937248], [98.87862692839005, 22.58882813940718], [98.86636344921381, 22.583253830200157], [98.8559650776263, 22.572408216765794], [98.84044291131134, 22.55621843063612], [98.83433474115544, 22.552754101820394], [98.83124530013058, 22.56708833296023], [98.82065411299695, 22.5740562190193], [98.82078356141231, 22.5755125145909], [98.81647338064207, 22.57907309874455], [98.80309503890497, 22.581860252448738], [98.80050559215941, 22.581277626661212], [98.79194641959164, 22.579351813035753], [98.77605963844157, 22.569596772373213], [98.77048532833527, 22.563186317594564], [98.76323872708562, 22.55092283751904], [98.7622100870259, 22.542434774345377], [98.75802023014953, 22.534402189909198], [98.75300802420102, 22.533222847756285], [98.74961741371274, 22.53558153296139], [98.74401553668773, 22.543984347599622], [98.74224169679694, 22.5449285593056], [98.74484350652264, 22.54757825163506], [98.75125396220066, 22.552037698281236], [98.75487726237584, 22.557054576207836], [98.75487726237584, 22.563186317594564], [98.75264753995208, 22.569875488463065], [98.75181139258181, 22.57544979856946], [98.74233506800903, 22.58213896943796], [98.74067014770918, 22.58592572769026], [98.74740614717602, 22.585261337340945], [98.75389253081565, 22.589978708650527], [98.77422811963207, 22.60757681331932], [98.77688971089154, 22.60988011467563], [98.78891542550659, 22.61904375666405], [98.78573477973636, 22.625801237337296], [98.78470285445327, 22.641869780465996], [98.78584682357209, 22.662721579237555], [98.78565861885023, 22.669989210233854], [98.78497853263329, 22.700593041435713], [98.77522349197066, 22.71675853597771], [98.76463230483704, 22.717037252067563], [98.7534836855237, 22.717037252067563], [98.7483993674369, 22.721237342329548], [98.74707322984578, 22.722332846084015], [98.74344992877123, 22.735432472630535], [98.72812057890167, 22.74435136772145], [98.72747314167223, 22.746050889437075], [98.72589085467925, 22.750204392119045], [98.73759690437363, 22.769993190433436], [98.74995789883808, 22.78628741932892], [98.75166741561874, 22.780398153152326], [98.75224890915989, 22.778394918690637], [98.75265323355998, 22.77705804139555], [98.75591765837329, 22.776968581334945], [98.75667794343238, 22.768415393755415], [98.7600992172052, 22.76347355256244], [98.76694176744867, 22.75891185030171], [98.7798665882725, 22.75168915842797], [98.78328786114595, 22.751309017697075], [98.78727934916267, 22.74693738625143], [98.79089069734789, 22.746177102990906], [98.79317154802857, 22.74085511836902], [98.8002041699865, 22.73572320456231], [98.80530669574743, 22.735180382768483], [98.80913750009566, 22.734772851386065], [98.81393974672197, 22.732873747625327], [98.81506145222433, 22.732636772668958], [98.81864376219991, 22.73151518317923], [98.82155716183364, 22.730440326959556], [98.82443989908211, 22.728721342116287]]], [[[98.73845337552292, 22.798810794482616], [98.71386163810415, 22.794680884615193], [98.69659110519538, 22.79599494521064], [98.68590271663716, 22.802592716181003], [98.68138552632105, 22.805381106452927], [98.6744397689802, 22.815518158436266], [98.67120135705706, 22.8334065273894], [98.670497581798, 22.83729404748235], [98.6674940107401, 22.858882215641774], [98.66126229621808, 22.867718007080462], [98.66115124883116, 22.868759059582977], [98.66155099658125, 22.873510367709383], [98.66223628267836, 22.88184799858629], [98.66292156787611, 22.885388636676296], [98.66257179005616, 22.88742370084317], [98.66294595659072, 22.88892907691541], [98.66248945532415, 22.891115005053464], [98.66865304620121, 22.891000528551587], [98.66917298114822, 22.890926359663844], [98.67419161095417, 22.890210424671398], [98.68500284060862, 22.88599131194954], [98.69163958280062, 22.882846542833757], [98.69502394120205, 22.88124289244554], [98.70187940930734, 22.878606584726125], [98.70689125462778, 22.873331365749994], [98.71058113431198, 22.86726599433021], [98.71173480261909, 22.865231615446724], [98.71506624491134, 22.859356959656008], [98.71741510142587, 22.857253910339715], [98.71885384133175, 22.853567138712528], [98.72968787959205, 22.846914659284135], [98.73596021828955, 22.83741111493106], [98.73900135223067, 22.82619693504059], [98.74508362011308, 22.80852034293951], [98.74513819277342, 22.808415746389688], [98.74539323241181, 22.80714156892837], [98.74688833912562, 22.799419875626803], [98.73845337552292, 22.798810794482616]]]]}}]}