{"type": "Feature", "properties": {"core_id": 6487, "public_id": "0c7cc7db-a99a-4c85-b4f6-4ac722f537b0", "canonical_name": "\u1000\u101c\u1031\u102c\u1004\u103a\u1016\u102c\u1019\u103c\u102d\u102f\u1037\u1014\u101a\u103a", "aliases": "en:Klawngpa Township | my:\u1000\u101c\u1031\u102c\u1004\u103a\u1016\u102c\u1019\u103c\u102d\u102f\u1037\u1014\u101a\u103a", "parent_name": "\u1019\u1000\u103a\u1019\u1014\u103a\u1038\u1001\u101b\u102d\u102f\u1004\u103a", "gparent_name": "\u101b\u103e\u1019\u103a\u1038\u1015\u103c\u100a\u103a\u1014\u101a\u103a", "overlap_of_source": 0.157, "overlap_of_core": 0.9986, "centroid_dist_m": 28013.7, "child_admins": 0, "settlements": 1, "postal": 0}, "geometry": {"type": "MultiPolygon", "coordinates": [[[[98.6126131, 22.8199509], [98.6130008, 22.8194694], [98.6136943, 22.8191168], [98.6138231, 22.8188893], [98.6141557, 22.8184493], [98.6144733, 22.8182727], [98.6149711, 22.8182663], [98.6153037, 22.8183454], [98.6156427, 22.8184409], [98.6160933, 22.8183618], [98.6165214, 22.8180784], [98.6169409, 22.8175706], [98.6170632, 22.8172428], [98.6173904, 22.8170252], [98.6177767, 22.816773], [98.618003, 22.8165322], [98.6185502, 22.8153554], [98.6187208, 22.8145282], [98.6193216, 22.8139645], [98.6198581, 22.8137271], [98.6201274, 22.8136445], [98.620417, 22.8126061], [98.6208033, 22.8117457], [98.6209953, 22.8111657], [98.6210178, 22.8106974], [98.6206638, 22.8099656], [98.6206734, 22.8096328], [98.6207496, 22.8086601], [98.6206638, 22.807948], [98.6207067, 22.8072656], [98.6205662, 22.8060724], [98.6205029, 22.8055744], [98.6202443, 22.8047669], [98.620373, 22.803679], [98.6201263, 22.803224], [98.6199332, 22.8025713], [98.6198151, 22.8017998], [98.6200083, 22.8009492], [98.6201907, 22.8003064], [98.6205769, 22.7993964], [98.6209524, 22.79907], [98.6212646, 22.798216], [98.621683, 22.7973258], [98.6222506, 22.7963798], [98.6223471, 22.795994], [98.6219834, 22.795318], [98.6215543, 22.7944773], [98.6213504, 22.7934091], [98.6204278, 22.7924101], [98.6199546, 22.7917211], [98.6198473, 22.7905837], [98.6198484, 22.7892449], [98.6196757, 22.7887439], [98.6192358, 22.7880614], [98.6189568, 22.7871118], [98.6186039, 22.7858126], [98.6188174, 22.7852027], [98.6196113, 22.7844905], [98.6199653, 22.7843521], [98.6203945, 22.7837091], [98.6204921, 22.7833792], [98.6201917, 22.7830231], [98.6194943, 22.7825285], [98.6190223, 22.7814899], [98.6185277, 22.7796732], [98.6184107, 22.779096], [98.6185921, 22.7781894], [98.6186564, 22.777675], [98.6191403, 22.7772264], [98.6189783, 22.7759538], [98.6190319, 22.7751624], [98.6193538, 22.7744007], [98.6191188, 22.7732794], [98.6192572, 22.7727289], [98.6201155, 22.7713043], [98.6207593, 22.7705723], [98.6210811, 22.7700678], [98.6209857, 22.7693322], [98.6209535, 22.7688376], [98.6213504, 22.7679472], [98.6216069, 22.7675649], [98.6217463, 22.766912], [98.6218965, 22.7660908], [98.6223579, 22.765339], [98.6227763, 22.7650719], [98.6235166, 22.7645277], [98.623699, 22.7641221], [98.6240326, 22.7636834], [98.6241496, 22.7622919], [98.624376, 22.7619026], [98.6245144, 22.7608771], [98.6246335, 22.7601811], [98.624848, 22.7596865], [98.6247408, 22.7589346], [98.6247504, 22.7584434], [98.6251163, 22.7580046], [98.6253834, 22.7573254], [98.6258662, 22.7567516], [98.6261355, 22.7558774], [98.6262203, 22.7551883], [98.6265529, 22.7542583], [98.6267674, 22.7532492], [98.6270142, 22.7526654], [98.6271108, 22.7520916], [98.6275721, 22.7518739], [98.6275624, 22.7508415], [98.6276375, 22.7502775], [98.6275302, 22.748922], [98.6272931, 22.7484802], [98.6273146, 22.7480053], [98.6271977, 22.7471113], [98.6270249, 22.746155], [98.6268758, 22.7454689], [98.6268211, 22.7443147], [98.6264681, 22.7431436], [98.626275, 22.742738], [98.6263275, 22.7419696], [98.6262213, 22.7414714], [98.6255669, 22.740294], [98.6255873, 22.7393376], [98.62576, 22.7386019], [98.6256312, 22.7381369], [98.6253405, 22.7370222], [98.6253083, 22.7367451], [98.6260057, 22.7359139], [98.6263608, 22.7353959], [98.6270474, 22.7339809], [98.6269294, 22.7331893], [98.62679, 22.7326054], [98.6266076, 22.7321008], [98.6266398, 22.7317247], [98.6264574, 22.7312399], [98.6261677, 22.730656], [98.6262846, 22.7303132], [98.6268854, 22.7297887], [98.6271966, 22.7291851], [98.6272406, 22.7282415], [98.6269713, 22.7277799], [98.6269509, 22.727341], [98.6273157, 22.7266186], [98.6271011, 22.7262228], [98.6269402, 22.7255103], [98.6270678, 22.725197], [98.6279047, 22.7245439], [98.6283231, 22.7233762], [98.6281514, 22.7227626], [98.6283564, 22.7217498], [98.6284733, 22.721397], [98.628999, 22.7210803], [98.6295902, 22.7206909], [98.6296975, 22.7201367], [98.6294078, 22.7193845], [98.6291288, 22.7187116], [98.629278, 22.7180322], [98.6297511, 22.7171381], [98.6297822, 22.7165774], [98.6295998, 22.7159737], [98.6295355, 22.7156372], [98.6295569, 22.7153601], [98.6298262, 22.7151191], [98.6302972, 22.7150236], [98.6309839, 22.715083], [98.6313486, 22.7151127], [98.6315739, 22.7149544], [98.6316394, 22.7146045], [98.6314141, 22.7138425], [98.6309088, 22.7132323], [98.630588, 22.7125064], [98.6300612, 22.7120744], [98.6299968, 22.7116884], [98.6299646, 22.7111837], [98.6302339, 22.7105666], [98.6301363, 22.7096793], [98.6312843, 22.7085313], [98.6313379, 22.7078682], [98.6311781, 22.7070234], [98.630942, 22.7064296], [98.6303305, 22.7062119], [98.6302865, 22.7058095], [98.6304581, 22.7053543], [98.6308551, 22.7049485], [98.6307693, 22.7045229], [98.629794, 22.7031734], [98.6297393, 22.7022563], [98.6301052, 22.7017679], [98.6303948, 22.701174], [98.6303519, 22.7006989], [98.6297618, 22.7001645], [98.6292136, 22.6993563], [98.6292576, 22.6985313], [98.6295033, 22.6980993], [98.6293853, 22.6977727], [98.6290108, 22.6971456], [98.628484, 22.6968324], [98.6284637, 22.6961657], [98.6288059, 22.6956149], [98.6292887, 22.6951497], [98.6296331, 22.6946117], [98.630147, 22.6939124], [98.6306835, 22.6935165], [98.6308015, 22.6925366], [98.6311459, 22.6915136], [98.6315525, 22.6910419], [98.6317671, 22.6902896], [98.6325406, 22.6894844], [98.6333335, 22.6890622], [98.6339665, 22.6887554], [98.6341167, 22.6879338], [98.6341274, 22.687617], [98.6344064, 22.6871716], [98.635093, 22.6865183], [98.6352765, 22.6860001], [98.6354685, 22.6856769], [98.6361026, 22.6852576], [98.6363161, 22.6847662], [98.6366927, 22.6843272], [98.6367678, 22.6838124], [98.6369384, 22.6835189], [98.6375177, 22.6831823], [98.6382162, 22.6827433], [98.6389125, 22.6824993], [98.6395347, 22.6822617], [98.6399371, 22.6819697], [98.6401742, 22.6815851], [98.6403083, 22.6813921], [98.6407482, 22.6809268], [98.641187, 22.6809402], [98.6415303, 22.6809303], [98.6419434, 22.6806482], [98.6421429, 22.6804665], [98.6422985, 22.6800508], [98.6423736, 22.6794915], [98.6425764, 22.6785001], [98.6427598, 22.6781105], [98.6434293, 22.6774804], [98.6443262, 22.6767048], [98.6446041, 22.676238], [98.6449099, 22.6752976], [98.6451996, 22.6744908], [98.6450923, 22.6736691], [98.6449421, 22.6730999], [98.6445666, 22.6723079], [98.6445237, 22.6718377], [98.6445355, 22.6707403], [98.6445998, 22.6701661], [98.6447178, 22.6698196], [98.6456566, 22.6690622], [98.6458873, 22.6687454], [98.6464119, 22.6677985], [98.6467939, 22.6669486], [98.646869, 22.6662308], [98.6468464, 22.6655214], [98.6470932, 22.6646997], [98.6470181, 22.6641948], [98.6471157, 22.6634785], [98.6473142, 22.6631914], [98.6473625, 22.6626914], [98.6473024, 22.6619672], [98.6474097, 22.6612049], [98.6473346, 22.6609771], [98.6474258, 22.6606306], [98.6471962, 22.6598995], [98.6471908, 22.6594638], [98.6473024, 22.6587049], [98.647502, 22.6584094], [98.6477756, 22.6582064], [98.6479622, 22.6580515], [98.6481994, 22.6572857], [98.6486392, 22.6564243], [98.648665, 22.6560961], [98.6483388, 22.6557807], [98.6478818, 22.6553387], [98.6477316, 22.6549476], [98.6477477, 22.6544575], [98.6478979, 22.653705], [98.6476994, 22.6533535], [98.6473453, 22.6528931], [98.6471587, 22.6524936], [98.6472338, 22.6515777], [98.647517, 22.6510267], [98.6478281, 22.6507792], [98.6483056, 22.6505712], [98.6484826, 22.6502841], [98.6486875, 22.6497559], [98.6488849, 22.6490514], [98.6491596, 22.6488845], [98.649652, 22.6488435], [98.6501305, 22.6488994], [98.6503719, 22.6490727], [98.6507796, 22.6493153], [98.6510146, 22.6495366], [98.6512775, 22.6495267], [98.6515628, 22.6493004], [98.651933, 22.6488845], [98.6521894, 22.6484078], [98.652566, 22.6478894], [98.652919, 22.6475513], [98.6531722, 22.6472706], [98.6532044, 22.647028], [98.6529683, 22.6466171], [98.6529726, 22.6462096], [98.6531389, 22.6459869], [98.6537504, 22.6455858], [98.6546206, 22.6449536], [98.6552911, 22.6446269], [98.6555271, 22.64431], [98.6559938, 22.6436317], [98.6564702, 22.6430213], [98.657012, 22.6426648], [98.6581225, 22.6421004], [98.6587608, 22.6417835], [98.6591803, 22.6412998], [98.6594485, 22.6408592], [98.6601073, 22.6396595], [98.6605418, 22.6389169], [98.660574, 22.6385456], [98.6606384, 22.6377979], [98.6611276, 22.636933], [98.6616533, 22.6359031], [98.6618786, 22.6354971], [98.6619966, 22.6349277], [98.6624247, 22.6345203], [98.6628056, 22.6340697], [98.663444, 22.6338419], [98.6640662, 22.6334607], [98.6645437, 22.6333518], [98.6651284, 22.6331488], [98.6654728, 22.6326353], [98.6661583, 22.6320347], [98.6668182, 22.6317079], [98.6674576, 22.6311945], [98.6679941, 22.6309419], [98.6683417, 22.6308711], [98.6687225, 22.6306483], [98.6691624, 22.6299749], [98.6692107, 22.6297224], [98.6695605, 22.6291495], [98.6701291, 22.6286891], [98.6706226, 22.6282632], [98.6710732, 22.6279513], [98.6714101, 22.6279696], [98.6717009, 22.6280751], [98.6721461, 22.6281592], [98.672601, 22.6281627], [98.6730784, 22.6279944], [98.6733681, 22.627831], [98.6738305, 22.6275601], [98.6743445, 22.6275438], [98.6747843, 22.6275438], [98.675589, 22.6271823], [98.675943, 22.6267862], [98.6763937, 22.6262069], [98.6768979, 22.6258157], [98.6771887, 22.6254211], [98.6774515, 22.625119], [98.6779611, 22.6247823], [98.6782455, 22.6241336], [98.6787218, 22.623632], [98.6792862, 22.6233018], [98.6799771, 22.6226566], [98.6805682, 22.6220391], [98.6808257, 22.6216479], [98.6807882, 22.621326], [98.6807775, 22.6208457], [98.6807989, 22.6206031], [98.6809373, 22.6204877], [98.6812817, 22.62041], [98.6815918, 22.6203194], [98.6821282, 22.6200668], [98.682301, 22.6197662], [98.6822784, 22.6195122], [98.6819995, 22.619017], [98.681742, 22.618814], [98.6817205, 22.6183584], [98.6818064, 22.6180366], [98.6820531, 22.6178781], [98.6826757, 22.6176055], [98.6833095, 22.6172903], [98.6841517, 22.6169734], [98.6849671, 22.6167654], [98.6855829, 22.6166847], [98.6858468, 22.6163396], [98.6862599, 22.6162009], [98.6870796, 22.6160162], [98.6876439, 22.615676], [98.6880666, 22.615313], [98.6883295, 22.6149763], [98.6886256, 22.6142944], [98.6887919, 22.6139874], [98.6890548, 22.6138091], [98.6892039, 22.6135749], [98.6892532, 22.6132347], [98.6895097, 22.6130252], [98.6898326, 22.6127593], [98.6902242, 22.6124077], [98.6907875, 22.6117243], [98.6910181, 22.6114024], [98.6912166, 22.6111647], [98.6911791, 22.6110063], [98.6910611, 22.6108181], [98.6908508, 22.6103907], [98.6908357, 22.6100852], [98.6911791, 22.609481], [98.6914258, 22.6090304], [98.6918539, 22.608806], [98.6919945, 22.6086243], [98.6920106, 22.6084609], [98.6918067, 22.6079607], [98.6916125, 22.6076076], [98.6916232, 22.6073699], [98.6911898, 22.6066533], [98.6911844, 22.6062373], [98.6913121, 22.6058], [98.6917745, 22.6053212], [98.6921275, 22.6052454], [98.6926747, 22.605186], [98.6930341, 22.604973], [98.6934697, 22.6046476], [98.6937969, 22.6040583], [98.6939525, 22.6035779], [98.6940759, 22.6027658], [98.6941392, 22.6023829], [98.694402, 22.6016549], [98.694505, 22.6010819], [98.6948043, 22.6004762], [98.6951166, 22.6001113], [98.6957538, 22.5995798], [98.6965328, 22.5991009], [98.6969394, 22.5987577], [98.6971979, 22.5981055], [98.6974072, 22.5977737], [98.6977816, 22.59748], [98.6979704, 22.5972338], [98.6979972, 22.5967534], [98.6980015, 22.5962814], [98.6982161, 22.5960586], [98.6986184, 22.5958308], [98.6992139, 22.5954544], [98.6994767, 22.595068], [98.6999005, 22.5947659], [98.7002557, 22.5941236], [98.7006301, 22.5936219], [98.7011354, 22.5931578], [98.7017834, 22.5927353], [98.7022502, 22.5925025], [98.7025731, 22.5919988], [98.7029958, 22.591403], [98.7036352, 22.5910182], [98.7042672, 22.5908533], [98.7045043, 22.5906467], [98.705104, 22.5901351], [98.70584, 22.5893986], [98.7067348, 22.5886889], [98.7075405, 22.5884526], [98.7086124, 22.588258], [98.7091166, 22.5880549], [98.7094921, 22.5880351], [98.7102378, 22.5882877], [98.7106347, 22.5881886], [98.7109083, 22.5880004], [98.7114019, 22.5876834], [98.7119973, 22.5873763], [98.7123739, 22.5869667], [98.7133223, 22.5865195], [98.7141535, 22.5864353], [98.7146699, 22.5865012], [98.7151996, 22.5866681], [98.715736, 22.586673], [98.7164991, 22.5863823], [98.7170879, 22.586148], [98.7175975, 22.58594], [98.7181178, 22.5857963], [98.7190137, 22.5858013], [98.7194428, 22.585732], [98.7202851, 22.5853803], [98.7208859, 22.5852268], [98.7214384, 22.585306], [98.7217764, 22.5853605], [98.7220446, 22.5852515], [98.7221197, 22.5850683], [98.7221036, 22.5847166], [98.7221787, 22.5844145], [98.7223732, 22.5841287], [98.7223128, 22.5837805], [98.7223986, 22.5834536], [98.722754, 22.5831529], [98.7235855, 22.5829201], [98.7239865, 22.5825868], [98.7240294, 22.5821806], [98.7238202, 22.5818091], [98.7236003, 22.5812296], [98.723611, 22.5808185], [98.7237612, 22.5806848], [98.7240683, 22.5807061], [98.72448, 22.58066], [98.7247429, 22.5803727], [98.7248287, 22.5800706], [98.7248555, 22.5795009], [98.7251399, 22.5792632], [98.726084, 22.5788768], [98.7265453, 22.5785995], [98.7273554, 22.578332], [98.7278717, 22.5780264], [98.7282137, 22.5779902], [98.7284551, 22.5777673], [98.7288909, 22.5775409], [98.7291484, 22.5776598], [98.72954, 22.5777143], [98.7298981, 22.5775989], [98.7303165, 22.5770738], [98.7305257, 22.5768064], [98.7309616, 22.5766246], [98.7315517, 22.5763621], [98.7321833, 22.5763358], [98.7326514, 22.5764562], [98.7331007, 22.576311], [98.7334708, 22.5761129], [98.7336974, 22.5757528], [98.7338101, 22.5753615], [98.7338101, 22.5751435], [98.7342594, 22.5750182], [98.7350694, 22.5747606], [98.7356273, 22.574404], [98.735972, 22.574133], [98.7363904, 22.573603], [98.7365352, 22.5732018], [98.7365942, 22.572969], [98.7367015, 22.5728699], [98.7371615, 22.5730269], [98.7378441, 22.573281], [98.7383202, 22.5732399], [98.7391249, 22.5730418], [98.7394696, 22.57286], [98.7397794, 22.5723434], [98.7397901, 22.571952], [98.7399309, 22.5716514], [98.7401119, 22.5715508], [98.7403976, 22.571582], [98.7409112, 22.5714814], [98.7411325, 22.5713393], [98.7413619, 22.5709167], [98.7418554, 22.5706294], [98.7419211, 22.5703535], [98.7426064, 22.5702976], [98.7430999, 22.5701935], [98.7434446, 22.5700613], [98.7437182, 22.5691795], [98.7439328, 22.568699], [98.7442747, 22.568539], [98.7448863, 22.5684944], [98.7452296, 22.5684796], [98.7454133, 22.5687387], [98.745868, 22.5689155], [98.7462059, 22.5689056], [98.7464809, 22.5687684], [98.7465613, 22.5685207], [98.7466244, 22.5682517], [98.7468121, 22.5679396], [98.7469261, 22.5676142], [98.7469261, 22.5672922], [98.7469409, 22.567048], [98.7468336, 22.5668944], [98.7468657, 22.5666467], [98.7473392, 22.5664005], [98.7489257, 22.5664932], [98.7491671, 22.5664238], [98.7495319, 22.5661216], [98.7496405, 22.565816], [98.7497411, 22.5652151], [98.7498376, 22.5649674], [98.7503043, 22.5647643], [98.7509481, 22.5645364], [98.7512324, 22.5643036], [98.7512753, 22.5640559], [98.7518547, 22.5637587], [98.7520049, 22.5634169], [98.7521457, 22.5631856], [98.7524555, 22.5629364], [98.7527089, 22.5625861], [98.7526915, 22.562436], [98.7525091, 22.5619654], [98.7525105, 22.5617192], [98.752607, 22.5613873], [98.7526915, 22.5612967], [98.7531314, 22.5611579], [98.7533031, 22.561044], [98.7539803, 22.5601686], [98.7543451, 22.559911], [98.7547085, 22.5595776], [98.7551283, 22.5592522], [98.7553107, 22.5591036], [98.7552986, 22.5589931], [98.7551538, 22.5588692], [98.7550639, 22.5586626], [98.7550747, 22.5584794], [98.7554059, 22.5583491], [98.7559705, 22.5581375], [98.7563782, 22.5577016], [98.7568897, 22.5573005], [98.7569752, 22.5568268], [98.7579156, 22.5565637], [98.7591979, 22.5569321], [98.7599672, 22.55559], [98.7616199, 22.5551163], [98.7619904, 22.5546953], [98.7627882, 22.5539321], [98.7652673, 22.5526953], [98.7657517, 22.5520637], [98.7657517, 22.5512215], [98.7667776, 22.5500373], [98.7684018, 22.5509584], [98.7691427, 22.5508794], [98.7693991, 22.5498794], [98.7699405, 22.5493268], [98.7714793, 22.5472214], [98.7734739, 22.5458529], [98.7753831, 22.5464319], [98.7767224, 22.5466951], [98.7780047, 22.5455371], [98.7783466, 22.5443791], [98.7776627, 22.5437475], [98.7775772, 22.5430106], [98.778717, 22.5417737], [98.7788025, 22.5411157], [98.778888, 22.5405893], [98.7825069, 22.5400103], [98.7829058, 22.539484], [98.7833048, 22.5389839], [98.7849575, 22.5382207], [98.7857839, 22.5371679], [98.788092, 22.5366152], [98.788517, 22.5371296], [98.7889685, 22.5382714], [98.7895024, 22.5387697], [98.7903465, 22.5385706], [98.7909508, 22.5386211], [98.7914571, 22.5389976], [98.7928288, 22.538504], [98.7935828, 22.5381396], [98.7934704, 22.5372075], [98.7930296, 22.5364756], [98.793161, 22.536157], [98.7947917, 22.535787], [98.7964122, 22.5356471], [98.7982507, 22.5367299], [98.7989759, 22.5367482], [98.7995436, 22.5364907], [98.8004381, 22.5362842], [98.8015702, 22.5355887], [98.8025025, 22.5344628], [98.8032353, 22.533478], [98.8037673, 22.5334814], [98.8046086, 22.533478], [98.8053315, 22.5329305], [98.8055789, 22.5320046], [98.8060248, 22.5310403], [98.8064485, 22.5302241], [98.8069558, 22.5301669], [98.807459, 22.5304124], [98.8079131, 22.5303069], [98.8082096, 22.52993], [98.8087225, 22.5297457], [98.8092924, 22.529114], [98.8102897, 22.5286929], [98.8118, 22.5276664], [98.8124905, 22.5264057], [98.8130035, 22.5261491], [98.8135022, 22.5263136], [98.8139083, 22.5264189], [98.8144926, 22.526386], [98.8151338, 22.526103], [98.815433, 22.5257476], [98.8160274, 22.525457], [98.8160386, 22.5254515], [98.8162255, 22.525256], [98.8163211, 22.525156], [98.81663, 22.5248328], [98.817599, 22.5243261], [98.8186178, 22.5241023], [98.8196509, 22.5236482], [98.8206127, 22.5234047], [98.821254, 22.5230756], [98.8218667, 22.5229703], [98.8223156, 22.523023], [98.8229639, 22.5227926], [98.8236194, 22.5224833], [98.8251726, 22.5223977], [98.8254861, 22.5222398], [98.8259777, 22.5216409], [98.8267614, 22.5216277], [98.8272174, 22.5219436], [98.8280543, 22.5225667], [98.8287608, 22.5229971], [98.829696, 22.5234434], [98.8307195, 22.5243473], [98.8316561, 22.5243261], [98.8322332, 22.5241879], [98.8329457, 22.5238588], [98.8334658, 22.52351], [98.8338506, 22.52351], [98.8343018, 22.5233945], [98.8349673, 22.5237465], [98.8351896, 22.5241041], [98.8351977, 22.5242858], [98.8346967, 22.5249115], [98.8350618, 22.525412], [98.8357173, 22.52582], [98.8358883, 22.5262215], [98.8363157, 22.5265242], [98.8365794, 22.5264913], [98.8369641, 22.5265703], [98.837185, 22.5267216], [98.8380538, 22.5272552], [98.8384603, 22.5276035], [98.8388237, 22.528051], [98.8396858, 22.5284854], [98.840156, 22.5285446], [98.8407402, 22.5285512], [98.8410965, 22.5288407], [98.8415524, 22.5293277], [98.8425428, 22.5299003], [98.8440743, 22.5302147], [98.8443801, 22.5306204], [98.8448231, 22.5312931], [98.8457276, 22.5315324], [98.8466075, 22.5317], [98.8479362, 22.5321576], [98.8484065, 22.5326116], [98.8492899, 22.5328617], [98.8496069, 22.5330317], [98.8500543, 22.5332716], [98.8506575, 22.533595], [98.8511776, 22.5342614], [98.8533754, 22.535625], [98.854231, 22.5360899], [98.8548518, 22.5368647], [98.8552544, 22.537655], [98.8562778, 22.5381044], [98.8571838, 22.5375775], [98.8579388, 22.537903], [98.8583414, 22.5386777], [98.8600863, 22.5388327], [98.8613613, 22.5385073], [98.8618479, 22.5380269], [98.8629384, 22.5375465], [98.8642806, 22.5365393], [98.8663274, 22.5361364], [98.8671998, 22.5352531], [98.8680051, 22.5345403], [98.8681058, 22.533781], [98.867334, 22.5326652], [98.8674347, 22.5319834], [98.8684916, 22.5320299], [98.8689614, 22.5318439], [98.8699177, 22.5304647], [98.8711257, 22.5301703], [98.8723336, 22.5298759], [98.8730886, 22.5293335], [98.8734409, 22.5282177], [98.874112, 22.5275048], [98.8749173, 22.5270089], [98.8759072, 22.5271329], [98.8762259, 22.5271329], [98.8778701, 22.5271949], [98.8793297, 22.5273963], [98.8794807, 22.5278923], [98.8795982, 22.5286516], [98.8796821, 22.5295659], [98.8795814, 22.5302943], [98.8790613, 22.5312396], [98.879011, 22.5316425], [98.8791955, 22.5325878], [98.8793968, 22.5331611], [98.8795982, 22.5341219], [98.8793465, 22.5349122], [98.8790948, 22.5352996], [98.8789774, 22.535935], [98.8786251, 22.5370352], [98.8785748, 22.5373606], [98.8796317, 22.539654], [98.8805545, 22.5410486], [98.8810242, 22.5417924], [98.881192, 22.5428615], [98.8822825, 22.5440702], [98.8829557, 22.5451686], [98.8828142, 22.5462407], [98.8826726, 22.5475613], [98.8820803, 22.5486156], [98.881894, 22.5489472], [98.882078, 22.5492479], [98.8814551, 22.5503331], [98.8804358, 22.5525819], [98.8792608, 22.5540069], [98.8781566, 22.5552882], [98.8782132, 22.5564648], [98.8780858, 22.5570662], [98.8776328, 22.5575369], [98.8767268, 22.5580206], [98.8761322, 22.5590796], [98.8764011, 22.5597594], [98.8764295, 22.5603216], [98.8761746, 22.5609229], [98.8755517, 22.5616028], [98.8747731, 22.5623741], [98.8746174, 22.5627794], [98.8746599, 22.5634199], [98.8740936, 22.5647142], [98.8739803, 22.5652632], [98.8739237, 22.5657077], [98.873952, 22.566479], [98.8734849, 22.5680085], [98.8731876, 22.5688452], [98.8731734, 22.5696295], [98.873046, 22.5698518], [98.8725647, 22.5703093], [98.8722532, 22.5706492], [98.8719559, 22.5715773], [98.8717577, 22.5721395], [98.8712622, 22.5727277], [98.8709366, 22.5731852], [98.8707809, 22.5735513], [98.8704411, 22.5746101], [98.8701863, 22.5750284], [98.8701438, 22.5755905], [98.8702571, 22.5761265], [98.8702146, 22.5765578], [98.8699598, 22.5767278], [98.8693794, 22.5766101], [98.8684592, 22.5781134], [98.8674824, 22.5792114], [98.8671851, 22.5797343], [98.8671992, 22.5809238], [98.8671143, 22.5816166], [98.8667038, 22.5821394], [98.8659959, 22.5831982], [98.8655854, 22.5831198], [98.8648067, 22.582427], [98.8645236, 22.5823747], [98.8639007, 22.5828714], [98.8638441, 22.5837211], [98.8634194, 22.5843223], [98.8630513, 22.5846491], [98.8626266, 22.5852504], [98.8622302, 22.5858124], [98.8620603, 22.5864268], [98.8614799, 22.587028], [98.8607721, 22.5867666], [98.8604606, 22.5867013], [98.8599934, 22.5868058], [98.8597952, 22.5872764], [98.8598094, 22.5879169], [98.8595404, 22.588309], [98.8587052, 22.5884397], [98.8581814, 22.5883351], [98.8569356, 22.5887403], [98.8564967, 22.5891978], [98.8562136, 22.5893154], [98.8553925, 22.5894984], [98.8548687, 22.5894984], [98.854444, 22.5895115], [98.853906, 22.5891978], [98.852915, 22.5892239], [98.8524054, 22.5894069], [98.851018, 22.5901127], [98.850565, 22.5903872], [98.8500412, 22.5905049], [98.8494183, 22.5901389], [98.8487954, 22.590348], [98.8473797, 22.5910146], [98.8454827, 22.5921125], [98.8448457, 22.5926354], [98.8434158, 22.5939685], [98.8432318, 22.5945436], [98.8425947, 22.5947266], [98.8420143, 22.5945698], [98.8414764, 22.5953278], [98.8410941, 22.5967263], [98.8404146, 22.5975759], [98.8399474, 22.597968], [98.8401881, 22.599105], [98.8403721, 22.6007257], [98.8398766, 22.6012746], [98.8394519, 22.6022025], [98.8386592, 22.6024509], [98.838008, 22.6026469], [98.837654, 22.6027907], [98.8371302, 22.6030259], [98.8367763, 22.6037055], [98.8358278, 22.6053523], [98.8353748, 22.6062671], [98.8353606, 22.6066722], [98.8353889, 22.607378], [98.8337468, 22.6077962], [98.8332654, 22.6082797], [98.8324019, 22.6081621], [98.8316374, 22.6080575], [98.8310994, 22.6080968], [98.8304199, 22.6082928], [98.829882, 22.6085672], [98.8293865, 22.6087763], [98.8293157, 22.6092991], [98.8292874, 22.6097304], [98.8290892, 22.6100179], [98.828891, 22.6102792], [98.8280416, 22.6102531], [98.8275744, 22.6101747], [98.8270648, 22.6105798], [98.8272771, 22.6110764], [98.8273762, 22.6116253], [98.8269232, 22.6120174], [98.8261304, 22.6119912], [98.8257057, 22.6124225], [98.8260455, 22.6132197], [98.8260596, 22.6138339], [98.8256349, 22.6141606], [98.8252385, 22.614056], [98.8241768, 22.6141214], [98.8237804, 22.6146572], [98.8235114, 22.6151015], [98.8230584, 22.6156242], [98.8226478, 22.6159379], [98.8227611, 22.6166566], [98.8229593, 22.6169964], [98.8228319, 22.6172578], [98.8225771, 22.6174276], [98.8220674, 22.6175191], [98.8218126, 22.6180157], [98.8217984, 22.6184469], [98.8204677, 22.6185907], [98.8194342, 22.6187998], [98.8180327, 22.6195839], [98.8167161, 22.620773], [98.8161074, 22.621727], [98.8158951, 22.621936], [98.8154562, 22.6219883], [98.8151731, 22.6221713], [98.8151589, 22.6226809], [98.8154137, 22.6234649], [98.8153146, 22.6238831], [98.8147767, 22.6242098], [98.8139131, 22.6251768], [98.8142104, 22.6261568], [98.8145077, 22.6265227], [98.8141679, 22.6266403], [98.8135026, 22.6264312], [98.8131345, 22.6266926], [98.8132336, 22.6272675], [98.8137998, 22.6273459], [98.8139839, 22.6278947], [98.8136724, 22.6284828], [98.8130071, 22.6293713], [98.8128797, 22.6303905], [98.8124974, 22.630286], [98.8121435, 22.6302337], [98.8120586, 22.6307695], [98.8116622, 22.6310961], [98.810657, 22.6309393], [98.8100625, 22.6314881], [98.8100341, 22.632442], [98.8099775, 22.6330692], [98.8101191, 22.6335396], [98.8090007, 22.6359961], [98.8084911, 22.6369499], [98.8088025, 22.6373419], [98.8086043, 22.6375771], [98.80767, 22.6379429], [98.8078257, 22.6384525], [98.8082504, 22.6388053], [98.8086751, 22.6393802], [98.8085902, 22.6398114], [98.8082787, 22.6401119], [98.80767, 22.640334], [98.8070471, 22.6403601], [98.8065374, 22.6402164], [98.8063109, 22.640726], [98.8062684, 22.6412747], [98.8056031, 22.6416798], [98.8054473, 22.6424637], [98.8056739, 22.6430647], [98.8060561, 22.6434567], [98.8054615, 22.6434828], [98.8048244, 22.6431954], [98.8045272, 22.6429733], [98.8041025, 22.6436004], [98.8042865, 22.6440185], [98.8053482, 22.6446326], [98.8053766, 22.645116], [98.8049519, 22.6452336], [98.8038901, 22.6449592], [98.8034796, 22.6454557], [98.8032106, 22.6474547], [98.8031398, 22.6479904], [98.8039467, 22.6482778], [98.8053058, 22.6487481], [98.8055748, 22.6494145], [98.8053624, 22.6498325], [98.8047254, 22.6498456], [98.8041732, 22.6495712], [98.8035928, 22.6495451], [98.8031256, 22.6499109], [98.803253, 22.6504335], [98.8030549, 22.6506295], [98.8025594, 22.6506295], [98.8019082, 22.6503159], [98.8016675, 22.650525], [98.8015118, 22.6510737], [98.8010304, 22.6514395], [98.8002801, 22.6522365], [98.7995864, 22.6523149], [98.7991617, 22.6523802], [98.7993741, 22.6529158], [98.7993175, 22.6531771], [98.7989494, 22.6532686], [98.7984256, 22.6530987], [98.7980433, 22.6530595], [98.7968966, 22.6533078], [98.7966277, 22.6531641], [98.7963162, 22.6531641], [98.7961322, 22.6538173], [98.7954385, 22.6548494], [98.7951412, 22.6550062], [98.7951412, 22.655372], [98.7950563, 22.656195], [98.7946174, 22.6567045], [98.7942352, 22.6576713], [98.793768, 22.6581939], [98.7935981, 22.6588863], [98.7938105, 22.6591737], [98.7937255, 22.6596178], [98.7933575, 22.6598007], [98.7926496, 22.6606107], [98.7925222, 22.661081], [98.7925222, 22.6617342], [98.7922391, 22.6632365], [98.7909083, 22.6643992], [98.7906394, 22.6649348], [98.7903987, 22.6653267], [98.790427, 22.6658623], [98.7899598, 22.6660191], [98.7896767, 22.6665416], [98.7897899, 22.6671948], [98.7902854, 22.6674952], [98.789889, 22.6677304], [98.7892095, 22.6677304], [98.7885583, 22.6677565], [98.7881336, 22.6673254], [98.7871993, 22.6675736], [98.7874824, 22.6680439], [98.7877797, 22.6690497], [98.7873408, 22.670134], [98.7880203, 22.6708786], [98.7879496, 22.6716232], [98.7878788, 22.6724461], [98.7874682, 22.6730209], [98.786633, 22.6737524], [98.7868878, 22.6747582], [98.7867604, 22.675346], [98.7864914, 22.6756856], [98.7858968, 22.6754505], [98.7857128, 22.6758555], [98.7852315, 22.6759208], [98.7848068, 22.6757901], [98.7843396, 22.6758032], [98.783929, 22.6759338], [98.7834619, 22.6771748], [98.7827682, 22.6776711], [98.7827682, 22.6783765], [98.7825275, 22.678703], [98.7824001, 22.6791472], [98.7821878, 22.6795521], [98.7824992, 22.6800484], [98.7823576, 22.6803881], [98.7817347, 22.680584], [98.7811543, 22.6804664], [98.7809844, 22.6806493], [98.7803332, 22.6815506], [98.7804606, 22.6822951], [98.7800784, 22.6827915], [98.7797245, 22.6830266], [98.7791724, 22.6839278], [98.7789883, 22.6850903], [98.778691, 22.6867753], [98.778776, 22.6873369], [98.7788326, 22.6875981], [98.7778275, 22.6877157], [98.7780115, 22.6889826], [98.7780115, 22.6904585], [98.7782522, 22.6909548], [98.7787335, 22.6929532], [98.7783513, 22.6955914], [98.7776717, 22.6972501], [98.7769214, 22.6996271], [98.776525, 22.7004368], [98.7765675, 22.7008548], [98.7759305, 22.7028921], [98.7754491, 22.7031141], [98.7753642, 22.7037541], [98.7754633, 22.7046682], [98.7753783, 22.7057261], [98.7757181, 22.7070451], [98.7750686, 22.7090664], [98.773257, 22.7114197], [98.7727394, 22.7118858], [98.7720985, 22.7128408], [98.7708045, 22.7147393], [98.7704724, 22.7152768], [98.7700527, 22.7161376], [98.7692147, 22.7178655], [98.7701513, 22.7184908], [98.7705826, 22.7193548], [98.770484, 22.7204461], [98.7699788, 22.7214123], [98.7700157, 22.7222763], [98.7706196, 22.7236859], [98.7714084, 22.7255842], [98.7718644, 22.7265618], [98.7704348, 22.7290172], [98.7689682, 22.7306995], [98.7690175, 22.7321886], [98.7689312, 22.7346438], [98.7689558, 22.7353371], [98.7682534, 22.735735], [98.7675879, 22.735735], [98.7668854, 22.7357577], [98.766528, 22.7357691], [98.766072, 22.7358941], [98.7660473, 22.7363033], [98.7667005, 22.7380424], [98.7672058, 22.7385993], [98.7675879, 22.7401451], [98.7671935, 22.7412022], [98.7672551, 22.7421683], [98.7667375, 22.742532], [98.7665157, 22.7426911], [98.7646424, 22.7427707], [98.7628554, 22.7433958], [98.7613518, 22.7436913], [98.7608958, 22.7433731], [98.7605261, 22.7440891], [98.7600455, 22.7441573], [98.7594785, 22.7441573], [98.7586775, 22.7443733], [98.7583694, 22.7445097], [98.7576546, 22.7444869], [98.7574943, 22.7453621], [98.7569398, 22.7454189], [98.7548446, 22.7467033], [98.7542901, 22.7470101], [98.7541175, 22.7476125], [98.7538094, 22.7479762], [98.7540559, 22.7486809], [98.7538957, 22.749306], [98.7533411, 22.7499083], [98.752614, 22.7501584], [98.7517882, 22.7503289], [98.7502724, 22.7506812], [98.7494713, 22.7511813], [98.7481033, 22.7524996], [98.7482142, 22.7533634], [98.7482512, 22.7540226], [98.748054, 22.7551363], [98.7467723, 22.756341], [98.7462054, 22.7574548], [98.7473146, 22.7582617], [98.7489783, 22.7586253], [98.7524414, 22.7593868], [98.7550049, 22.7608414], [98.7574943, 22.7623074], [98.7583447, 22.7631484], [98.7594162, 22.7639533], [98.7566779, 22.7684154], [98.7560707, 22.7736624], [98.7571766, 22.775421], [98.7559177, 22.7769686], [98.7541837, 22.7770602], [98.7531999, 22.7777028], [98.7522489, 22.7783949], [98.7517172, 22.7791542], [98.7524999, 22.780856], [98.7538608, 22.7822875], [98.7519938, 22.7831534], [98.7523202, 22.7842118], [98.7507972, 22.7846905], [98.7499579, 22.7862874], [98.7498759, 22.7865699], [98.7491502, 22.7890545], [98.7490716, 22.7902014], [98.7484965, 22.7907559], [98.7492864, 22.7918717], [98.7484989, 22.7931222], [98.7488852, 22.7949725], [98.7475481, 22.7954225], [98.7468433, 22.7965551], [98.7480343, 22.7971145], [98.749068, 22.7995755], [98.7482119, 22.8002135], [98.7467278, 22.8002996], [98.7472893, 22.8029685], [98.7453932, 22.8071416], [98.7451382, 22.8084157], [98.7450836, 22.8085203], [98.7390014, 22.8261969], [98.7359602, 22.8374111], [98.7296879, 22.8469147], [98.725913, 22.8506551], [98.7188538, 22.8535671], [98.7174151, 22.8572539], [98.7150662, 22.859357], [98.7105811, 22.867266], [98.7068913, 22.8733314], [98.7018794, 22.8786066], [98.6950239, 22.8812429], [98.6850028, 22.8859913], [98.6741916, 22.8902104], [98.668653, 22.8910005], [98.6624895, 22.891115], [98.662946, 22.8889291], [98.6622718, 22.8862166], [98.661603, 22.8829821], [98.6615334, 22.8822113], [98.6613818, 22.8803763], [98.6612755, 22.8782117], [98.6611617, 22.875894], [98.6611411, 22.8749806], [98.6610986, 22.8730967], [98.6610266, 22.8699081], [98.66099, 22.8682844], [98.6606612, 22.8631764], [98.6606649, 22.8609595], [98.6606651, 22.860571], [98.6601047, 22.8579647], [98.6580829, 22.8524303], [98.6579716, 22.8523268], [98.6575071, 22.8515376], [98.6545351, 22.846472], [98.6513808, 22.8432285], [98.6507709, 22.8425982], [98.6483404, 22.8400861], [98.6475544, 22.8379473], [98.6468829, 22.8349738], [98.64689, 22.8314301], [98.6460479, 22.828092], [98.6433467, 22.8255781], [98.6407303, 22.8239908], [98.6385699, 22.8226801], [98.6324629, 22.8217754], [98.6126131, 22.8199509]]]]}}