{"type": "Feature", "properties": {"core_id": 6473, "public_id": "2dcd844b-ae6e-4550-ac4a-180a2c5175e6", "canonical_name": "\u1014\u102c\u1038\u1000\u1031\u102c\u1004\u103a\u1038\u1019\u103c\u102d\u102f\u1037\u1014\u101a\u103a", "aliases": "en:Narkhauk Township | my:\u1014\u102c\u1038\u1000\u1031\u102c\u1004\u103a\u1038\u1019\u103c\u102d\u102f\u1037\u1014\u101a\u103a | my:\u1014\u102c\u1038\u1000\u1031\u102c\u1004\u103a\u1038\u1019\u103c\u102d\u102f\u1037\u1014\u101a\u103a", "parent_name": "\u1019\u102d\u102f\u1004\u103a\u1038\u101c\u1004\u103a\u1038\u1001\u101b\u102d\u102f\u1004\u103a", "gparent_name": "\u101d\u1015\u103c\u100a\u103a\u1014\u101a\u103a \u1019\u103c\u1031\u102c\u1000\u103a\u1015\u102d\u102f\u1004\u103a\u1038", "overlap_of_source": 0.2034, "overlap_of_core": 0.998, "centroid_dist_m": 19330.4, "child_admins": 0, "settlements": 5, "postal": 0}, "geometry": {"type": "MultiPolygon", "coordinates": [[[[98.5686859, 22.299529], [98.5711381, 22.2805424], [98.5695834, 22.2685262], [98.5695834, 22.249979], [98.578857, 22.2345984], [98.5845116, 22.2289437], [98.5867735, 22.2205749], [98.5929326, 22.2081968], [98.5973768, 22.2046122], [98.5978199, 22.2052045], [98.5996667, 22.2076729], [98.6091774, 22.2100849], [98.6212971, 22.2011971], [98.6354367, 22.1975614], [98.6509672, 22.201309], [98.6572516, 22.2048338], [98.6653313, 22.20443], [98.6911861, 22.2121065], [98.6976498, 22.2104907], [98.7077494, 22.2121069], [98.717849, 22.2112991], [98.7263326, 22.2145313], [98.7311804, 22.2125113], [98.7340084, 22.2084714], [98.7388562, 22.2084715], [98.7590552, 22.2161479], [98.8010696, 22.2133208], [98.8111691, 22.214937], [98.8220768, 22.2096852], [98.8468685, 22.2068089], [98.8446997, 22.2181697], [98.8492377, 22.2213945], [98.8495474, 22.2254418], [98.854799, 22.2327139], [98.8561998, 22.2343902], [98.8572567, 22.2354454], [98.8570438, 22.2355611], [98.8571098, 22.236094], [98.857478, 22.2366632], [98.8568409, 22.237305], [98.8553949, 22.2378898], [98.8545357, 22.2384604], [98.8538258, 22.2394632], [98.8533588, 22.2402413], [98.8530413, 22.24076], [98.8513414, 22.2412268], [98.8511172, 22.2416072], [98.8510238, 22.2422642], [98.8505568, 22.2432325], [98.8503513, 22.243682], [98.8493239, 22.2438376], [98.8490251, 22.2444082], [98.8494173, 22.2451171], [98.8498096, 22.2463446], [98.8507436, 22.248575], [98.850837, 22.2496642], [98.8511172, 22.2506324], [98.8509491, 22.2521365], [98.8500711, 22.2537962], [98.8496228, 22.2553522], [98.8502766, 22.255819], [98.8501272, 22.2564932], [98.8496789, 22.2569773], [98.8492492, 22.2575824], [98.8490251, 22.2580146], [98.8491185, 22.2582566], [98.8492866, 22.2598817], [98.84938, 22.2609881], [98.8496415, 22.2613684], [98.8504821, 22.2618006], [98.8516776, 22.2622847], [98.8524248, 22.2623538], [98.8532094, 22.2631663], [98.8533215, 22.2637541], [98.8533401, 22.2644629], [98.8536577, 22.265189], [98.8543115, 22.2655866], [98.8551334, 22.2661052], [98.8553618, 22.2666501], [98.8545678, 22.2682586], [98.8545571, 22.2687451], [98.8544498, 22.2692316], [98.8541494, 22.2695791], [98.8542996, 22.2698769], [98.8545785, 22.270006], [98.8549862, 22.2702046], [98.8551794, 22.2706216], [98.8550292, 22.2711776], [98.8544283, 22.272369], [98.8544176, 22.2727761], [98.8549433, 22.2735107], [98.8549541, 22.2737987], [98.8546966, 22.2739575], [98.8543747, 22.2737887], [98.8539885, 22.273471], [98.8536237, 22.27362], [98.852937, 22.2742256], [98.8522826, 22.2753574], [98.8524328, 22.2757148], [98.8528297, 22.2759928], [98.8532374, 22.2764892], [98.8534413, 22.277075], [98.8533769, 22.2775416], [98.8531945, 22.2776905], [98.8528941, 22.2778196], [98.8512097, 22.2775416], [98.8509415, 22.2776309], [98.8509629, 22.2779486], [98.8512204, 22.2787329], [98.8512419, 22.2791003], [98.8505445, 22.2799342], [98.8499222, 22.28052], [98.8498579, 22.2808178], [98.8502548, 22.281195], [98.8506947, 22.2816219], [98.8508771, 22.2820389], [98.8517676, 22.282307], [98.8522611, 22.2824956], [98.8523684, 22.2826743], [98.8522826, 22.2829522], [98.85195, 22.2831806], [98.8517247, 22.2836174], [98.851671, 22.2839748], [98.8520895, 22.2842329], [98.8529156, 22.2845605], [98.8535808, 22.2847591], [98.8538919, 22.285176], [98.8540743, 22.2855334], [98.8541065, 22.2864467], [98.8540099, 22.2868438], [98.8543211, 22.2873303], [98.8543318, 22.287638], [98.8539992, 22.2878465], [98.853731, 22.2878564], [98.8529156, 22.2873402], [98.8525293, 22.2869729], [98.8521002, 22.2870523], [98.8516281, 22.2873501], [98.8509737, 22.287509], [98.8508235, 22.2878465], [98.8505552, 22.2884719], [98.8502977, 22.28873], [98.8498149, 22.2901893], [98.8494823, 22.2908842], [98.8496111, 22.2912813], [98.8500081, 22.2914004], [98.8504158, 22.2912019], [98.8514886, 22.2911026], [98.852937, 22.2911721], [98.8530121, 22.2913806], [98.8537202, 22.2911522], [98.8541494, 22.2910331], [98.8545893, 22.2911026], [98.8549111, 22.2912912], [98.8549326, 22.2923931], [98.8549326, 22.2928299], [98.8546, 22.2930681], [98.8537953, 22.2929788], [98.8536022, 22.2932468], [98.8540314, 22.2947954], [98.8544283, 22.2952918], [98.8547502, 22.2955399], [98.8551686, 22.2956293], [98.8555763, 22.2956293], [98.8563381, 22.2959668], [98.8566278, 22.2961653], [98.8566385, 22.2964433], [98.8565741, 22.2969892], [98.8566814, 22.2975352], [98.8570355, 22.2978826], [98.8575612, 22.2980414], [98.8586126, 22.2978528], [98.859149, 22.2984782], [98.8586984, 22.2990242], [98.8580547, 22.2997686], [98.8585911, 22.3015554], [98.8585911, 22.3020815], [98.8582264, 22.3025182], [98.8574002, 22.3027068], [98.8570891, 22.3026374], [98.856499, 22.3023694], [98.8560806, 22.3024091], [98.8554369, 22.3026076], [98.8534413, 22.3024091], [98.8526474, 22.302558], [98.8519178, 22.3038781], [98.8517783, 22.3045035], [98.8520251, 22.3047516], [98.8532267, 22.3054068], [98.8535593, 22.3058832], [98.8535593, 22.3064192], [98.8533876, 22.3068162], [98.8528834, 22.3071239], [98.8524757, 22.3074614], [98.8525401, 22.307789], [98.8529692, 22.3087518], [98.8530336, 22.3091786], [98.8537739, 22.3097146], [98.8539777, 22.3098436], [98.8542245, 22.3101017], [98.8546536, 22.3100223], [98.8551579, 22.3096253], [98.8558124, 22.3095756], [98.8562415, 22.3097245], [98.8564561, 22.3099627], [98.8566492, 22.3099429], [98.85725, 22.3097543], [98.8577221, 22.310062], [98.8577972, 22.3103101], [98.8577006, 22.3108263], [98.8573144, 22.3117096], [98.8572608, 22.312325], [98.8579367, 22.3122953], [98.8580332, 22.3126625], [98.8576148, 22.3131091], [98.8570784, 22.3138337], [98.8571964, 22.3145583], [98.8574861, 22.314856], [98.8582907, 22.3149156], [98.8589881, 22.3147965], [98.8590739, 22.3150744], [98.8592778, 22.3155607], [98.8590632, 22.3160967], [98.8588379, 22.3164639], [98.858913, 22.3166823], [98.8595889, 22.3171091], [98.8601468, 22.3175259], [98.8604472, 22.3179825], [98.8609193, 22.3180619], [98.8610695, 22.31831], [98.8613055, 22.3188261], [98.8612841, 22.319233], [98.8611768, 22.3194018], [98.8608227, 22.3194216], [98.8605438, 22.3193323], [98.8598357, 22.318578], [98.8592992, 22.31831], [98.8592778, 22.3186574], [98.8592563, 22.3193422], [98.8591061, 22.3196598], [98.858795, 22.3197988], [98.858162, 22.3196102], [98.8579045, 22.3197591], [98.8577114, 22.320434], [98.858162, 22.3209401], [98.8585053, 22.3219326], [98.8583229, 22.3223693], [98.8585482, 22.3227564], [98.8590954, 22.3226472], [98.8596104, 22.3222205], [98.8597713, 22.321754], [98.8603936, 22.3215654], [98.8607047, 22.3219525], [98.860576, 22.3222403], [98.8602648, 22.3224487], [98.8600288, 22.3224785], [98.8598035, 22.3228854], [98.8599859, 22.3230839], [98.8601146, 22.3232725], [98.8606833, 22.3232725], [98.8609944, 22.3236], [98.8622819, 22.3238283], [98.8629685, 22.3238382], [98.8631938, 22.3240764], [98.8633333, 22.3244833], [98.8632582, 22.3250192], [98.8623999, 22.3259422], [98.8620565, 22.3264682], [98.8619922, 22.3269446], [98.8622819, 22.3273019], [98.8625715, 22.3275897], [98.8630865, 22.3285127], [98.8634728, 22.3301006], [98.8636981, 22.3309044], [98.865125, 22.3314701], [98.8664661, 22.3316487], [98.8669918, 22.3319266], [98.8670455, 22.3321747], [98.8668738, 22.3324228], [98.866391, 22.3324625], [98.8658438, 22.3325419], [98.8657151, 22.3327205], [98.8656078, 22.3339313], [98.8661442, 22.3350328], [98.8664446, 22.335658], [98.8665412, 22.3361741], [98.8663159, 22.3363924], [98.8659618, 22.3366802], [98.8660799, 22.3370077], [98.8663481, 22.3382184], [98.8669167, 22.33931], [98.8666914, 22.3408878], [98.8666699, 22.3412749], [98.8675712, 22.3423367], [98.8679789, 22.3422275], [98.8691698, 22.3416519], [98.8700495, 22.3410665], [98.8705752, 22.3409176], [98.870586, 22.3413642], [98.870307, 22.3417413], [98.8697813, 22.342158], [98.8695989, 22.3424954], [98.8698135, 22.3430611], [98.8704787, 22.3435076], [98.8712619, 22.3435672], [98.8720129, 22.3433191], [98.8729356, 22.3434282], [98.8734935, 22.3436366], [98.8738905, 22.3438152], [98.8743089, 22.34449], [98.8741587, 22.345393], [98.8738583, 22.3457999], [98.8739763, 22.346048], [98.8744269, 22.3460678], [98.8748024, 22.3462266], [98.8750063, 22.3466731], [98.8748882, 22.3472487], [98.8746093, 22.3474372], [98.8745664, 22.3477944], [98.8747702, 22.3480723], [98.8752745, 22.348102], [98.8757999, 22.347957], [98.8762929, 22.3479007], [98.8764638, 22.3479851], [98.876498, 22.3487334], [98.8766005, 22.3495871], [98.8770564, 22.3498717], [98.8775236, 22.3498084], [98.8781276, 22.3492288], [98.8789025, 22.3493763], [98.8796888, 22.3493552], [98.8798711, 22.3497979], [98.880099, 22.3502195], [98.8801104, 22.3510943], [98.8798825, 22.3517161], [98.8792102, 22.3520007], [98.8788683, 22.352359], [98.8792785, 22.3527911], [98.8797913, 22.353023], [98.8798141, 22.3537291], [98.8796204, 22.3552257], [98.8791532, 22.3555103], [98.8791988, 22.3558264], [98.8797116, 22.3563956], [98.8801902, 22.3566274], [98.8802927, 22.3570384], [98.8796204, 22.3573019], [98.8787087, 22.3570595], [98.878139, 22.3571544], [98.8782529, 22.357734], [98.8786404, 22.358398], [98.8792443, 22.3584612], [98.8799965, 22.358535], [98.8808397, 22.3588617], [98.8819565, 22.3595046], [98.8824009, 22.3599788], [98.8824351, 22.3604215], [98.8828682, 22.3617493], [98.8830961, 22.362076], [98.8830391, 22.3627294], [98.8824237, 22.3635304], [98.8820819, 22.3639203], [98.8820021, 22.3649952], [98.8822756, 22.3662809], [98.8827314, 22.3668605], [98.8829024, 22.3670502], [98.8827998, 22.3673769], [98.8820705, 22.3681251], [98.8815121, 22.3682727], [98.8812158, 22.3679144], [98.8809765, 22.3669975], [98.8804295, 22.3667973], [98.8801218, 22.3669975], [98.8798483, 22.3681568], [98.879723, 22.3683781], [98.8798825, 22.3688101], [98.8803839, 22.3691684], [98.8812158, 22.3692106], [98.881797, 22.3691052], [98.8826061, 22.3692738], [98.8840989, 22.3705805], [98.8847485, 22.3705489], [98.8856943, 22.3703065], [98.8859108, 22.3705068], [98.8862071, 22.3709283], [98.886378, 22.3710126], [98.8869706, 22.3710021], [98.8871188, 22.3712128], [98.8871757, 22.3715816], [98.8871985, 22.3718662], [98.8876544, 22.3721402], [98.8880646, 22.3723509], [98.8885204, 22.3721612], [98.8887142, 22.3713393], [98.889603, 22.3718872], [98.8901842, 22.3723825], [98.8904919, 22.3731518], [98.8907312, 22.3745217], [98.8909933, 22.3749327], [98.8915061, 22.3751751], [98.8921215, 22.3755017], [98.8926229, 22.3760602], [98.8928622, 22.3762288], [98.8935573, 22.3762604], [98.8939334, 22.3763026], [98.8949248, 22.3771351], [98.8954604, 22.3776936], [98.8952325, 22.3778622], [98.8943095, 22.3778516], [98.8938308, 22.3784206], [98.8940929, 22.3787473], [98.8944006, 22.3794533], [98.8951641, 22.3805913], [98.8955516, 22.3811709], [98.8953237, 22.3813079], [98.894902, 22.3812552], [98.8944348, 22.3812341], [98.8935801, 22.3809391], [98.8931015, 22.3810023], [98.8928508, 22.381624], [98.8930559, 22.3819296], [98.8943778, 22.3823616], [98.8958137, 22.3826145], [98.8958707, 22.3827726], [98.8961783, 22.3828885], [98.8963493, 22.3831308], [98.896486, 22.3834364], [98.8964177, 22.383763], [98.8961897, 22.3838579], [98.8956428, 22.384037], [98.8949134, 22.3839738], [98.8942069, 22.384448], [98.8942069, 22.3849432], [98.8943892, 22.3850064], [98.8946399, 22.3849853], [98.8948678, 22.384743], [98.8954148, 22.3847851], [98.8959846, 22.3848062], [98.8963721, 22.3850064], [98.8964405, 22.3856386], [98.8960758, 22.3860601], [98.8957111, 22.3862919], [98.894959, 22.3863973], [98.8931129, 22.3859337], [98.892338, 22.3860706], [98.8923038, 22.386745], [98.8920303, 22.3872613], [98.8916201, 22.3875142], [98.8915517, 22.3869452], [98.8910503, 22.3868609], [98.8906172, 22.3874615], [98.890093, 22.3875247], [98.88917, 22.387472], [98.8889421, 22.387609], [98.88917, 22.3879567], [98.889113, 22.388473], [98.8887484, 22.3887365], [98.888076, 22.388178], [98.8872441, 22.3884836], [98.886435, 22.3890842], [98.8862983, 22.3895794], [98.8868453, 22.3896848], [98.8876316, 22.3898428], [98.8877911, 22.3902221], [98.8879734, 22.3908227], [98.8873467, 22.3910124], [98.8865946, 22.3907595], [98.884908, 22.3907068], [98.8840647, 22.39077], [98.8837912, 22.3910967], [98.8844636, 22.3922662], [98.8853182, 22.393067], [98.8859108, 22.3934041], [98.8865376, 22.3946053], [98.8856601, 22.3951426], [98.8856373, 22.395406], [98.885888, 22.3956484], [98.8861957, 22.3961541], [98.8860932, 22.3966071], [98.8858425, 22.3968811], [98.8849764, 22.397155], [98.8840533, 22.3974079], [98.8833126, 22.3974922], [98.8831075, 22.3978188], [98.883267, 22.3985247], [98.8836887, 22.398609], [98.8842584, 22.3985352], [98.884908, 22.3986195], [98.8862185, 22.3983561], [98.886435, 22.3985352], [98.8866288, 22.3991253], [98.8862641, 22.3993781], [98.8859906, 22.3995678], [98.8857285, 22.3996099], [98.8850903, 22.3999681], [98.8851359, 22.4004106], [98.885341, 22.4007372], [98.8852939, 22.4010401], [98.8856022, 22.4014085], [98.8859706, 22.401471], [98.8864141, 22.4014849], [98.886775, 22.4015266], [98.8869555, 22.4017143], [98.8868502, 22.4019854], [98.8867074, 22.4022495], [98.8867074, 22.4024859], [98.8870532, 22.403174], [98.8872336, 22.4036745], [98.8872637, 22.4041332], [98.8873088, 22.4047032], [98.887166, 22.4053635], [98.887384, 22.4057597], [98.8877148, 22.4060934], [98.8880381, 22.4063714], [98.8883689, 22.4064548], [98.8885042, 22.4066772], [98.8885719, 22.4070178], [98.8889102, 22.4075252], [98.8890456, 22.4078102], [98.8888426, 22.407838], [98.8885268, 22.4077893], [98.8881734, 22.4078171], [98.8880456, 22.4079214], [98.8879554, 22.4086582], [98.8879855, 22.4090891], [98.8881133, 22.409388], [98.8883915, 22.4098884], [98.8885569, 22.4102846], [98.8885418, 22.4105001], [98.8883539, 22.4107225], [98.887993, 22.4106391], [98.8875269, 22.4104375], [98.8872938, 22.4106043], [98.8869855, 22.4108823], [98.8867901, 22.4113063], [98.886572, 22.4119944], [98.8865645, 22.4125852], [98.8867525, 22.4131343], [98.8870532, 22.4133289], [98.8868878, 22.4135374], [98.8867149, 22.4136], [98.8865495, 22.4140448], [98.8864893, 22.4145661], [98.8864442, 22.4147815], [98.8865194, 22.4149761], [98.8866923, 22.4152264], [98.8867299, 22.415421], [98.8866698, 22.4156017], [98.8864743, 22.4160882], [98.886151, 22.4164218], [98.8861209, 22.4166234], [98.8862337, 22.4168944], [98.8865044, 22.417367], [98.8864818, 22.4178535], [98.8867901, 22.4182775], [98.8874817, 22.4183401], [98.887775, 22.4184582], [98.8877975, 22.418764], [98.8875569, 22.4193131], [98.8875043, 22.419876], [98.8870382, 22.4200637], [98.8864217, 22.4201401], [98.8861059, 22.4202791], [98.8860984, 22.4206475], [98.8856924, 22.4213633], [98.8848729, 22.421829], [98.8849556, 22.4221556], [98.8852488, 22.4222251], [98.88576, 22.4223294], [98.8860006, 22.4225587], [98.8877148, 22.4238931], [98.8883764, 22.4243588], [98.8889629, 22.4245256], [98.8888726, 22.4247549], [98.8886245, 22.4250885], [98.8879554, 22.4253387], [98.8877299, 22.425853], [98.8872336, 22.4260893], [98.8860082, 22.4266591], [98.8856999, 22.4268468], [98.8856999, 22.4270831], [98.8859706, 22.4271943], [98.8868803, 22.4269441], [98.8872712, 22.4269649], [98.8875269, 22.4271873], [98.8876622, 22.4274723], [98.8873615, 22.4277224], [98.8871585, 22.4278475], [98.8867525, 22.4279379], [98.8867074, 22.4280977], [98.8864442, 22.4285425], [98.8866998, 22.4286745], [98.8867299, 22.4291332], [98.8864442, 22.4295502], [98.886136, 22.4297309], [98.8857074, 22.4292722], [98.8853465, 22.4289039], [98.8849405, 22.428341], [98.8844819, 22.4281255], [98.8837301, 22.4284244], [98.883482, 22.4287232], [98.8834068, 22.4290429], [98.8840534, 22.4292583], [98.8842413, 22.4294738], [98.8841511, 22.4296614], [98.8838053, 22.4297795], [98.8835121, 22.4300506], [98.8835797, 22.430266], [98.8838579, 22.4304119], [98.8840609, 22.430544], [98.8846022, 22.4306413], [98.8847075, 22.4309401], [98.8846097, 22.4311347], [98.8843842, 22.4312806], [98.884121, 22.4314613], [98.8833692, 22.4316907], [98.8826399, 22.4319061], [98.8818054, 22.4315169], [98.8813618, 22.4315725], [98.8812265, 22.4318366], [98.881422, 22.4319408], [98.8819633, 22.4321354], [98.882061, 22.4323092], [98.8820836, 22.4324829], [98.8817904, 22.4325941], [98.8813242, 22.4327539], [98.8796777, 22.4327053], [98.8797002, 22.4330388], [98.8799183, 22.4331709], [98.8802792, 22.4332404], [98.8812791, 22.4333933], [98.8817152, 22.4334072], [98.8819182, 22.4334906], [98.8819407, 22.4340187], [98.8818731, 22.435353], [98.8817001, 22.4365344], [98.8813693, 22.4373683], [98.8811287, 22.4380562], [98.8804446, 22.4392376], [98.8796251, 22.4398213], [98.8791589, 22.4404537], [98.8785875, 22.4413362], [98.8785575, 22.4419964], [98.8786778, 22.4425523], [98.8786552, 22.442865], [98.8784748, 22.4429901], [98.8782417, 22.4430456], [98.8780838, 22.4429067], [98.8780086, 22.4427329], [98.8777981, 22.4427955], [98.8777981, 22.4429553], [98.8777229, 22.4437197], [98.8775726, 22.4440115], [98.8773545, 22.4441019], [98.8766403, 22.4441714], [98.876129, 22.4444215], [98.8757907, 22.4455472], [98.8754148, 22.4458877], [98.8751592, 22.445992], [98.87449, 22.4457279], [98.8743171, 22.4455542], [98.874272, 22.4453249], [98.874663, 22.444491], [98.8745276, 22.4443729], [98.87446, 22.444359], [98.8736931, 22.4445466], [98.8728435, 22.4448662], [98.87243, 22.4448662], [98.8720842, 22.4444493], [98.8717609, 22.4442617], [98.8714676, 22.4444563], [98.8714902, 22.4449496], [98.8714601, 22.4451442], [98.8712797, 22.445165], [98.8708211, 22.4450261], [98.8704076, 22.4451859], [98.8699489, 22.4451928], [98.8699264, 22.4454291], [98.8698286, 22.445714], [98.8694753, 22.4462977], [98.8688287, 22.4467563], [98.8678438, 22.446805], [98.8674378, 22.4466521], [98.866919, 22.4466729], [98.8661898, 22.4471246], [98.8656635, 22.4474512], [98.8654605, 22.4477569], [98.8656033, 22.4480071], [98.8657612, 22.4481461], [98.8659717, 22.4482433], [98.8661672, 22.4482642], [98.866483, 22.448021], [98.8666785, 22.4480696], [98.8668664, 22.4482155], [98.8671371, 22.4486811], [98.8671822, 22.4491467], [98.8667837, 22.4494107], [98.8664529, 22.4494038], [98.8660018, 22.4492509], [98.865671, 22.4490285], [98.8652199, 22.448834], [98.8648365, 22.4488201], [98.8647913, 22.4490355], [98.8648365, 22.4493899], [98.8651597, 22.4497512], [98.86525, 22.449911], [98.8651222, 22.4501195], [98.865047, 22.4504043], [98.8647838, 22.4505642], [98.8644605, 22.4507031], [98.8643778, 22.4509394], [98.8645207, 22.4512034], [98.8647688, 22.4513077], [98.864859, 22.4514814], [98.8646861, 22.4521067], [98.8639643, 22.4531629], [98.8634005, 22.4540662], [98.8632726, 22.4544761], [98.8634606, 22.4546985], [98.8634606, 22.455039], [98.8630095, 22.4554211], [98.8621449, 22.4558727], [98.8619419, 22.4560256], [98.8619644, 22.4562549], [98.8622802, 22.4565954], [98.8624607, 22.4567969], [98.8625058, 22.4573527], [98.8628441, 22.4575334], [98.8632726, 22.4575195], [98.8636711, 22.4577279], [98.8639944, 22.4580058], [98.8642425, 22.458381], [98.8642801, 22.458652], [98.8641824, 22.4588049], [98.863829, 22.4587007], [98.8634982, 22.4584088], [98.8632275, 22.4586173], [98.8627163, 22.458784], [98.861972, 22.4591523], [98.8615885, 22.4593538], [98.8615434, 22.4599027], [98.8618291, 22.4602292], [98.8619344, 22.4604307], [98.8621825, 22.4608476], [98.8624306, 22.4611325], [98.8624607, 22.4613409], [98.8620923, 22.4615563], [98.8614081, 22.4620427], [98.8612201, 22.4618829], [98.8607239, 22.4616188], [98.8607465, 22.4619732], [98.8600623, 22.4624248], [98.8596713, 22.4626263], [98.8596262, 22.4628556], [98.8598894, 22.4630918], [98.8602427, 22.4633558], [98.8604683, 22.4637658], [98.8606713, 22.4641409], [98.8607314, 22.4644883], [98.8610246, 22.4647732], [98.8611901, 22.4649747], [98.8611449, 22.4655652], [98.8607314, 22.4656556], [98.8601901, 22.4656], [98.8598819, 22.4654124], [98.8593029, 22.4649538], [98.8591, 22.4651553], [98.8589421, 22.4656834], [98.8588518, 22.4657806], [98.8585436, 22.465732], [98.8583256, 22.4654332], [98.8578594, 22.4650858], [98.8575286, 22.4651623], [98.8573106, 22.4653846], [98.8570023, 22.4653707], [98.8567768, 22.4650442], [98.856664, 22.4646968], [98.8562806, 22.4645648], [98.855852, 22.464794], [98.8556791, 22.4650233], [98.8557092, 22.4654332], [98.8557317, 22.4658362], [98.8558595, 22.4661489], [98.8556791, 22.4664129], [98.8554911, 22.466656], [98.8552881, 22.4666283], [98.8549197, 22.4667047], [98.8546566, 22.4669965], [98.8546942, 22.4673717], [98.8547619, 22.467719], [98.8546115, 22.4680317], [98.8542882, 22.4682749], [98.8540326, 22.468518], [98.8537544, 22.4687681], [98.8534837, 22.4688376], [98.8533785, 22.469053], [98.8534988, 22.4691433], [98.8536416, 22.4692058], [98.8538296, 22.4694351], [98.8536491, 22.4696296], [98.8532507, 22.4699631], [98.8528522, 22.4701299], [98.8520101, 22.4701299], [98.8514162, 22.469845], [98.8512433, 22.4692962], [98.8510403, 22.4692406], [98.8506192, 22.4694004], [98.8503486, 22.4694004], [98.8498524, 22.4694073], [98.8499877, 22.4690738], [98.849702, 22.468921], [98.8494163, 22.4689418], [98.8490554, 22.4691989], [98.8489953, 22.4694351], [98.8492885, 22.4695671], [98.8496043, 22.469713], [98.849905, 22.4698659], [98.849905, 22.470637], [98.8495892, 22.4708663], [98.8493486, 22.4709358], [98.849296, 22.4706926], [98.8490554, 22.4705189], [98.8486043, 22.4706996], [98.8482209, 22.4706579], [98.8480404, 22.4703661], [98.8479803, 22.4698103], [98.8482059, 22.4689418], [98.8479878, 22.4687403], [98.8476345, 22.4688654], [98.8474164, 22.4688585], [98.8470856, 22.4687056], [98.8466496, 22.468393], [98.8461759, 22.4684485], [98.8456722, 22.4684972], [98.8455068, 22.4683652], [98.8454165, 22.4680664], [98.845191, 22.4674689], [98.8447399, 22.4675453], [98.8445895, 22.4677121], [98.8446873, 22.46799], [98.8448301, 22.4684485], [98.8444542, 22.4686083], [98.8440106, 22.468657], [98.8436798, 22.468518], [98.8435971, 22.4681567], [98.84377, 22.46799], [98.8440708, 22.4676426], [98.8438527, 22.4673856], [98.8434016, 22.4673786], [98.843161, 22.4671771], [98.8428904, 22.4672188], [98.8428377, 22.4674689], [98.8423039, 22.4676496], [98.8414995, 22.4678372], [98.8411837, 22.4676635], [98.8409206, 22.4673439], [98.8403191, 22.4669548], [98.8399507, 22.4670104], [98.8387778, 22.4667325], [98.8381538, 22.4666421], [98.8378606, 22.4667603], [98.8376801, 22.467059], [98.8373644, 22.467066], [98.8371238, 22.4665032], [98.8373644, 22.4658362], [98.8372441, 22.4653707], [98.8368005, 22.4652248], [98.8359133, 22.4652873], [98.8355675, 22.4652318], [98.8354923, 22.4649816], [98.8355825, 22.4647385], [98.8359209, 22.4647385], [98.8362517, 22.4647801], [98.8364171, 22.4647801], [98.8368682, 22.4645648], [98.8370561, 22.4643563], [98.8368381, 22.4634601], [98.8364697, 22.4633141], [98.8361464, 22.4633211], [98.8359885, 22.4632586], [98.8360487, 22.4629529], [98.83556, 22.4627375], [98.8354096, 22.4626471], [98.8348608, 22.462265], [98.8344623, 22.4621816], [98.8342142, 22.4621677], [98.8340262, 22.4621608], [98.8338082, 22.4620079], [98.8337255, 22.4617439], [98.8338383, 22.4615563], [98.8340187, 22.461459], [98.8340037, 22.4612645], [98.8338683, 22.4610005], [98.8343495, 22.4604446], [98.834154, 22.4601945], [98.8338909, 22.4600833], [98.8333646, 22.4600694], [98.8327406, 22.4604863], [98.8322745, 22.4608337], [98.8321767, 22.4612298], [98.8321015, 22.4614174], [98.8318459, 22.4613757], [98.8315828, 22.4612089], [98.8314399, 22.4608059], [98.8316128, 22.4605489], [98.8319286, 22.4601181], [98.8319361, 22.4598679], [98.8321015, 22.45959], [98.8320564, 22.4592635], [98.831673, 22.4591314], [98.8313572, 22.4590828], [98.8311843, 22.45893], [98.8307783, 22.4576723], [98.8308309, 22.4569775], [98.8307858, 22.4566023], [98.8306279, 22.4563383], [98.8300265, 22.455977], [98.8300039, 22.4554281], [98.830267, 22.4551849], [98.830267, 22.4549139], [98.8298911, 22.4545804], [98.8295227, 22.4545873], [98.8292446, 22.4548791], [98.8289814, 22.4551293], [98.828613, 22.4549903], [98.8282822, 22.4550112], [98.8280792, 22.4553586], [98.8281544, 22.4556712], [98.8279664, 22.4557963], [98.8277785, 22.4557477], [98.827598, 22.4555531], [98.8275905, 22.4551432], [98.8272672, 22.455032], [98.8270266, 22.4548652], [98.8270717, 22.4545456], [98.8272296, 22.4538855], [98.827583, 22.4536562], [98.8275604, 22.4534547], [98.8272898, 22.4533019], [98.8269439, 22.4532741], [98.8262071, 22.4533991], [98.8258463, 22.4533922], [98.8255079, 22.4532463], [98.8256583, 22.4526557], [98.8257786, 22.4523708], [98.8258387, 22.452072], [98.825756, 22.4517107], [98.8254854, 22.4513841], [98.8251846, 22.4512799], [98.8244478, 22.4513563], [98.8241697, 22.4511756], [98.8241772, 22.4509672], [98.8240945, 22.4504182], [98.8232073, 22.4493134], [98.8225382, 22.4485074], [98.8221191, 22.4477701], [98.8218943, 22.4472198], [98.8216877, 22.4466695], [98.8214569, 22.4465628], [98.8209344, 22.4465011], [98.8204813, 22.4465761], [98.8203433, 22.4465989], [98.8217264, 22.4444943], [98.822433, 22.4430997], [98.8226206, 22.4425012], [98.8217225, 22.4419353], [98.8217021, 22.4407279], [98.8219878, 22.4398884], [98.82259, 22.4394733], [98.82309, 22.4386338], [98.8228553, 22.4370114], [98.8230798, 22.4360492], [98.8233452, 22.4352003], [98.8243659, 22.4345576], [98.8250929, 22.4329093], [98.8250794, 22.4318061], [98.8248129, 22.4312888], [98.8241021, 22.431026], [98.8251949, 22.4286527], [98.8256124, 22.4277247], [98.8255147, 22.4270677], [98.8245019, 22.4270266], [98.8231426, 22.4258194], [98.8213657, 22.4254662], [98.8200686, 22.4249324], [98.8193579, 22.4241605], [98.8188426, 22.4231421], [98.817732, 22.4231092], [98.8161595, 22.4231996], [98.8154221, 22.4233392], [98.8145514, 22.4230682], [98.8135386, 22.4234377], [98.8115929, 22.4232242], [98.8095051, 22.4229614], [98.8081813, 22.4226247], [98.8077371, 22.4224604], [98.8071508, 22.4212778], [98.8069819, 22.4206783], [98.8065466, 22.4201527], [98.8055693, 22.4198242], [98.803979, 22.4194956], [98.8031794, 22.4195449], [98.8017313, 22.419586], [98.7990127, 22.4180091], [98.7974846, 22.4167032], [98.7971647, 22.4154549], [98.7958054, 22.4110444], [98.7952901, 22.4103791], [98.794535, 22.4097056], [98.7937709, 22.4083586], [98.7940463, 22.406453], [98.7942151, 22.4050403], [98.7930335, 22.4033072], [98.7900128, 22.4001038], [98.787543, 22.3985431], [98.7850198, 22.3968263], [98.7789962, 22.3941649], [98.7775214, 22.3936146], [98.7756912, 22.3945017], [98.7730437, 22.3952821], [98.7696243, 22.3962516], [98.7663842, 22.3964302], [98.7544108, 22.3939503], [98.752769, 22.3935311], [98.7522755, 22.3939336], [98.7524582, 22.3944066], [98.7520076, 22.3953192], [98.7512566, 22.3957953], [98.7507201, 22.3956366], [98.7506987, 22.3949224], [98.7506772, 22.3935138], [98.7496043, 22.3943669], [98.749228, 22.3950747], [98.7495614, 22.3956961], [98.7492825, 22.3958945], [98.7486817, 22.3955176], [98.7483383, 22.3963508], [98.747995, 22.3966087], [98.7473298, 22.3966881], [98.7469221, 22.3959937], [98.746214, 22.3955572], [98.7448836, 22.3956366], [98.7441326, 22.3960731], [98.7433816, 22.3962715], [98.7428881, 22.3980768], [98.7421585, 22.3991481], [98.7410856, 22.4009137], [98.7396265, 22.4018263], [98.7376953, 22.4023223], [98.7370301, 22.402719], [98.7355066, 22.4021834], [98.7349487, 22.4022032], [98.7347985, 22.4027785], [98.7342192, 22.4030761], [98.733554, 22.4033142], [98.7324167, 22.4030563], [98.7320734, 22.4034729], [98.7318159, 22.4038101], [98.7310864, 22.4039688], [98.7300425, 22.4039884], [98.7299418, 22.4038706], [98.7295788, 22.4038442], [98.7292513, 22.4037982], [98.7288313, 22.4038047], [98.7285251, 22.4035875], [98.7282368, 22.4034888], [98.7276127, 22.4035446], [98.7269182, 22.4035586], [98.72643, 22.4036098], [98.7255845, 22.4035074], [98.7250963, 22.4033585], [98.724588, 22.4030096], [98.7235613, 22.4025349], [98.7231184, 22.4024419], [98.7223937, 22.4027816], [98.7221873, 22.4028002], [98.7219558, 22.4027118], [98.7216488, 22.402614], [98.7213619, 22.4024233], [98.7210398, 22.4019301], [98.7207832, 22.4015485], [98.7203, 22.4012321], [98.7200031, 22.4011623], [98.7194746, 22.4011716], [98.7190317, 22.4010646], [98.7185637, 22.4010134], [98.7183372, 22.4009436], [98.7180604, 22.4007761], [98.7177987, 22.4004783], [98.7173759, 22.4002317], [98.7172098, 22.3999199], [98.71723, 22.3997059], [98.7174242, 22.399461], [98.7174946, 22.3991212], [98.717696, 22.3985348], [98.7177363, 22.3982184], [98.7176456, 22.3979065], [98.7172631, 22.3975389], [98.7169309, 22.3974086], [98.7165382, 22.3971759], [98.7160751, 22.3967012], [98.7157832, 22.3962171], [98.7156473, 22.3959239], [98.7155265, 22.3955283], [98.7154912, 22.3952491], [98.715461, 22.3949559], [98.7152899, 22.3948488], [98.7148519, 22.3945836], [98.7147261, 22.3942438], [98.7145197, 22.3941275], [98.7143435, 22.3942159], [98.713966, 22.3944905], [98.7137798, 22.3946999], [98.7134425, 22.3947185], [98.713065, 22.3949652], [98.7126874, 22.3957052], [98.7126421, 22.3961101], [98.7124156, 22.3961892], [98.7119374, 22.3961473], [98.7110162, 22.3959193], [98.7106437, 22.3957238], [98.710382, 22.3954678], [98.7103166, 22.3949931], [98.7101051, 22.3945696], [98.7097679, 22.3942717], [98.7094659, 22.3941554], [98.7087561, 22.39416], [98.7081621, 22.3941182], [98.7077141, 22.3942578], [98.7073014, 22.3946022], [98.7068383, 22.394928], [98.7064758, 22.3953515], [98.7063248, 22.395547], [98.7061889, 22.395547], [98.7059775, 22.3953841], [98.7058265, 22.39517], [98.7057963, 22.3949699], [98.7057912, 22.3947604], [98.7056402, 22.3943322], [98.7055396, 22.3942392], [98.705464, 22.3942624], [98.7053332, 22.3945277], [98.7047342, 22.39517], [98.7046637, 22.3954166], [98.704714, 22.3956121], [98.7052677, 22.3963149], [98.7052023, 22.3964638], [98.7049758, 22.3965941], [98.7041402, 22.3964173], [98.7038885, 22.3964685], [98.7034053, 22.3967477], [98.7029019, 22.3967803], [98.7024136, 22.3966127], [98.7020663, 22.3963195], [98.7012005, 22.3960031], [98.7005813, 22.3958122], [98.6998917, 22.395426], [98.6996803, 22.3954911], [98.6995444, 22.3956819], [98.6993883, 22.3962358], [98.6992071, 22.396743], [98.6988296, 22.3969246], [98.6985829, 22.3967896], [98.6977927, 22.396017], [98.6962825, 22.3953329], [98.6958194, 22.3950629], [98.6955325, 22.3951234], [98.6949989, 22.3956819], [98.6945006, 22.3957192], [98.6942137, 22.3956121], [98.6934788, 22.3955423], [98.692618, 22.3952956], [98.6923864, 22.3950816], [98.6919435, 22.3942904], [98.6910173, 22.3940995], [98.6907756, 22.3942299], [98.6903629, 22.3949931], [98.6898847, 22.395049], [98.6893561, 22.3938436], [98.6891548, 22.3936388], [98.688883, 22.3936434], [98.6882739, 22.394188], [98.6879467, 22.3943648], [98.6877353, 22.394309], [98.687544, 22.3941088], [98.687544, 22.3938017], [98.6876447, 22.3932478], [98.6875289, 22.3928941], [98.6871866, 22.3928336], [98.6868846, 22.3929174], [98.6867285, 22.3931408], [98.6864869, 22.3937644], [98.6863661, 22.3938761], [98.6861597, 22.3937924], [98.6857872, 22.3933409], [98.6854097, 22.3929593], [98.6850422, 22.3923682], [98.6849365, 22.3919121], [98.6846395, 22.3918004], [98.6840053, 22.3919819], [98.6830892, 22.3921913], [98.6823693, 22.3926288], [98.6819868, 22.3929267], [98.6816747, 22.3929779], [98.6813374, 22.3927126], [98.6808542, 22.3925218], [98.68023, 22.3921076], [98.6800538, 22.3917445], [98.6799481, 22.3911255], [98.6800186, 22.3907392], [98.6801746, 22.3904321], [98.6804616, 22.3903343], [98.6811411, 22.3902785], [98.6813827, 22.3900132], [98.6815086, 22.389585], [98.6813374, 22.3890963], [98.6809549, 22.3888263], [98.6807837, 22.3883795], [98.6806126, 22.387956], [98.6804867, 22.3879234], [98.6802803, 22.3879932], [98.6799834, 22.3882818], [98.6795907, 22.3883795], [98.6792031, 22.3882259], [98.6790622, 22.3880258], [98.6789414, 22.3875976], [98.6783826, 22.3871554], [98.6777836, 22.3871601], [98.6771846, 22.3870065], [98.6769128, 22.3866016], [98.6767618, 22.3859453], [98.6765151, 22.3860198], [98.6758708, 22.385815], [98.6755383, 22.3856816], [98.6750752, 22.3853884], [98.6746927, 22.3853511], [98.674431, 22.3854675], [98.6739478, 22.3859887], [98.6735703, 22.3860492], [98.6733086, 22.3860073], [98.6720905, 22.3851882], [98.6712097, 22.3847647], [98.6706409, 22.3846251], [98.6702786, 22.3846437], [98.6701628, 22.3847322], [98.6698658, 22.3851882], [98.6689145, 22.3857281], [98.6686428, 22.3857746], [98.6680186, 22.3856583], [98.6676562, 22.3855326], [98.6674448, 22.3856397], [98.667017, 22.3861702], [98.6667402, 22.386361], [98.6663124, 22.3864448], [98.6658292, 22.3864541], [98.6655976, 22.3865705], [98.6649987, 22.3870824], [98.6646011, 22.3871429], [98.6639216, 22.3870312], [98.6624317, 22.3869102], [98.6612942, 22.3870359], [98.6606198, 22.3875431], [98.6601416, 22.3880923], [98.6599906, 22.3884041], [98.6594873, 22.3884553], [98.6590645, 22.3882738], [98.6587977, 22.3879759], [98.6584202, 22.3871289], [98.6580931, 22.3868357], [98.6570965, 22.3869567], [98.657026, 22.3870824], [98.6572827, 22.3873942], [98.6576954, 22.3875757], [98.6582491, 22.3878224], [98.6585763, 22.3883622], [98.6587826, 22.3887485], [98.6586216, 22.3889858], [98.6582894, 22.3890929], [98.6575545, 22.3889532], [98.6572777, 22.3890556], [98.657318, 22.3892651], [98.6575797, 22.3898794], [98.6574941, 22.3902098], [98.6572576, 22.390368], [98.6569254, 22.390247], [98.6567895, 22.3903959], [98.6565831, 22.3909451], [98.6563616, 22.3912476], [98.656115, 22.3914849], [98.6560982, 22.3922501], [98.6560949, 22.3924017], [98.6557073, 22.3928717], [98.6554406, 22.3930206], [98.6550681, 22.3929834], [98.6543383, 22.3927507], [98.6532511, 22.3926204], [98.6525917, 22.3924436], [98.6523904, 22.3926204], [98.6521136, 22.3931184], [98.6520935, 22.3935093], [98.6521136, 22.393849], [98.6523501, 22.393956], [98.652788, 22.3939421], [98.6533618, 22.3939793], [98.6534323, 22.3941329], [98.6531706, 22.3945331], [98.6526874, 22.3948821], [98.6522495, 22.3953475], [98.652023, 22.3955476], [98.6518921, 22.3960967], [98.6517311, 22.3967854], [98.6515599, 22.3969669], [98.6510113, 22.3970135], [98.65006, 22.3964969], [98.649597, 22.3959385], [98.6494963, 22.3955662], [98.6497077, 22.3949938], [98.6496876, 22.3947425], [98.6496322, 22.3943655], [98.6496423, 22.3941515], [98.6497782, 22.3940444], [98.6502563, 22.394319], [98.650513, 22.3947239], [98.6506791, 22.3947471], [98.6509056, 22.3946168], [98.651117, 22.394212], [98.6510465, 22.393742], [98.6506992, 22.3933045], [98.650367, 22.3930718], [98.6501003, 22.3929974], [98.6497379, 22.3932068], [98.6496825, 22.3935884], [98.6493805, 22.3936908], [98.6486759, 22.3933371], [98.648082, 22.3930858], [98.6476894, 22.3932161], [98.6474125, 22.3938118], [98.6472263, 22.3938955], [98.647035, 22.3937513], [98.64703, 22.393486], [98.6473572, 22.3928671], [98.6473068, 22.3925041], [98.6471005, 22.3923645], [98.6466978, 22.3924017], [98.6461039, 22.3928112], [98.6458573, 22.39276], [98.6456912, 22.3919782], [98.6449462, 22.3913267], [98.6448405, 22.3909683], [98.6447852, 22.3901632], [98.644604, 22.3897025], [98.6441107, 22.3894605], [98.643844, 22.3895536], [98.6436326, 22.3898142], [98.6430839, 22.3906193], [98.6428071, 22.3910428], [98.6426561, 22.3916757], [98.6422887, 22.3918526], [98.6413877, 22.3919689], [98.6410002, 22.3919363], [98.6407284, 22.3917734], [98.6408492, 22.3915175], [98.6413525, 22.391215], [98.6414481, 22.3908939], [98.6412116, 22.390717], [98.6403509, 22.3908613], [98.6397972, 22.3910335], [98.6393493, 22.3913453], [98.6387122, 22.3920101], [98.6381142, 22.3923194], [98.6376444, 22.392405], [98.6374237, 22.3925563], [98.6373383, 22.3927999], [98.6374095, 22.3930302], [98.6377266, 22.3934557], [98.6376209, 22.393693], [98.6372736, 22.3937815], [98.636735, 22.3936698], [98.6363222, 22.3934231], [98.6361259, 22.3929996], [98.6361008, 22.3926971], [98.6364783, 22.3920734], [98.6364783, 22.3918547], [98.6362971, 22.3916499], [98.6354112, 22.391259], [98.6351192, 22.3912729], [98.6349783, 22.3914544], [98.6349078, 22.3918547], [98.6350034, 22.3922363], [98.6351393, 22.3925109], [98.6350739, 22.3926505], [98.6347216, 22.3929484], [98.6341075, 22.3930601], [98.6338004, 22.3929065], [98.6336192, 22.39259], [98.6336444, 22.392241], [98.6338155, 22.3919245], [98.6343273, 22.3915225], [98.6343843, 22.3914777], [98.6347417, 22.3909006], [98.6347417, 22.390505], [98.6346108, 22.3902397], [98.634339, 22.3901048], [98.6337299, 22.3901467], [98.6332719, 22.3903561], [98.6325169, 22.3911752], [98.6322501, 22.3912916], [98.6320487, 22.3912683], [98.6318776, 22.3910868], [98.6319783, 22.3907377], [98.6317618, 22.3900582], [98.6319179, 22.3894858], [98.6321041, 22.389281], [98.6325538, 22.3892837], [98.6329766, 22.3891302], [98.6335404, 22.3885856], [98.6335202, 22.3882366], [98.6332232, 22.3878689], [98.6325588, 22.387478], [98.6311243, 22.3874454], [98.6304196, 22.3873244], [98.6299767, 22.387222], [98.6291965, 22.3871615], [98.6285824, 22.3869055], [98.6282854, 22.3866449], [98.6281243, 22.3863424], [98.6279884, 22.3857373], [98.6279935, 22.3851183], [98.6278274, 22.3849787], [98.6275807, 22.3850159], [98.6272888, 22.3849601], [98.6269515, 22.3849042], [98.6259851, 22.3844435], [98.6251445, 22.3838198], [98.6247721, 22.3833311], [98.6245204, 22.3833172], [98.6239315, 22.3840339], [98.6234382, 22.3847134], [98.6230154, 22.3852626], [98.6227385, 22.3853603], [98.6224869, 22.3852719], [98.6224214, 22.3849973], [98.6225171, 22.3843876], [98.6224114, 22.3841642], [98.6220288, 22.3842806], [98.6211933, 22.3846901], [98.6207604, 22.3852114], [98.6204936, 22.3854069], [98.6198594, 22.3860678], [98.6194315, 22.3862493], [98.6190742, 22.3863749], [98.6188426, 22.3866449], [98.6184249, 22.387101], [98.6178762, 22.387115], [98.617096, 22.3868264], [98.6165323, 22.386468], [98.6160893, 22.3859887], [98.6159887, 22.3850997], [98.6154205, 22.3848055], [98.615212, 22.3847916], [98.6146858, 22.3847916], [98.6140741, 22.3825093], [98.6091658, 22.3766427], [98.6039636, 22.3725714], [98.5939574, 22.3667842], [98.5927212, 22.3639623], [98.5926371, 22.3634433], [98.5922143, 22.3608343], [98.5924465, 22.3571874], [98.5924512, 22.3531466], [98.5924545, 22.3515603], [98.5923472, 22.3487452], [98.5913864, 22.3470743], [98.5901663, 22.3455123], [98.5888536, 22.3438318], [98.5876639, 22.3425157], [98.5860956, 22.3406923], [98.584184, 22.337766], [98.583399, 22.3338024], [98.5818839, 22.3293131], [98.5808728, 22.3265975], [98.5799731, 22.3239881], [98.5799738, 22.3235981], [98.5781784, 22.3176084], [98.5831545, 22.3103704], [98.5836758, 22.3086693], [98.5827273, 22.3052059], [98.5714513, 22.3030079], [98.5698111, 22.3020824], [98.5686859, 22.299529]]]]}}