{"type": "Feature", "properties": {"core_id": 6328, "public_id": "ba250acb-fbe6-497e-bc19-4cf6389882b5", "canonical_name": "\u1019\u1000\u103a\u1019\u1014\u103a\u1038", "aliases": "en:Matman | en:Metman Township | my:\u1019\u1000\u103a\u1019\u1014\u103a\u1038 | my:\u1019\u1000\u103a\u1019\u1014\u103a\u1038\u1019\u103c\u102d\u102f\u1037\u1014\u101a\u103a | my:\u1019\u1000\u103a\u1019\u1014\u103a\u1038\u1019\u103c\u102d\u102f\u1037\u1014\u101a\u103a", "parent_name": "\u1019\u1000\u103a\u1019\u1014\u103a\u1038\u1001\u101b\u102d\u102f\u1004\u103a", "gparent_name": "\u101b\u103e\u1019\u103a\u1038\u1015\u103c\u100a\u103a\u1014\u101a\u103a", "overlap_of_source": 0.0002, "overlap_of_core": 0.0002, "centroid_dist_m": 64437.8, "child_admins": 0, "settlements": 74, "postal": 0}, "geometry": {"type": "MultiPolygon", "coordinates": [[[[98.5419439, 21.8579003], [98.5419479, 21.8518962], [98.543123, 21.8477362], [98.5478225, 21.8364847], [98.5489254, 21.8293897], [98.5477656, 21.8134283], [98.5495321, 21.8018319], [98.5524002, 21.7914639], [98.5626618, 21.7891556], [98.5674861, 21.7757179], [98.5722098, 21.7625594], [98.5687081, 21.7405874], [98.5785541, 21.7171418], [98.5883505, 21.7039051], [98.6039105, 21.687139], [98.6055315, 21.6797043], [98.6106735, 21.6701565], [98.6137525, 21.6684549], [98.6271148, 21.6445902], [98.6291791, 21.6318357], [98.6363772, 21.6209963], [98.6369719, 21.614721], [98.6444602, 21.6057225], [98.6437322, 21.5981502], [98.6340614, 21.5675751], [98.6336205, 21.5666777], [98.6272358, 21.5519295], [98.6271517, 21.5517367], [98.6270352, 21.5514008], [98.6268899, 21.5512636], [98.6285072, 21.5456713], [98.6318175, 21.5433208], [98.6334932, 21.5421309], [98.6373043, 21.5413149], [98.6434647, 21.5383202], [98.647421, 21.5381869], [98.6522616, 21.5353261], [98.6583386, 21.5335518], [98.6691875, 21.5321978], [98.6801888, 21.5238859], [98.683119, 21.523344], [98.686346, 21.5218483], [98.6897181, 21.5214406], [98.701158, 21.5154511], [98.708563, 21.5141005], [98.7113617, 21.5142012], [98.7239397, 21.5146537], [98.7265794, 21.5135632], [98.7393357, 21.5115297], [98.7428532, 21.5111251], [98.751505, 21.5079936], [98.7545869, 21.5058151], [98.764174, 21.5017414], [98.7717742, 21.502326], [98.7778396, 21.5031664], [98.7863897, 21.5000971], [98.7927475, 21.4994394], [98.8023938, 21.4950548], [98.8044943, 21.4947806], [98.8146709, 21.4930817], [98.8165422, 21.4922011], [98.8216415, 21.4898014], [98.8229647, 21.4891788], [98.8295788, 21.4860662], [98.8530368, 21.4829969], [98.8572023, 21.4845315], [98.8633408, 21.4829969], [98.8751795, 21.4847508], [98.8764058, 21.4881846], [98.8768403, 21.4884657], [98.8835523, 21.4972705], [98.8885109, 21.5037748], [98.8894328, 21.504984], [98.8903104, 21.5064867], [98.8916297, 21.509489], [98.8916264, 21.5116712], [98.8908935, 21.515493], [98.889864, 21.5182205], [98.8863467, 21.5199905], [98.8850268, 21.521761], [98.8848816, 21.521761], [98.8847331, 21.5233976], [98.8836385, 21.5246258], [98.8809984, 21.5263991], [98.8804107, 21.5283069], [98.8808459, 21.5313091], [98.8814297, 21.5334944], [98.8815742, 21.5372447], [98.8821582, 21.5382704], [98.8827417, 21.5413381], [98.8825928, 21.5441374], [98.8828826, 21.5477521], [98.8834664, 21.5498674], [98.8836117, 21.5498674], [98.8836113, 21.5517783], [98.8840498, 21.5535522], [98.886392, 21.5572374], [98.8939379, 21.5575125], [98.9002394, 21.5610674], [98.90698, 21.5633942], [98.9081478, 21.5673505], [98.9104936, 21.5680367], [98.9137171, 21.5688572], [98.9184053, 21.5721375], [98.9225098, 21.5725498], [98.9251459, 21.5745984], [98.9227963, 21.5797822], [98.9222085, 21.5840093], [98.9244055, 21.5876975], [98.933786, 21.5870228], [98.9371546, 21.5893459], [98.937593, 21.5924852], [98.9370744, 21.5941217], [98.9382454, 21.5972611], [98.9370595, 21.6061267], [98.9373489, 21.6117224], [98.9448258, 21.6158232], [98.9477558, 21.6182803], [98.9551485, 21.63043], [98.9573457, 21.6320701], [98.962915, 21.6316657], [98.9670159, 21.6338517], [98.9708733, 21.6343125], [98.9736628, 21.6351902], [98.9748859, 21.6395982], [98.9747786, 21.6463595], [98.9739771, 21.6503062], [98.9692239, 21.6519335], [98.9675045, 21.6525222], [98.9584493, 21.6593427], [98.9547372, 21.6650263], [98.9541578, 21.6682369], [98.9572048, 21.6734016], [98.9632559, 21.6763727], [98.9649296, 21.6818762], [98.9635348, 21.6849069], [98.9605951, 21.6875588], [98.95684, 21.6920848], [98.9554453, 21.6953945], [98.9547586, 21.6980861], [98.9496088, 21.7050042], [98.9503801, 21.7123584], [98.9508319, 21.7166664], [98.9530849, 21.7221284], [98.9521408, 21.7256168], [98.949995, 21.7271517], [98.9495873, 21.7302015], [98.9498663, 21.7327329], [98.947227, 21.7383538], [98.9478493, 21.7402074], [98.9465618, 21.7443332], [98.9483642, 21.7479007], [98.9483428, 21.7509899], [98.9453387, 21.7550556], [98.9441371, 21.7585232], [98.9424205, 21.7612734], [98.9399743, 21.7629474], [98.9378071, 21.7651993], [98.9347815, 21.7676305], [98.9313483, 21.7693442], [98.9276147, 21.7714964], [98.9255547, 21.7729311], [98.9233231, 21.7750434], [98.9218211, 21.7776936], [98.9171648, 21.7813201], [98.9178514, 21.7875966], [98.9158129, 21.7915018], [98.9131737, 21.7947693], [98.9120793, 21.7976782], [98.9119315, 21.7990276], [98.9126801, 21.8012046], [98.9159632, 21.8061056], [98.9188439, 21.8084975], [98.921113, 21.8110064], [98.9246106, 21.8134169], [98.9279615, 21.8150077], [98.9352926, 21.815832], [98.9364583, 21.8161427], [98.9383708, 21.8166525], [98.9439402, 21.8187045], [98.9484836, 21.8197995], [98.9515507, 21.8199808], [98.9547157, 21.8200704], [98.9590931, 21.8218234], [98.9608955, 21.8220625], [98.9668607, 21.8299108], [98.9698219, 21.8333766], [98.9755296, 21.8368822], [98.9796495, 21.8398699], [98.9826536, 21.8438932], [98.9857435, 21.8474782], [98.9878892, 21.8503462], [98.9902496, 21.8522581], [98.9921379, 21.8528954], [98.9940261, 21.8558828], [98.9987897, 21.8585912], [99.0001201, 21.8596666], [99.0021372, 21.8616979], [99.0041756, 21.8629923], [99.0048194, 21.864466], [99.0053987, 21.8653024], [99.0067076, 21.8657803], [99.008038, 21.8655214], [99.0106773, 21.8645656], [99.0126943, 21.8643067], [99.0134024, 21.8639084], [99.0146041, 21.8624148], [99.0166855, 21.8610208], [99.0201831, 21.8596467], [99.0222859, 21.859109], [99.0234017, 21.8584916], [99.0246677, 21.8576154], [99.0253114, 21.8561018], [99.0261483, 21.8548272], [99.0282297, 21.8537319], [99.0312553, 21.8550741], [99.0329289, 21.8565798], [99.0333366, 21.8576154], [99.0336799, 21.8586111], [99.0353536, 21.8595272], [99.0381646, 21.8599653], [99.03898, 21.8606823], [99.0393961, 21.8630317], [99.0395598, 21.8673382], [99.0394417, 21.8733232], [99.0388727, 21.8760556], [99.0391516, 21.8791818], [99.0397927, 21.8806209], [99.0406966, 21.882985], [99.0420913, 21.8858323], [99.0433788, 21.8910489], [99.0455675, 21.8949911], [99.0486359, 21.9020391], [99.0494128, 21.9038373], [99.0495005, 21.9043319], [99.0497904, 21.9076246], [99.0497732, 21.9115951], [99.0520048, 21.916333], [99.059515, 21.9202347], [99.0648365, 21.923977], [99.0644502, 21.9287146], [99.0647935, 21.9346064], [99.0604162, 21.9469863], [99.0518331, 21.9496931], [99.0462541, 21.9588876], [99.0484428, 21.9708675], [99.0388727, 21.9800607], [99.0354931, 21.9811053], [99.0321672, 21.9810456], [99.0297425, 21.9828662], [99.0285945, 21.9828364], [99.0264702, 21.9820206], [99.0255368, 21.9820703], [99.0248608, 21.9824185], [99.0243673, 21.9830254], [99.0241849, 21.9837815], [99.0241849, 21.9844481], [99.0243995, 21.9853435], [99.0249467, 21.9864776], [99.0257513, 21.9873232], [99.0270388, 21.9889448], [99.027307, 21.9905067], [99.0275109, 21.9924665], [99.0279293, 21.9934912], [99.0289807, 21.9944661], [99.0300643, 21.995063], [99.0336156, 21.9959782], [99.0356541, 21.9962269], [99.0370595, 21.9967143], [99.0388942, 21.9979777], [99.0395594, 21.9993306], [99.0395486, 22.0008028], [99.0422909, 22.0097066], [99.0502793, 22.0122199], [99.0618686, 22.0199786], [99.0718362, 22.0313511], [99.0762846, 22.0324833], [99.0815481, 22.0307443], [99.087083, 22.0262616], [99.0918026, 22.0255213], [99.0947702, 22.0278953], [99.0954225, 22.0423752], [99.0989052, 22.0577943], [99.0984897, 22.064844], [99.0932133, 22.0755667], [99.0948235, 22.0809347], [99.094003, 22.0887969], [99.0944035, 22.092417], [99.0958802, 22.0974134], [99.0997867, 22.1016631], [99.1061263, 22.1044218], [99.1124038, 22.1033107], [99.1170558, 22.1063131], [99.1181277, 22.1109328], [99.1200123, 22.1139312], [99.1244677, 22.1135646], [99.127165, 22.1145652], [99.1306706, 22.1169444], [99.1443492, 22.1179781], [99.1380934, 22.1252493], [99.133512, 22.1278887], [99.127699, 22.1284953], [99.1252309, 22.1303426], [99.12433, 22.1368878], [99.1208861, 22.1400623], [99.1190161, 22.1419189], [99.1202789, 22.1483657], [99.1228026, 22.1492089], [99.1235681, 22.1511945], [99.122922, 22.1515753], [99.1212187, 22.1511673], [99.1192216, 22.1507049], [99.1186637, 22.1508409], [99.1185168, 22.1514393], [99.1192539, 22.1516528], [99.1193297, 22.1527576], [99.1165492, 22.1533977], [99.1126432, 22.1510313], [99.1104995, 22.1513869], [99.1020357, 22.1493226], [99.1004015, 22.1494041], [99.0956613, 22.1477745], [99.0921683, 22.1475967], [99.0888552, 22.1461624], [99.0854485, 22.1461896], [99.0843032, 22.1457544], [99.0838333, 22.1443943], [99.0825929, 22.1448843], [99.079898, 22.1482841], [99.0789582, 22.1486921], [99.075992, 22.14774], [99.0752994, 22.1481464], [99.0738188, 22.1469512], [99.0718805, 22.1464072], [99.0699832, 22.1474821], [99.0677984, 22.1452919], [99.0654489, 22.1461896], [99.0641861, 22.1459448], [99.0651071, 22.1429559], [99.0642107, 22.1420091], [99.0623653, 22.1440679], [99.0603843, 22.1448778], [99.0576371, 22.1440407], [99.0556988, 22.1441767], [99.053878, 22.1434422], [99.0527326, 22.1434966], [99.0512055, 22.1411844], [99.0492149, 22.1405873], [99.0437265, 22.1412784], [99.0416609, 22.1404228], [99.040633, 22.1409124], [99.0382836, 22.1410212], [99.0350531, 22.1406132], [99.034642, 22.1397971], [99.033291, 22.1404228], [99.03241, 22.1417013], [99.0312646, 22.1417557], [99.0306159, 22.1406171], [99.0289739, 22.1400147], [99.0282104, 22.1410212], [99.0288271, 22.1429798], [99.0264344, 22.1432829], [99.0252442, 22.142599], [99.0234528, 22.1424085], [99.02219, 22.1417013], [99.0203985, 22.1413205], [99.0198236, 22.1401926], [99.0154353, 22.1382466], [99.0126454, 22.1393891], [99.0118959, 22.1391342], [99.0077737, 22.1405673], [99.0050604, 22.1396382], [99.0036421, 22.1401019], [99.0007389, 22.1412836], [98.9991237, 22.1402499], [98.9970977, 22.1406449], [98.9961675, 22.1430744], [98.9918403, 22.1431173], [98.9846269, 22.1494152], [98.9813125, 22.1549956], [98.9770377, 22.1569372], [98.9753318, 22.1598422], [98.973466, 22.1659599], [98.9733111, 22.1699436], [98.9686066, 22.1767542], [98.9657793, 22.1843037], [98.9672396, 22.1884105], [98.9619763, 22.1906248], [98.9573229, 22.1947491], [98.9521976, 22.1967228], [98.9436648, 22.198031], [98.939863, 22.2051464], [98.9390811, 22.2098014], [98.9394878, 22.2142227], [98.9348068, 22.2210405], [98.9325577, 22.2256171], [98.9293957, 22.2275511], [98.9286482, 22.2303583], [98.9264567, 22.2339435], [98.9270361, 22.2384697], [98.9283536, 22.2414555], [98.9271887, 22.2440179], [98.9224668, 22.2472774], [98.9216207, 22.2490245], [98.9191022, 22.2496263], [98.9180786, 22.2507223], [98.9174723, 22.2498006], [98.9132489, 22.2509296], [98.911776, 22.2499848], [98.9090352, 22.2509609], [98.9070834, 22.2519036], [98.9049996, 22.2547252], [98.9014993, 22.2564585], [98.896631, 22.2553942], [98.8940605, 22.2506415], [98.8814616, 22.2464504], [98.8709581, 22.2403902], [98.8664731, 22.23995], [98.8654138, 22.2382987], [98.8615769, 22.2367513], [98.8604436, 22.2368568], [98.8587797, 22.2360469], [98.8581111, 22.2354342], [98.8573567, 22.2353975], [98.8572567, 22.2354454], [98.8561998, 22.2343902], [98.854799, 22.2327139], [98.8495474, 22.2254418], [98.8492377, 22.2213945], [98.8446997, 22.2181697], [98.8468685, 22.2068089], [98.8220768, 22.2096852], [98.8111691, 22.214937], [98.8010696, 22.2133208], [98.7590552, 22.2161479], [98.7388562, 22.2084715], [98.7340084, 22.2084714], [98.7311804, 22.2125113], [98.7263326, 22.2145313], [98.717849, 22.2112991], [98.7077494, 22.2121069], [98.6976498, 22.2104907], [98.6911861, 22.2121065], [98.6653313, 22.20443], [98.6572516, 22.2048338], [98.6509672, 22.201309], [98.6354367, 22.1975614], [98.6212971, 22.2011971], [98.6091774, 22.2100849], [98.5996667, 22.2076729], [98.5978199, 22.2052045], [98.5973768, 22.2046122], [98.5981955, 22.2028407], [98.6005708, 22.1956945], [98.6062254, 22.1918493], [98.61188, 22.1828019], [98.6132372, 22.171945], [98.6212812, 22.163901], [98.6225108, 22.1554335], [98.6387961, 22.1405053], [98.6413693, 22.1359553], [98.6439984, 22.1298746], [98.6471844, 22.1205505], [98.6494499, 22.1168077], [98.6537301, 22.1122412], [98.6585569, 22.1064561], [98.6644149, 22.1019829], [98.6679152, 22.0971358], [98.6683631, 22.0965156], [98.6930823, 22.0800328], [98.7078831, 22.0723858], [98.7306332, 22.0642042], [98.7428665, 22.0612273], [98.7583812, 22.0585365], [98.7612962, 22.057403], [98.7667894, 22.0506015], [98.7683773, 22.0418106], [98.7656522, 22.0362017], [98.7637639, 22.0315473], [98.7623584, 22.0288422], [98.7606203, 22.0271116], [98.7585604, 22.0257292], [98.7575412, 22.0255004], [98.7561786, 22.0259181], [98.7537432, 22.027589], [98.751018, 22.0288322], [98.7462222, 22.0300058], [98.7436581, 22.0294389], [98.7418878, 22.0287924], [98.7381649, 22.0284443], [98.7344634, 22.0290709], [98.7307033, 22.0292224], [98.7263095, 22.0289615], [98.7253868, 22.0286532], [98.7248075, 22.0281062], [98.7243032, 22.0265149], [98.7239277, 22.0223078], [98.7251937, 22.0168473], [98.7259126, 22.0144104], [98.7268996, 22.0127891], [98.7295818, 22.0109788], [98.7327693, 22.007609], [98.7285019, 21.9984647], [98.7285019, 21.9981934], [98.7280364, 21.9959088], [98.7261633, 21.9867303], [98.7245504, 21.9846133], [98.7200109, 21.9831754], [98.7198656, 21.9830413], [98.7172297, 21.9820838], [98.7169361, 21.9818095], [98.7167909, 21.9818095], [98.7118037, 21.9785943], [98.7111251, 21.9722988], [98.703661, 21.9618943], [98.6937089, 21.956692], [98.6771973, 21.9528469], [98.670638, 21.9526207], [98.6631738, 21.9440257], [98.6509909, 21.9357696], [98.6419086, 21.9301661], [98.6417634, 21.9300289], [98.6344393, 21.9267482], [98.6284346, 21.9251074], [98.6211104, 21.9225063], [98.6190585, 21.921549], [98.6156901, 21.919229], [98.6152513, 21.9188861], [98.6124514, 21.9176308], [98.6120281, 21.9174515], [98.6089535, 21.9141746], [98.6049252, 21.9122598], [98.6002369, 21.9099366], [98.5978942, 21.909319], [98.5934996, 21.9062475], [98.5918867, 21.9037877], [98.5899862, 21.9009224], [98.5877894, 21.8962803], [98.5876442, 21.896009], [98.5874959, 21.8955975], [98.5860342, 21.8936863], [98.5858859, 21.8936863], [98.5794392, 21.8901344], [98.5762159, 21.8876743], [98.5691848, 21.8850763], [98.5664002, 21.8839816], [98.5637608, 21.883844], [98.5593662, 21.8810422], [98.554678, 21.8776949], [98.5517515, 21.8743494], [98.5472122, 21.8681388], [98.5457475, 21.8655448], [98.5438442, 21.862131], [98.5436988, 21.8618032], [98.5419439, 21.8579003]]]]}}