{"type": "Feature", "properties": {"core_id": 6472, "public_id": "c9e60e71-fe4a-49b2-a1ae-f2c46ad5b784", "canonical_name": "\u1014\u1031\u102c\u1004\u103a\u1001\u1005\u103a\u1019\u103c\u102d\u102f\u1037\u1014\u101a\u103a", "aliases": "en:Nawngkhiet Township | my:\u1014\u1031\u102c\u1004\u103a\u1001\u1005\u103a\u1019\u103c\u102d\u102f\u1037\u1014\u101a\u103a", "parent_name": "\u1019\u102d\u102f\u1004\u103a\u1038\u101c\u1004\u103a\u1038\u1001\u101b\u102d\u102f\u1004\u103a", "gparent_name": "\u101d\u1015\u103c\u100a\u103a\u1014\u101a\u103a \u1019\u103c\u1031\u102c\u1000\u103a\u1015\u102d\u102f\u1004\u103a\u1038", "overlap_of_source": 0.1758, "overlap_of_core": 0.8594, "centroid_dist_m": 12886.7, "child_admins": 0, "settlements": 9, "postal": 0}, "geometry": {"type": "MultiPolygon", "coordinates": [[[[98.8005894, 22.5105491], [98.8018452, 22.508215], [98.8022974, 22.5073956], [98.8039144, 22.5060331], [98.8067218, 22.5030455], [98.8085165, 22.4994996], [98.8100979, 22.4974476], [98.8110396, 22.4952313], [98.8112173, 22.4932613], [98.8115549, 22.4923091], [98.8124611, 22.4909629], [98.813083, 22.4897973], [98.8128165, 22.4882869], [98.8121768, 22.4867765], [98.8108797, 22.4856765], [98.8105954, 22.4848556], [98.8092805, 22.4822943], [98.8079782, 22.4810992], [98.8041098, 22.4775494], [98.8030793, 22.4761374], [98.804945, 22.4727058], [98.807628, 22.4704399], [98.8090732, 22.4675507], [98.8088116, 22.4660874], [98.809732, 22.4646389], [98.8108565, 22.4640958], [98.812303, 22.4634429], [98.8136544, 22.4611204], [98.8161215, 22.4596517], [98.8175252, 22.4581738], [98.8165835, 22.4560555], [98.8168855, 22.4530175], [98.8162487, 22.4489072], [98.8171913, 22.4477486], [98.818265, 22.4478898], [98.8186346, 22.4482715], [98.8190863, 22.4482191], [98.819767, 22.4477656], [98.8200116, 22.4471036], [98.8202197, 22.4467869], [98.8203433, 22.4465989], [98.8204813, 22.4465761], [98.8209344, 22.4465011], [98.8214569, 22.4465628], [98.8216877, 22.4466695], [98.8218943, 22.4472198], [98.8221191, 22.4477701], [98.8225382, 22.4485074], [98.8232073, 22.4493134], [98.8240945, 22.4504182], [98.8241772, 22.4509672], [98.8241697, 22.4511756], [98.8244478, 22.4513563], [98.8251846, 22.4512799], [98.8254854, 22.4513841], [98.825756, 22.4517107], [98.8258387, 22.452072], [98.8257786, 22.4523708], [98.8256583, 22.4526557], [98.8255079, 22.4532463], [98.8258463, 22.4533922], [98.8262071, 22.4533991], [98.8269439, 22.4532741], [98.8272898, 22.4533019], [98.8275604, 22.4534547], [98.827583, 22.4536562], [98.8272296, 22.4538855], [98.8270717, 22.4545456], [98.8270266, 22.4548652], [98.8272672, 22.455032], [98.8275905, 22.4551432], [98.827598, 22.4555531], [98.8277785, 22.4557477], [98.8279664, 22.4557963], [98.8281544, 22.4556712], [98.8280792, 22.4553586], [98.8282822, 22.4550112], [98.828613, 22.4549903], [98.8289814, 22.4551293], [98.8292446, 22.4548791], [98.8295227, 22.4545873], [98.8298911, 22.4545804], [98.830267, 22.4549139], [98.830267, 22.4551849], [98.8300039, 22.4554281], [98.8300265, 22.455977], [98.8306279, 22.4563383], [98.8307858, 22.4566023], [98.8308309, 22.4569775], [98.8307783, 22.4576723], [98.8311843, 22.45893], [98.8313572, 22.4590828], [98.831673, 22.4591314], [98.8320564, 22.4592635], [98.8321015, 22.45959], [98.8319361, 22.4598679], [98.8319286, 22.4601181], [98.8316128, 22.4605489], [98.8314399, 22.4608059], [98.8315828, 22.4612089], [98.8318459, 22.4613757], [98.8321015, 22.4614174], [98.8321767, 22.4612298], [98.8322745, 22.4608337], [98.8327406, 22.4604863], [98.8333646, 22.4600694], [98.8338909, 22.4600833], [98.834154, 22.4601945], [98.8343495, 22.4604446], [98.8338683, 22.4610005], [98.8340037, 22.4612645], [98.8340187, 22.461459], [98.8338383, 22.4615563], [98.8337255, 22.4617439], [98.8338082, 22.4620079], [98.8340262, 22.4621608], [98.8342142, 22.4621677], [98.8344623, 22.4621816], [98.8348608, 22.462265], [98.8354096, 22.4626471], [98.83556, 22.4627375], [98.8360487, 22.4629529], [98.8359885, 22.4632586], [98.8361464, 22.4633211], [98.8364697, 22.4633141], [98.8368381, 22.4634601], [98.8370561, 22.4643563], [98.8368682, 22.4645648], [98.8364171, 22.4647801], [98.8362517, 22.4647801], [98.8359209, 22.4647385], [98.8355825, 22.4647385], [98.8354923, 22.4649816], [98.8355675, 22.4652318], [98.8359133, 22.4652873], [98.8368005, 22.4652248], [98.8372441, 22.4653707], [98.8373644, 22.4658362], [98.8371238, 22.4665032], [98.8373644, 22.467066], [98.8376801, 22.467059], [98.8378606, 22.4667603], [98.8381538, 22.4666421], [98.8387778, 22.4667325], [98.8399507, 22.4670104], [98.8403191, 22.4669548], [98.8409206, 22.4673439], [98.8411837, 22.4676635], [98.8414995, 22.4678372], [98.8423039, 22.4676496], [98.8428377, 22.4674689], [98.8428904, 22.4672188], [98.843161, 22.4671771], [98.8434016, 22.4673786], [98.8438527, 22.4673856], [98.8440708, 22.4676426], [98.84377, 22.46799], [98.8435971, 22.4681567], [98.8436798, 22.468518], [98.8440106, 22.468657], [98.8444542, 22.4686083], [98.8448301, 22.4684485], [98.8446873, 22.46799], [98.8445895, 22.4677121], [98.8447399, 22.4675453], [98.845191, 22.4674689], [98.8454165, 22.4680664], [98.8455068, 22.4683652], [98.8456722, 22.4684972], [98.8461759, 22.4684485], [98.8466496, 22.468393], [98.8470856, 22.4687056], [98.8474164, 22.4688585], [98.8476345, 22.4688654], [98.8479878, 22.4687403], [98.8482059, 22.4689418], [98.8479803, 22.4698103], [98.8480404, 22.4703661], [98.8482209, 22.4706579], [98.8486043, 22.4706996], [98.8490554, 22.4705189], [98.849296, 22.4706926], [98.8493486, 22.4709358], [98.8495892, 22.4708663], [98.849905, 22.470637], [98.849905, 22.4698659], [98.8496043, 22.469713], [98.8492885, 22.4695671], [98.8489953, 22.4694351], [98.8490554, 22.4691989], [98.8494163, 22.4689418], [98.849702, 22.468921], [98.8499877, 22.4690738], [98.8498524, 22.4694073], [98.8503486, 22.4694004], [98.8506192, 22.4694004], [98.8510403, 22.4692406], [98.8512433, 22.4692962], [98.8514162, 22.469845], [98.8520101, 22.4701299], [98.8528522, 22.4701299], [98.8532507, 22.4699631], [98.8536491, 22.4696296], [98.8538296, 22.4694351], [98.8536416, 22.4692058], [98.8534988, 22.4691433], [98.8533785, 22.469053], [98.8534837, 22.4688376], [98.8537544, 22.4687681], [98.8540326, 22.468518], [98.8542882, 22.4682749], [98.8546115, 22.4680317], [98.8547619, 22.467719], [98.8546942, 22.4673717], [98.8546566, 22.4669965], [98.8549197, 22.4667047], [98.8552881, 22.4666283], [98.8554911, 22.466656], [98.8556791, 22.4664129], [98.8558595, 22.4661489], [98.8557317, 22.4658362], [98.8557092, 22.4654332], [98.8556791, 22.4650233], [98.855852, 22.464794], [98.8562806, 22.4645648], [98.856664, 22.4646968], [98.8567768, 22.4650442], [98.8570023, 22.4653707], [98.8573106, 22.4653846], [98.8575286, 22.4651623], [98.8578594, 22.4650858], [98.8583256, 22.4654332], [98.8585436, 22.465732], [98.8588518, 22.4657806], [98.8589421, 22.4656834], [98.8591, 22.4651553], [98.8593029, 22.4649538], [98.8598819, 22.4654124], [98.8601901, 22.4656], [98.8607314, 22.4656556], [98.8611449, 22.4655652], [98.8611901, 22.4649747], [98.8610246, 22.4647732], [98.8607314, 22.4644883], [98.8606713, 22.4641409], [98.8604683, 22.4637658], [98.8602427, 22.4633558], [98.8598894, 22.4630918], [98.8596262, 22.4628556], [98.8596713, 22.4626263], [98.8600623, 22.4624248], [98.8607465, 22.4619732], [98.8607239, 22.4616188], [98.8612201, 22.4618829], [98.8614081, 22.4620427], [98.8620923, 22.4615563], [98.8624607, 22.4613409], [98.8624306, 22.4611325], [98.8621825, 22.4608476], [98.8619344, 22.4604307], [98.8618291, 22.4602292], [98.8615434, 22.4599027], [98.8615885, 22.4593538], [98.861972, 22.4591523], [98.8627163, 22.458784], [98.8632275, 22.4586173], [98.8634982, 22.4584088], [98.863829, 22.4587007], [98.8641824, 22.4588049], [98.8642801, 22.458652], [98.8642425, 22.458381], [98.8639944, 22.4580058], [98.8636711, 22.4577279], [98.8632726, 22.4575195], [98.8628441, 22.4575334], [98.8625058, 22.4573527], [98.8624607, 22.4567969], [98.8622802, 22.4565954], [98.8619644, 22.4562549], [98.8619419, 22.4560256], [98.8621449, 22.4558727], [98.8630095, 22.4554211], [98.8634606, 22.455039], [98.8634606, 22.4546985], [98.8632726, 22.4544761], [98.8634005, 22.4540662], [98.8639643, 22.4531629], [98.8646861, 22.4521067], [98.864859, 22.4514814], [98.8647688, 22.4513077], [98.8645207, 22.4512034], [98.8643778, 22.4509394], [98.8644605, 22.4507031], [98.8647838, 22.4505642], [98.865047, 22.4504043], [98.8651222, 22.4501195], [98.86525, 22.449911], [98.8651597, 22.4497512], [98.8648365, 22.4493899], [98.8647913, 22.4490355], [98.8648365, 22.4488201], [98.8652199, 22.448834], [98.865671, 22.4490285], [98.8660018, 22.4492509], [98.8664529, 22.4494038], [98.8667837, 22.4494107], [98.8671822, 22.4491467], [98.8671371, 22.4486811], [98.8668664, 22.4482155], [98.8666785, 22.4480696], [98.866483, 22.448021], [98.8661672, 22.4482642], [98.8659717, 22.4482433], [98.8657612, 22.4481461], [98.8656033, 22.4480071], [98.8654605, 22.4477569], [98.8656635, 22.4474512], [98.8661898, 22.4471246], [98.866919, 22.4466729], [98.8674378, 22.4466521], [98.8678438, 22.446805], [98.8688287, 22.4467563], [98.8694753, 22.4462977], [98.8698286, 22.445714], [98.8699264, 22.4454291], [98.8699489, 22.4451928], [98.8704076, 22.4451859], [98.8708211, 22.4450261], [98.8712797, 22.445165], [98.8714601, 22.4451442], [98.8714902, 22.4449496], [98.8714676, 22.4444563], [98.8717609, 22.4442617], [98.8720842, 22.4444493], [98.87243, 22.4448662], [98.8728435, 22.4448662], [98.8736931, 22.4445466], [98.87446, 22.444359], [98.8745276, 22.4443729], [98.874663, 22.444491], [98.874272, 22.4453249], [98.8743171, 22.4455542], [98.87449, 22.4457279], [98.8751592, 22.445992], [98.8754148, 22.4458877], [98.8757907, 22.4455472], [98.876129, 22.4444215], [98.8766403, 22.4441714], [98.8773545, 22.4441019], [98.8775726, 22.4440115], [98.8777229, 22.4437197], [98.8777981, 22.4429553], [98.8777981, 22.4427955], [98.8780086, 22.4427329], [98.8780838, 22.4429067], [98.8782417, 22.4430456], [98.8784748, 22.4429901], [98.8786552, 22.442865], [98.8786778, 22.4425523], [98.8785575, 22.4419964], [98.8785875, 22.4413362], [98.8791589, 22.4404537], [98.8796251, 22.4398213], [98.8804446, 22.4392376], [98.8811287, 22.4380562], [98.8813693, 22.4373683], [98.8817001, 22.4365344], [98.8818731, 22.435353], [98.8819407, 22.4340187], [98.8819182, 22.4334906], [98.8817152, 22.4334072], [98.8812791, 22.4333933], [98.8802792, 22.4332404], [98.8799183, 22.4331709], [98.8797002, 22.4330388], [98.8796777, 22.4327053], [98.8813242, 22.4327539], [98.8817904, 22.4325941], [98.8820836, 22.4324829], [98.882061, 22.4323092], [98.8819633, 22.4321354], [98.881422, 22.4319408], [98.8812265, 22.4318366], [98.8813618, 22.4315725], [98.8818054, 22.4315169], [98.8826399, 22.4319061], [98.8833692, 22.4316907], [98.884121, 22.4314613], [98.8843842, 22.4312806], [98.8846097, 22.4311347], [98.8847075, 22.4309401], [98.8846022, 22.4306413], [98.8840609, 22.430544], [98.8838579, 22.4304119], [98.8835797, 22.430266], [98.8835121, 22.4300506], [98.8838053, 22.4297795], [98.8841511, 22.4296614], [98.8842413, 22.4294738], [98.8840534, 22.4292583], [98.8834068, 22.4290429], [98.883482, 22.4287232], [98.8837301, 22.4284244], [98.8844819, 22.4281255], [98.8849405, 22.428341], [98.8853465, 22.4289039], [98.8857074, 22.4292722], [98.886136, 22.4297309], [98.8864442, 22.4295502], [98.8867299, 22.4291332], [98.8866998, 22.4286745], [98.8864442, 22.4285425], [98.8867074, 22.4280977], [98.8867525, 22.4279379], [98.8871585, 22.4278475], [98.8873615, 22.4277224], [98.8876622, 22.4274723], [98.8875269, 22.4271873], [98.8872712, 22.4269649], [98.8868803, 22.4269441], [98.8859706, 22.4271943], [98.8856999, 22.4270831], [98.8856999, 22.4268468], [98.8860082, 22.4266591], [98.8872336, 22.4260893], [98.8877299, 22.425853], [98.8879554, 22.4253387], [98.8886245, 22.4250885], [98.8888726, 22.4247549], [98.8889629, 22.4245256], [98.8883764, 22.4243588], [98.8877148, 22.4238931], [98.8860006, 22.4225587], [98.88576, 22.4223294], [98.8852488, 22.4222251], [98.8849556, 22.4221556], [98.8848729, 22.421829], [98.8856924, 22.4213633], [98.8860984, 22.4206475], [98.8861059, 22.4202791], [98.8864217, 22.4201401], [98.8870382, 22.4200637], [98.8875043, 22.419876], [98.8875569, 22.4193131], [98.8877975, 22.418764], [98.887775, 22.4184582], [98.8874817, 22.4183401], [98.8867901, 22.4182775], [98.8864818, 22.4178535], [98.8865044, 22.417367], [98.8862337, 22.4168944], [98.8861209, 22.4166234], [98.886151, 22.4164218], [98.8864743, 22.4160882], [98.8866698, 22.4156017], [98.8867299, 22.415421], [98.8866923, 22.4152264], [98.8865194, 22.4149761], [98.8864442, 22.4147815], [98.8864893, 22.4145661], [98.8865495, 22.4140448], [98.8867149, 22.4136], [98.8868878, 22.4135374], [98.8870532, 22.4133289], [98.8867525, 22.4131343], [98.8865645, 22.4125852], [98.886572, 22.4119944], [98.8867901, 22.4113063], [98.8869855, 22.4108823], [98.8872938, 22.4106043], [98.8875269, 22.4104375], [98.887993, 22.4106391], [98.8883539, 22.4107225], [98.8885418, 22.4105001], [98.8885569, 22.4102846], [98.8883915, 22.4098884], [98.8881133, 22.409388], [98.8879855, 22.4090891], [98.8879554, 22.4086582], [98.8880456, 22.4079214], [98.8881734, 22.4078171], [98.8885268, 22.4077893], [98.8888426, 22.407838], [98.8890456, 22.4078102], [98.8889102, 22.4075252], [98.8885719, 22.4070178], [98.8885042, 22.4066772], [98.8883689, 22.4064548], [98.8880381, 22.4063714], [98.8877148, 22.4060934], [98.887384, 22.4057597], [98.887166, 22.4053635], [98.8873088, 22.4047032], [98.8872637, 22.4041332], [98.8872336, 22.4036745], [98.8870532, 22.403174], [98.8867074, 22.4024859], [98.8867074, 22.4022495], [98.8868502, 22.4019854], [98.8869555, 22.4017143], [98.886775, 22.4015266], [98.8864141, 22.4014849], [98.8859706, 22.401471], [98.8856022, 22.4014085], [98.8852939, 22.4010401], [98.885341, 22.4007372], [98.8851359, 22.4004106], [98.8850903, 22.3999681], [98.8857285, 22.3996099], [98.8859906, 22.3995678], [98.8862641, 22.3993781], [98.8866288, 22.3991253], [98.886435, 22.3985352], [98.8862185, 22.3983561], [98.884908, 22.3986195], [98.8842584, 22.3985352], [98.8836887, 22.398609], [98.883267, 22.3985247], [98.8831075, 22.3978188], [98.8833126, 22.3974922], [98.8840533, 22.3974079], [98.8849764, 22.397155], [98.8858425, 22.3968811], [98.8860932, 22.3966071], [98.8861957, 22.3961541], [98.885888, 22.3956484], [98.8856373, 22.395406], [98.8856601, 22.3951426], [98.8865376, 22.3946053], [98.8859108, 22.3934041], [98.8853182, 22.393067], [98.8844636, 22.3922662], [98.8837912, 22.3910967], [98.8840647, 22.39077], [98.884908, 22.3907068], [98.8865946, 22.3907595], [98.8873467, 22.3910124], [98.8879734, 22.3908227], [98.8877911, 22.3902221], [98.8876316, 22.3898428], [98.8868453, 22.3896848], [98.8862983, 22.3895794], [98.886435, 22.3890842], [98.8872441, 22.3884836], [98.888076, 22.388178], [98.8887484, 22.3887365], [98.889113, 22.388473], [98.88917, 22.3879567], [98.8889421, 22.387609], [98.88917, 22.387472], [98.890093, 22.3875247], [98.8906172, 22.3874615], [98.8910503, 22.3868609], [98.8915517, 22.3869452], [98.8916201, 22.3875142], [98.8920303, 22.3872613], [98.8923038, 22.386745], [98.892338, 22.3860706], [98.8931129, 22.3859337], [98.894959, 22.3863973], [98.8957111, 22.3862919], [98.8960758, 22.3860601], [98.8964405, 22.3856386], [98.8963721, 22.3850064], [98.8959846, 22.3848062], [98.8954148, 22.3847851], [98.8948678, 22.384743], [98.8946399, 22.3849853], [98.8943892, 22.3850064], [98.8942069, 22.3849432], [98.8942069, 22.384448], [98.8949134, 22.3839738], [98.8956428, 22.384037], [98.8961897, 22.3838579], [98.8964177, 22.383763], [98.896486, 22.3834364], [98.8963493, 22.3831308], [98.8961783, 22.3828885], [98.8958707, 22.3827726], [98.8958137, 22.3826145], [98.8943778, 22.3823616], [98.8930559, 22.3819296], [98.8928508, 22.381624], [98.8931015, 22.3810023], [98.8935801, 22.3809391], [98.8944348, 22.3812341], [98.894902, 22.3812552], [98.8953237, 22.3813079], [98.8955516, 22.3811709], [98.8951641, 22.3805913], [98.8944006, 22.3794533], [98.8940929, 22.3787473], [98.8938308, 22.3784206], [98.8943095, 22.3778516], [98.8952325, 22.3778622], [98.8954604, 22.3776936], [98.8949248, 22.3771351], [98.8939334, 22.3763026], [98.8935573, 22.3762604], [98.8928622, 22.3762288], [98.8926229, 22.3760602], [98.8921215, 22.3755017], [98.8915061, 22.3751751], [98.8909933, 22.3749327], [98.8907312, 22.3745217], [98.8904919, 22.3731518], [98.8901842, 22.3723825], [98.889603, 22.3718872], [98.8887142, 22.3713393], [98.8885204, 22.3721612], [98.8880646, 22.3723509], [98.8876544, 22.3721402], [98.8871985, 22.3718662], [98.8871757, 22.3715816], [98.8871188, 22.3712128], [98.8869706, 22.3710021], [98.886378, 22.3710126], [98.8862071, 22.3709283], [98.8859108, 22.3705068], [98.8856943, 22.3703065], [98.8847485, 22.3705489], [98.8840989, 22.3705805], [98.8826061, 22.3692738], [98.881797, 22.3691052], [98.8812158, 22.3692106], [98.8803839, 22.3691684], [98.8798825, 22.3688101], [98.879723, 22.3683781], [98.8798483, 22.3681568], [98.8801218, 22.3669975], [98.8804295, 22.3667973], [98.8809765, 22.3669975], [98.8812158, 22.3679144], [98.8815121, 22.3682727], [98.8820705, 22.3681251], [98.8827998, 22.3673769], [98.8829024, 22.3670502], [98.8827314, 22.3668605], [98.8822756, 22.3662809], [98.8820021, 22.3649952], [98.8820819, 22.3639203], [98.8824237, 22.3635304], [98.8830391, 22.3627294], [98.8830961, 22.362076], [98.8828682, 22.3617493], [98.8824351, 22.3604215], [98.8824009, 22.3599788], [98.8819565, 22.3595046], [98.8808397, 22.3588617], [98.8799965, 22.358535], [98.8792443, 22.3584612], [98.8786404, 22.358398], [98.8782529, 22.357734], [98.878139, 22.3571544], [98.8787087, 22.3570595], [98.8796204, 22.3573019], [98.8802927, 22.3570384], [98.8801902, 22.3566274], [98.8797116, 22.3563956], [98.8791988, 22.3558264], [98.8791532, 22.3555103], [98.8796204, 22.3552257], [98.8798141, 22.3537291], [98.8797913, 22.353023], [98.8792785, 22.3527911], [98.8788683, 22.352359], [98.8792102, 22.3520007], [98.8798825, 22.3517161], [98.8801104, 22.3510943], [98.880099, 22.3502195], [98.8798711, 22.3497979], [98.8796888, 22.3493552], [98.8789025, 22.3493763], [98.8781276, 22.3492288], [98.8775236, 22.3498084], [98.8770564, 22.3498717], [98.8766005, 22.3495871], [98.876498, 22.3487334], [98.8764638, 22.3479851], [98.8762929, 22.3479007], [98.8757999, 22.347957], [98.8752745, 22.348102], [98.8747702, 22.3480723], [98.8745664, 22.3477944], [98.8746093, 22.3474372], [98.8748882, 22.3472487], [98.8750063, 22.3466731], [98.8748024, 22.3462266], [98.8744269, 22.3460678], [98.8739763, 22.346048], [98.8738583, 22.3457999], [98.8741587, 22.345393], [98.8743089, 22.34449], [98.8738905, 22.3438152], [98.8734935, 22.3436366], [98.8729356, 22.3434282], [98.8720129, 22.3433191], [98.8712619, 22.3435672], [98.8704787, 22.3435076], [98.8698135, 22.3430611], [98.8695989, 22.3424954], [98.8697813, 22.342158], [98.870307, 22.3417413], [98.870586, 22.3413642], [98.8705752, 22.3409176], [98.8700495, 22.3410665], [98.8691698, 22.3416519], [98.8679789, 22.3422275], [98.8675712, 22.3423367], [98.8666699, 22.3412749], [98.8666914, 22.3408878], [98.8669167, 22.33931], [98.8663481, 22.3382184], [98.8660799, 22.3370077], [98.8659618, 22.3366802], [98.8663159, 22.3363924], [98.8665412, 22.3361741], [98.8664446, 22.335658], [98.8661442, 22.3350328], [98.8656078, 22.3339313], [98.8657151, 22.3327205], [98.8658438, 22.3325419], [98.866391, 22.3324625], [98.8668738, 22.3324228], [98.8670455, 22.3321747], [98.8669918, 22.3319266], [98.8664661, 22.3316487], [98.865125, 22.3314701], [98.8636981, 22.3309044], [98.8634728, 22.3301006], [98.8630865, 22.3285127], [98.8625715, 22.3275897], [98.8622819, 22.3273019], [98.8619922, 22.3269446], [98.8620565, 22.3264682], [98.8623999, 22.3259422], [98.8632582, 22.3250192], [98.8633333, 22.3244833], [98.8631938, 22.3240764], [98.8629685, 22.3238382], [98.8622819, 22.3238283], [98.8609944, 22.3236], [98.8606833, 22.3232725], [98.8601146, 22.3232725], [98.8599859, 22.3230839], [98.8598035, 22.3228854], [98.8600288, 22.3224785], [98.8602648, 22.3224487], [98.860576, 22.3222403], [98.8607047, 22.3219525], [98.8603936, 22.3215654], [98.8597713, 22.321754], [98.8596104, 22.3222205], [98.8590954, 22.3226472], [98.8585482, 22.3227564], [98.8583229, 22.3223693], [98.8585053, 22.3219326], [98.858162, 22.3209401], [98.8577114, 22.320434], [98.8579045, 22.3197591], [98.858162, 22.3196102], [98.858795, 22.3197988], [98.8591061, 22.3196598], [98.8592563, 22.3193422], [98.8592778, 22.3186574], [98.8592992, 22.31831], [98.8598357, 22.318578], [98.8605438, 22.3193323], [98.8608227, 22.3194216], [98.8611768, 22.3194018], [98.8612841, 22.319233], [98.8613055, 22.3188261], [98.8610695, 22.31831], [98.8609193, 22.3180619], [98.8604472, 22.3179825], [98.8601468, 22.3175259], [98.8595889, 22.3171091], [98.858913, 22.3166823], [98.8588379, 22.3164639], [98.8590632, 22.3160967], [98.8592778, 22.3155607], [98.8590739, 22.3150744], [98.8589881, 22.3147965], [98.8582907, 22.3149156], [98.8574861, 22.314856], [98.8571964, 22.3145583], [98.8570784, 22.3138337], [98.8576148, 22.3131091], [98.8580332, 22.3126625], [98.8579367, 22.3122953], [98.8572608, 22.312325], [98.8573144, 22.3117096], [98.8577006, 22.3108263], [98.8577972, 22.3103101], [98.8577221, 22.310062], [98.85725, 22.3097543], [98.8566492, 22.3099429], [98.8564561, 22.3099627], [98.8562415, 22.3097245], [98.8558124, 22.3095756], [98.8551579, 22.3096253], [98.8546536, 22.3100223], [98.8542245, 22.3101017], [98.8539777, 22.3098436], [98.8537739, 22.3097146], [98.8530336, 22.3091786], [98.8529692, 22.3087518], [98.8525401, 22.307789], [98.8524757, 22.3074614], [98.8528834, 22.3071239], [98.8533876, 22.3068162], [98.8535593, 22.3064192], [98.8535593, 22.3058832], [98.8532267, 22.3054068], [98.8520251, 22.3047516], [98.8517783, 22.3045035], [98.8519178, 22.3038781], [98.8526474, 22.302558], [98.8534413, 22.3024091], [98.8554369, 22.3026076], [98.8560806, 22.3024091], [98.856499, 22.3023694], [98.8570891, 22.3026374], [98.8574002, 22.3027068], [98.8582264, 22.3025182], [98.8585911, 22.3020815], [98.8585911, 22.3015554], [98.8580547, 22.2997686], [98.8586984, 22.2990242], [98.859149, 22.2984782], [98.8586126, 22.2978528], [98.8575612, 22.2980414], [98.8570355, 22.2978826], [98.8566814, 22.2975352], [98.8565741, 22.2969892], [98.8566385, 22.2964433], [98.8566278, 22.2961653], [98.8563381, 22.2959668], [98.8555763, 22.2956293], [98.8551686, 22.2956293], [98.8547502, 22.2955399], [98.8544283, 22.2952918], [98.8540314, 22.2947954], [98.8536022, 22.2932468], [98.8537953, 22.2929788], [98.8546, 22.2930681], [98.8549326, 22.2928299], [98.8549326, 22.2923931], [98.8549111, 22.2912912], [98.8545893, 22.2911026], [98.8541494, 22.2910331], [98.8537202, 22.2911522], [98.8530121, 22.2913806], [98.852937, 22.2911721], [98.8514886, 22.2911026], [98.8504158, 22.2912019], [98.8500081, 22.2914004], [98.8496111, 22.2912813], [98.8494823, 22.2908842], [98.8498149, 22.2901893], [98.8502977, 22.28873], [98.8505552, 22.2884719], [98.8508235, 22.2878465], [98.8509737, 22.287509], [98.8516281, 22.2873501], [98.8521002, 22.2870523], [98.8525293, 22.2869729], [98.8529156, 22.2873402], [98.853731, 22.2878564], [98.8539992, 22.2878465], [98.8543318, 22.287638], [98.8543211, 22.2873303], [98.8540099, 22.2868438], [98.8541065, 22.2864467], [98.8540743, 22.2855334], [98.8538919, 22.285176], [98.8535808, 22.2847591], [98.8529156, 22.2845605], [98.8520895, 22.2842329], [98.851671, 22.2839748], [98.8517247, 22.2836174], [98.85195, 22.2831806], [98.8522826, 22.2829522], [98.8523684, 22.2826743], [98.8522611, 22.2824956], [98.8517676, 22.282307], [98.8508771, 22.2820389], [98.8506947, 22.2816219], [98.8502548, 22.281195], [98.8498579, 22.2808178], [98.8499222, 22.28052], [98.8505445, 22.2799342], [98.8512419, 22.2791003], [98.8512204, 22.2787329], [98.8509629, 22.2779486], [98.8509415, 22.2776309], [98.8512097, 22.2775416], [98.8528941, 22.2778196], [98.8531945, 22.2776905], [98.8533769, 22.2775416], [98.8534413, 22.277075], [98.8532374, 22.2764892], [98.8528297, 22.2759928], [98.8524328, 22.2757148], [98.8522826, 22.2753574], [98.852937, 22.2742256], [98.8536237, 22.27362], [98.8539885, 22.273471], [98.8543747, 22.2737887], [98.8546966, 22.2739575], [98.8549541, 22.2737987], [98.8549433, 22.2735107], [98.8544176, 22.2727761], [98.8544283, 22.272369], [98.8550292, 22.2711776], [98.8551794, 22.2706216], [98.8549862, 22.2702046], [98.8545785, 22.270006], [98.8542996, 22.2698769], [98.8541494, 22.2695791], [98.8544498, 22.2692316], [98.8545571, 22.2687451], [98.8545678, 22.2682586], [98.8553618, 22.2666501], [98.8551334, 22.2661052], [98.8543115, 22.2655866], [98.8536577, 22.265189], [98.8533401, 22.2644629], [98.8533215, 22.2637541], [98.8532094, 22.2631663], [98.8524248, 22.2623538], [98.8516776, 22.2622847], [98.8504821, 22.2618006], [98.8496415, 22.2613684], [98.84938, 22.2609881], [98.8492866, 22.2598817], [98.8491185, 22.2582566], [98.8490251, 22.2580146], [98.8492492, 22.2575824], [98.8496789, 22.2569773], [98.8501272, 22.2564932], [98.8502766, 22.255819], [98.8496228, 22.2553522], [98.8500711, 22.2537962], [98.8509491, 22.2521365], [98.8511172, 22.2506324], [98.850837, 22.2496642], [98.8507436, 22.248575], [98.8498096, 22.2463446], [98.8494173, 22.2451171], [98.8490251, 22.2444082], [98.8493239, 22.2438376], [98.8503513, 22.243682], [98.8505568, 22.2432325], [98.8510238, 22.2422642], [98.8511172, 22.2416072], [98.8513414, 22.2412268], [98.8530413, 22.24076], [98.8533588, 22.2402413], [98.8538258, 22.2394632], [98.8545357, 22.2384604], [98.8553949, 22.2378898], [98.8568409, 22.237305], [98.857478, 22.2366632], [98.8571098, 22.236094], [98.8570438, 22.2355611], [98.8572567, 22.2354454], [98.8573567, 22.2353975], [98.8581111, 22.2354342], [98.8587797, 22.2360469], [98.8604436, 22.2368568], [98.8615769, 22.2367513], [98.8654138, 22.2382987], [98.8664731, 22.23995], [98.8709581, 22.2403902], [98.8814616, 22.2464504], [98.8940605, 22.2506415], [98.896631, 22.2553942], [98.9014993, 22.2564585], [98.9049996, 22.2547252], [98.9070834, 22.2519036], [98.9090352, 22.2509609], [98.911776, 22.2499848], [98.9132489, 22.2509296], [98.9174723, 22.2498006], [98.9180786, 22.2507223], [98.9191022, 22.2496263], [98.9216207, 22.2490245], [98.9224668, 22.2472774], [98.9271887, 22.2440179], [98.9283536, 22.2414555], [98.9270361, 22.2384697], [98.9264567, 22.2339435], [98.9286482, 22.2303583], [98.9293957, 22.2275511], [98.9325577, 22.2256171], [98.9348068, 22.2210405], [98.9394878, 22.2142227], [98.9412047, 22.2152824], [98.9481613, 22.2177823], [98.9495467, 22.2195857], [98.9503479, 22.2212873], [98.9519501, 22.2237078], [98.9535643, 22.2276776], [98.9566542, 22.2311734], [98.9587141, 22.2341925], [98.9630057, 22.2357815], [98.964379, 22.2384827], [98.9672972, 22.2403894], [98.9697005, 22.2410249], [98.9715887, 22.2426138], [98.9751936, 22.2422961], [98.9772536, 22.2429316], [98.9801718, 22.2422961], [98.98618, 22.2429316], [98.9915015, 22.2476981], [98.9956213, 22.2486514], [98.9981963, 22.249287], [99.0038611, 22.2464271], [99.0067793, 22.2422961], [99.0100409, 22.2419783], [99.016049, 22.2421372], [99.0211895, 22.2446854], [99.023356, 22.2456621], [99.0238233, 22.2458727], [99.0260648, 22.2474223], [99.0278814, 22.2503503], [99.0309836, 22.2532589], [99.0313269, 22.2542122], [99.029267, 22.2573896], [99.0286021, 22.259027], [99.0281129, 22.2623756], [99.0272225, 22.2639168], [99.0239891, 22.2665126], [99.023418, 22.2672534], [99.02297, 22.2688328], [99.0223184, 22.2704925], [99.0206673, 22.2719376], [99.0196206, 22.2724127], [99.0187255, 22.2731968], [99.0184064, 22.274588], [99.0176244, 22.2769407], [99.0177605, 22.2800698], [99.017206, 22.2818961], [99.017469, 22.2839383], [99.0161658, 22.2867684], [99.0161312, 22.287991], [99.0169482, 22.2893162], [99.0182786, 22.2902458], [99.0183512, 22.2907303], [99.0175401, 22.2920437], [99.0161609, 22.2928884], [99.0138174, 22.2939252], [99.0124062, 22.2948887], [99.0119292, 22.2956723], [99.0115671, 22.2960861], [99.0109555, 22.2979811], [99.0106568, 22.299139], [99.0098437, 22.3001081], [99.0096755, 22.3011129], [99.0101719, 22.3022817], [99.0098604, 22.3027972], [99.0093768, 22.303034], [99.0093626, 22.3035209], [99.0099172, 22.3041262], [99.0101464, 22.305493], [99.010543, 22.3066657], [99.0111119, 22.3071789], [99.01188, 22.3073105], [99.0135582, 22.3070473], [99.0144542, 22.3072315], [99.0152933, 22.3079947], [99.0153645, 22.3089815], [99.0160187, 22.3097447], [99.0170569, 22.3103631], [99.0181521, 22.3107973], [99.0196739, 22.3120868], [99.0217646, 22.3126394], [99.0224615, 22.3122973], [99.0234286, 22.3129157], [99.0250784, 22.3149025], [99.0258749, 22.3154945], [99.0268136, 22.3157708], [99.0271122, 22.3162314], [99.0271407, 22.3185733], [99.0273682, 22.3194812], [99.0279656, 22.3215731], [99.0278376, 22.3251517], [99.0278234, 22.3261121], [99.0272687, 22.3269409], [99.02633, 22.3277566], [99.0256758, 22.328546], [99.0252775, 22.3297432], [99.0258607, 22.3308483], [99.0268989, 22.3322033], [99.0280367, 22.3331242], [99.0290011, 22.3335719], [99.0298195, 22.3337892], [99.0305597, 22.3336641], [99.0318693, 22.3332954], [99.0324885, 22.3333152], [99.0329938, 22.3333086], [99.033435, 22.3329597], [99.0335418, 22.3325515], [99.0335774, 22.3320775], [99.0342677, 22.3309715], [99.0348513, 22.3306752], [99.0357766, 22.3304843], [99.0369722, 22.3300432], [99.0383957, 22.3302078], [99.0396127, 22.3305962], [99.0409365, 22.3309057], [99.0415841, 22.3312941], [99.0441107, 22.3312875], [99.0446659, 22.3310176], [99.0458046, 22.3305633], [99.0470003, 22.3308201], [99.0476835, 22.3311427], [99.0485447, 22.3317022], [99.0487867, 22.3322289], [99.0499468, 22.3328412], [99.0506443, 22.3338879], [99.0512706, 22.3353691], [99.0516507, 22.3358874], [99.0527141, 22.3409762], [99.0502409, 22.3428782], [99.0429639, 22.349125], [99.0435246, 22.3546659], [99.0407221, 22.3631134], [99.0433895, 22.3658507], [99.0397618, 22.3727046], [99.0381487, 22.3763297], [99.0401631, 22.379556], [99.0456247, 22.3845116], [99.0429639, 22.3880155], [99.0518511, 22.3932588], [99.0515157, 22.3996467], [99.0459084, 22.4006823], [99.0461774, 22.4024186], [99.0429367, 22.404571], [99.0422591, 22.4118007], [99.0440517, 22.4148166], [99.0437097, 22.4160899], [99.0438874, 22.4195331], [99.0353283, 22.4212484], [99.0327897, 22.4248347], [99.0344998, 22.4298279], [99.032274, 22.4333016], [99.0356807, 22.4379705], [99.034271, 22.4415536], [99.0285149, 22.4437251], [99.0256488, 22.442903], [99.0251082, 22.4427479], [99.0240654, 22.4431639], [99.0234529, 22.4437629], [99.0234315, 22.44425], [99.0236523, 22.4445989], [99.0240868, 22.4446582], [99.0249557, 22.4448096], [99.0253403, 22.445007], [99.0255041, 22.4456324], [99.0252405, 22.4467316], [99.0249699, 22.4470081], [99.0246067, 22.4469094], [99.0241936, 22.4464684], [99.0237378, 22.4464025], [99.0235455, 22.4470476], [99.0235384, 22.4480218], [99.0234814, 22.4488841], [99.023574, 22.449437], [99.0232321, 22.4505494], [99.0231609, 22.4510233], [99.0229615, 22.4512471], [99.022235, 22.4518198], [99.0223775, 22.4527413], [99.0228048, 22.4537747], [99.0221994, 22.4552162], [99.0219644, 22.4559204], [99.0223134, 22.4570328], [99.0234102, 22.4585598], [99.0234387, 22.4590008], [99.0230469, 22.4604356], [99.0230469, 22.4609293], [99.0225057, 22.4614624], [99.0225626, 22.4617783], [99.0231395, 22.4626076], [99.0250554, 22.4636344], [99.0253474, 22.4642794], [99.0256679, 22.4646019], [99.0254328, 22.4650626], [99.0255041, 22.4655364], [99.0266578, 22.4663723], [99.0276122, 22.467116], [99.0288799, 22.4685705], [99.0297274, 22.4698407], [99.0301975, 22.4702158], [99.0307245, 22.471203], [99.0312516, 22.4717295], [99.0313869, 22.4722758], [99.0311091, 22.4730326], [99.0313085, 22.4737763], [99.0318356, 22.4743686], [99.0318641, 22.4749412], [99.0311661, 22.47631], [99.030696, 22.4777184], [99.0295067, 22.4788371], [99.0295209, 22.4795808], [99.0290508, 22.4805745], [99.0290366, 22.4809496], [99.0294782, 22.4815024], [99.0309097, 22.4825487], [99.031686, 22.4827922], [99.0324552, 22.4828514], [99.0326688, 22.4833252], [99.0326261, 22.4843518], [99.0328398, 22.4858983], [99.0326546, 22.4870104], [99.032968, 22.4878132], [99.0342001, 22.4880435], [99.0355034, 22.4886095], [99.0362512, 22.4893004], [99.0347279, 22.4893963], [99.0326597, 22.4895265], [99.0293552, 22.4883965], [99.0279175, 22.4890706], [99.025643, 22.4889318], [99.0239908, 22.4908945], [99.0209652, 22.4924607], [99.0174676, 22.495831], [99.0195919, 22.4973773], [99.0239908, 22.5022938], [99.0293123, 22.5027101], [99.0364575, 22.5071104], [99.0313568, 22.5099297], [99.0299547, 22.5164763], [99.0345047, 22.5183918], [99.0348504, 22.5225624], [99.0348354, 22.5287421], [99.0346209, 22.5296935], [99.0328613, 22.5310214], [99.0296427, 22.5333601], [99.0274969, 22.5345097], [99.024686, 22.5360358], [99.0255013, 22.5363925], [99.0261236, 22.5377996], [99.0288058, 22.5415057], [99.0272823, 22.5419814], [99.0262953, 22.542675], [99.0249005, 22.5426552], [99.0222398, 22.5429723], [99.0196863, 22.5447361], [99.0199438, 22.5459648], [99.0213171, 22.5474115], [99.0211025, 22.5483825], [99.0218535, 22.5492347], [99.0220037, 22.5517713], [99.0218086, 22.5520549], [99.0195361, 22.5553581], [99.0184632, 22.5574784], [99.0173689, 22.5593015], [99.0177551, 22.5613028], [99.0147296, 22.5628484], [99.011232, 22.5622936], [99.0055886, 22.5615803], [99.0012113, 22.5620756], [99.0009538, 22.5640175], [99.0005119, 22.5650322], [99.0001598, 22.5658405], [98.9988154, 22.56534], [98.9966494, 22.5650655], [98.9957576, 22.5652354], [98.9946245, 22.5660999], [98.9929256, 22.5676556], [98.9916798, 22.5687668], [98.9895139, 22.5707669], [98.9871072, 22.5716819], [98.9860171, 22.5724271], [98.9861021, 22.573133], [98.9861304, 22.5737212], [98.9853659, 22.5741787], [98.9846156, 22.5741003], [98.9838936, 22.5737473], [98.982308, 22.5751199], [98.9809065, 22.5759565], [98.9798023, 22.5774598], [98.9787972, 22.5788977], [98.9784574, 22.5797996], [98.978061, 22.5811591], [98.977424, 22.581695], [98.9768718, 22.5820741], [98.9761923, 22.5822179], [98.9755411, 22.5820087], [98.9751447, 22.5813421], [98.9747766, 22.5812114], [98.973998, 22.5814074], [98.973007, 22.5821264], [98.971832, 22.5823224], [98.9707561, 22.5818257], [98.968307, 22.5821002], [98.966594, 22.5821656], [98.9643856, 22.5819434], [98.9619789, 22.5820349], [98.9608464, 22.5819564], [98.9583831, 22.5819172], [98.9563728, 22.5817734], [98.9549288, 22.580048], [98.9539803, 22.5796036], [98.9521966, 22.5797343], [98.9496767, 22.580414], [98.9482327, 22.5806754], [98.947355, 22.5806624], [98.9439432, 22.5801003], [98.9419187, 22.5804794], [98.941126, 22.580414], [98.9392997, 22.5795382], [98.9389458, 22.5789369], [98.9385353, 22.5779304], [98.9382097, 22.577133], [98.9378133, 22.5751591], [98.9366383, 22.5741657], [98.9358172, 22.5736166], [98.9354633, 22.5697864], [98.9347696, 22.56827], [98.9324903, 22.5668581], [98.9310039, 22.5661522], [98.92813, 22.564858], [98.9264454, 22.563786], [98.925143, 22.562361], [98.9240246, 22.5620603], [98.9224956, 22.5622303], [98.9201031, 22.5624917], [98.9184468, 22.5630147], [98.9125434, 22.5644004], [98.9124585, 22.563433], [98.9101085, 22.5645704], [98.9077867, 22.5649233], [98.9056491, 22.5651325], [98.9043608, 22.565041], [98.9025912, 22.5649103], [98.9007933, 22.5650933], [98.8984008, 22.5630931], [98.8954562, 22.5597856], [98.8939131, 22.5580337], [98.8916338, 22.5574715], [98.8904871, 22.5561772], [98.8903456, 22.5546606], [98.8905721, 22.5541638], [98.8892272, 22.552438], [98.8884344, 22.5514183], [98.885957, 22.5505815], [98.882078, 22.5492479], [98.881894, 22.5489472], [98.8820803, 22.5486156], [98.8826726, 22.5475613], [98.8828142, 22.5462407], [98.8829557, 22.5451686], [98.8822825, 22.5440702], [98.881192, 22.5428615], [98.8810242, 22.5417924], [98.8805545, 22.5410486], [98.8796317, 22.539654], [98.8785748, 22.5373606], [98.8786251, 22.5370352], [98.8789774, 22.535935], [98.8790948, 22.5352996], [98.8793465, 22.5349122], [98.8795982, 22.5341219], [98.8793968, 22.5331611], [98.8791955, 22.5325878], [98.879011, 22.5316425], [98.8790613, 22.5312396], [98.8795814, 22.5302943], [98.8796821, 22.5295659], [98.8795982, 22.5286516], [98.8794807, 22.5278923], [98.8793297, 22.5273963], [98.8778701, 22.5271949], [98.8762259, 22.5271329], [98.8759072, 22.5271329], [98.8749173, 22.5270089], [98.874112, 22.5275048], [98.8734409, 22.5282177], [98.8730886, 22.5293335], [98.8723336, 22.5298759], [98.8711257, 22.5301703], [98.8699177, 22.5304647], [98.8689614, 22.5318439], [98.8684916, 22.5320299], [98.8674347, 22.5319834], [98.867334, 22.5326652], [98.8681058, 22.533781], [98.8680051, 22.5345403], [98.8671998, 22.5352531], [98.8663274, 22.5361364], [98.8642806, 22.5365393], [98.8629384, 22.5375465], [98.8618479, 22.5380269], [98.8613613, 22.5385073], [98.8600863, 22.5388327], [98.8583414, 22.5386777], [98.8579388, 22.537903], [98.8571838, 22.5375775], [98.8562778, 22.5381044], [98.8552544, 22.537655], [98.8548518, 22.5368647], [98.854231, 22.5360899], [98.8533754, 22.535625], [98.8511776, 22.5342614], [98.8506575, 22.533595], [98.8500543, 22.5332716], [98.8496069, 22.5330317], [98.8492899, 22.5328617], [98.8484065, 22.5326116], [98.8479362, 22.5321576], [98.8466075, 22.5317], [98.8457276, 22.5315324], [98.8448231, 22.5312931], [98.8443801, 22.5306204], [98.8440743, 22.5302147], [98.8425428, 22.5299003], [98.8415524, 22.5293277], [98.8410965, 22.5288407], [98.8407402, 22.5285512], [98.840156, 22.5285446], [98.8396858, 22.5284854], [98.8388237, 22.528051], [98.8384603, 22.5276035], [98.8380538, 22.5272552], [98.837185, 22.5267216], [98.8369641, 22.5265703], [98.8365794, 22.5264913], [98.8363157, 22.5265242], [98.8358883, 22.5262215], [98.8357173, 22.52582], [98.8350618, 22.525412], [98.8346967, 22.5249115], [98.8351977, 22.5242858], [98.8351896, 22.5241041], [98.8349673, 22.5237465], [98.8343018, 22.5233945], [98.8338506, 22.52351], [98.8334658, 22.52351], [98.8329457, 22.5238588], [98.8322332, 22.5241879], [98.8316561, 22.5243261], [98.8307195, 22.5243473], [98.829696, 22.5234434], [98.8287608, 22.5229971], [98.8280543, 22.5225667], [98.8272174, 22.5219436], [98.8267614, 22.5216277], [98.8259777, 22.5216409], [98.8254861, 22.5222398], [98.8251726, 22.5223977], [98.8236194, 22.5224833], [98.8229639, 22.5227926], [98.8223156, 22.523023], [98.8218667, 22.5229703], [98.821254, 22.5230756], [98.8206127, 22.5234047], [98.8196509, 22.5236482], [98.8186178, 22.5241023], [98.817599, 22.5243261], [98.81663, 22.5248328], [98.8163211, 22.525156], [98.8162255, 22.525256], [98.8136339, 22.5223819], [98.8100979, 22.519805], [98.8084987, 22.5177204], [98.8067001, 22.5146822], [98.8040565, 22.5139451], [98.8024574, 22.5128453], [98.8021356, 22.5112496], [98.8005894, 22.5105491]]]]}}