{"type": "Feature", "properties": {"core_id": 6469, "public_id": "bff2d3f6-0fdb-44e3-954e-e3ee67dd7699", "canonical_name": "\u1015\u1014\u103a\u1001\u1019\u103a\u1038\u1021\u1011\u1030\u1038\u1019\u103c\u102d\u102f\u1037\u1014\u101a\u103a", "aliases": "en:Pangkham Special Township | my:\u1015\u1014\u103a\u1001\u1019\u103a\u1038\u1021\u1011\u1030\u1038\u1019\u103c\u102d\u102f\u1037\u1014\u101a\u103a | my:\u1015\u1014\u103a\u1001\u1019\u103a\u1038\u1021\u1011\u1030\u1038\u1019\u103c\u102d\u102f\u1037\u1014\u101a\u103a", "parent_name": "\u1019\u1000\u103a\u1019\u1014\u103a\u1038\u1001\u101b\u102d\u102f\u1004\u103a", "gparent_name": "\u101b\u103e\u1019\u103a\u1038\u1015\u103c\u100a\u103a\u1014\u101a\u103a", "overlap_of_source": 0.17, "overlap_of_core": 0.9852, "centroid_dist_m": 36527.2, "child_admins": 0, "settlements": 13, "postal": 0}, "geometry": {"type": "MultiPolygon", "coordinates": [[[[98.9390811, 22.2098014], [98.939863, 22.2051464], [98.9436648, 22.198031], [98.9521976, 22.1967228], [98.9573229, 22.1947491], [98.9619763, 22.1906248], [98.9672396, 22.1884105], [98.9657793, 22.1843037], [98.9686066, 22.1767542], [98.9733111, 22.1699436], [98.973466, 22.1659599], [98.9753318, 22.1598422], [98.9770377, 22.1569372], [98.9813125, 22.1549956], [98.9846269, 22.1494152], [98.9918403, 22.1431173], [98.9961675, 22.1430744], [98.9970977, 22.1406449], [98.9991237, 22.1402499], [99.0007389, 22.1412836], [99.0036421, 22.1401019], [99.0050604, 22.1396382], [99.0077737, 22.1405673], [99.0118959, 22.1391342], [99.0126454, 22.1393891], [99.0154353, 22.1382466], [99.0198236, 22.1401926], [99.0203985, 22.1413205], [99.02219, 22.1417013], [99.0234528, 22.1424085], [99.0252442, 22.142599], [99.0264344, 22.1432829], [99.0288271, 22.1429798], [99.0282104, 22.1410212], [99.0289739, 22.1400147], [99.0306159, 22.1406171], [99.0312646, 22.1417557], [99.03241, 22.1417013], [99.033291, 22.1404228], [99.034642, 22.1397971], [99.0350531, 22.1406132], [99.0382836, 22.1410212], [99.040633, 22.1409124], [99.0416609, 22.1404228], [99.0437265, 22.1412784], [99.0492149, 22.1405873], [99.0512055, 22.1411844], [99.0527326, 22.1434966], [99.053878, 22.1434422], [99.0556988, 22.1441767], [99.0576371, 22.1440407], [99.0603843, 22.1448778], [99.0623653, 22.1440679], [99.0642107, 22.1420091], [99.0651071, 22.1429559], [99.0641861, 22.1459448], [99.0654489, 22.1461896], [99.0677984, 22.1452919], [99.0699832, 22.1474821], [99.0718805, 22.1464072], [99.0738188, 22.1469512], [99.0752994, 22.1481464], [99.075992, 22.14774], [99.0789582, 22.1486921], [99.079898, 22.1482841], [99.0825929, 22.1448843], [99.0838333, 22.1443943], [99.0843032, 22.1457544], [99.0854485, 22.1461896], [99.0888552, 22.1461624], [99.0921683, 22.1475967], [99.0956613, 22.1477745], [99.1004015, 22.1494041], [99.1020357, 22.1493226], [99.1104995, 22.1513869], [99.1126432, 22.1510313], [99.1165492, 22.1533977], [99.1193297, 22.1527576], [99.1192539, 22.1516528], [99.1185168, 22.1514393], [99.1186637, 22.1508409], [99.1192216, 22.1507049], [99.1212187, 22.1511673], [99.122922, 22.1515753], [99.1235681, 22.1511945], [99.1228026, 22.1492089], [99.1231224, 22.1494629], [99.125069, 22.1510093], [99.1284054, 22.1548709], [99.1346332, 22.1563396], [99.1399554, 22.1584296], [99.1413357, 22.1598984], [99.1430921, 22.160233], [99.1448909, 22.160266], [99.1452128, 22.1605392], [99.14546, 22.160847], [99.1457442, 22.1617523], [99.1500242, 22.1638236], [99.1503002, 22.1638269], [99.1505516, 22.1638302], [99.1510544, 22.1638083], [99.1521955, 22.1637302], [99.1540035, 22.1641903], [99.156375, 22.164089], [99.1573145, 22.1645971], [99.1575961, 22.1647494], [99.1580939, 22.166196], [99.1564162, 22.1682505], [99.1566753, 22.1685594], [99.1587324, 22.169437], [99.1613083, 22.1695579], [99.1630635, 22.1681017], [99.1653402, 22.1675115], [99.1675632, 22.168829], [99.1694987, 22.1689423], [99.1715325, 22.1695334], [99.1755066, 22.1686017], [99.1769336, 22.1674908], [99.1774423, 22.1658801], [99.181251, 22.1655303], [99.1889347, 22.1663932], [99.1910445, 22.1675666], [99.193563, 22.1678653], [99.1952846, 22.1687047], [99.1976474, 22.171129], [99.1977974, 22.1712829], [99.1987305, 22.1709692], [99.1996045, 22.1712404], [99.200154, 22.1728412], [99.2003854, 22.173515], [99.2004514, 22.1737074], [99.200314, 22.1748201], [99.1984149, 22.1751512], [99.1956023, 22.1747333], [99.1948267, 22.1742544], [99.1940516, 22.1729999], [99.1929646, 22.1719543], [99.1920634, 22.1716006], [99.1907741, 22.1712712], [99.190014, 22.1716537], [99.1892882, 22.1731071], [99.1887108, 22.1747396], [99.187172, 22.1765918], [99.1869554, 22.1767595], [99.1867388, 22.1768307], [99.1863327, 22.1768229], [99.1860403, 22.1767186], [99.1841598, 22.1758524], [99.1833936, 22.175682], [99.1826747, 22.1756431], [99.1819322, 22.1757446], [99.1811802, 22.1759339], [99.1748173, 22.1789799], [99.1744763, 22.1791787], [99.1742172, 22.1794583], [99.1740531, 22.1797906], [99.1739934, 22.1801549], [99.1740509, 22.1805193], [99.1742515, 22.1809069], [99.1745832, 22.1812107], [99.1749928, 22.1813924], [99.1754551, 22.1814362], [99.1773221, 22.1812561], [99.1778196, 22.1814245], [99.1781932, 22.1817534], [99.1785087, 22.1824907], [99.1787062, 22.1832778], [99.1786336, 22.184205], [99.1784594, 22.1850114], [99.1780879, 22.1856155], [99.1757654, 22.1880017], [99.1742056, 22.1891139], [99.1740034, 22.189303], [99.1738724, 22.1895399], [99.1738249, 22.1898024], [99.1738652, 22.1900658], [99.1740048, 22.1903253], [99.1742286, 22.190528], [99.1745119, 22.1906513], [99.1764885, 22.1909223], [99.1777211, 22.1913601], [99.1787887, 22.1922054], [99.1823068, 22.1975661], [99.1834569, 22.1993383], [99.1857185, 22.2000992], [99.1866777, 22.2006475], [99.1871769, 22.2022407], [99.1888042, 22.201926], [99.1905719, 22.2036937], [99.1905719, 22.2086937], [99.1921511, 22.210273], [99.1928489, 22.210273], [99.1935948, 22.209527], [99.1935948, 22.2086937], [99.1945833, 22.2077051], [99.1955719, 22.2086937], [99.1955719, 22.2153604], [99.1997385, 22.219527], [99.1997385, 22.2203604], [99.2013178, 22.2219396], [99.2029845, 22.2219396], [99.2047385, 22.2236937], [99.2047385, 22.2278604], [99.2055719, 22.2286937], [99.2055719, 22.2303604], [99.2064052, 22.2311937], [99.2064052, 22.232027], [99.2096511, 22.235273], [99.2161822, 22.235273], [99.2170155, 22.2344396], [99.2179845, 22.2344396], [99.2188178, 22.235273], [99.2204845, 22.235273], [99.2221511, 22.2369396], [99.2229845, 22.2369396], [99.2272385, 22.2411937], [99.2272385, 22.242027], [99.2288178, 22.2436063], [99.2296511, 22.2436063], [99.2330719, 22.247027], [99.2330719, 22.2478604], [99.2355719, 22.2503604], [99.2355719, 22.2538063], [99.2347385, 22.2546396], [99.2347385, 22.2588063], [99.2346531, 22.2588917], [99.2339052, 22.2596396], [99.2339052, 22.260473], [99.2330719, 22.2613063], [99.2330719, 22.2621396], [99.2314052, 22.2638063], [99.2314052, 22.2646396], [99.2305719, 22.265473], [99.2305719, 22.267027], [99.2314615, 22.2679167], [99.2306282, 22.26875], [99.2314052, 22.269527], [99.2314052, 22.2703604], [99.2322385, 22.2711937], [99.2322385, 22.2753604], [99.2330719, 22.2761937], [99.2330719, 22.2778604], [99.2339052, 22.2786937], [99.2339052, 22.2803604], [99.2355719, 22.282027], [99.2355719, 22.287973], [99.2347385, 22.2888063], [99.2347385, 22.2921396], [99.2330719, 22.2938063], [99.2330719, 22.297027], [99.2372385, 22.3011937], [99.2372385, 22.3036937], [99.2380719, 22.304527], [99.2380719, 22.3053605], [99.2414052, 22.3086938], [99.2414052, 22.3095271], [99.2446512, 22.3127731], [99.2463179, 22.3127731], [99.2472385, 22.3136938], [99.2472385, 22.3145271], [99.2489052, 22.3161938], [99.2489052, 22.3178605], [99.2504846, 22.3194397], [99.2513179, 22.3194397], [99.2522385, 22.3203605], [99.2522385, 22.3211938], [99.2530719, 22.3220271], [99.2530719, 22.3261938], [99.2539052, 22.3270271], [99.2539052, 22.3295271], [99.2547948, 22.3304167], [99.2539052, 22.3313062], [99.2539052, 22.3320271], [99.2646512, 22.3427731], [99.2654846, 22.3427731], [99.2679846, 22.3452731], [99.2696512, 22.3452731], [99.2704846, 22.3461064], [99.2729846, 22.3461064], [99.2738179, 22.3469397], [99.2763179, 22.3469397], [99.2780719, 22.3486938], [99.2780719, 22.3621395], [99.2772385, 22.3629729], [99.2772385, 22.3638062], [99.2721512, 22.3688936], [99.2713179, 22.3688936], [99.2664052, 22.3738062], [99.2664052, 22.3746395], [99.2638179, 22.3772269], [99.2629846, 22.3772269], [99.2613179, 22.3788935], [99.2604846, 22.3788935], [99.2518702, 22.3626007], [99.2398335, 22.3655283], [99.2256337, 22.3612083], [99.2158679, 22.3615988], [99.2092271, 22.3615986], [99.2018052, 22.3584732], [99.1932115, 22.3514414], [99.1885238, 22.3541758], [99.179539, 22.3639418], [99.1748512, 22.3729267], [99.1717259, 22.3799583], [99.1639133, 22.3807394], [99.1510224, 22.3807391], [99.140866, 22.3799576], [99.1346159, 22.3776136], [99.1338348, 22.3705819], [99.1322725, 22.3647221], [99.1217254, 22.3655032], [99.1080532, 22.3655029], [99.0971155, 22.3658933], [99.0935998, 22.3643306], [99.0939906, 22.3580802], [99.0933313, 22.3490535], [99.0853939, 22.3511219], [99.0820131, 22.3473068], [99.0752277, 22.3396546], [99.0627344, 22.3340124], [99.0516507, 22.3358874], [99.0512706, 22.3353691], [99.0506443, 22.3338879], [99.0499468, 22.3328412], [99.0487867, 22.3322289], [99.0485447, 22.3317022], [99.0476835, 22.3311427], [99.0470003, 22.3308201], [99.0458046, 22.3305633], [99.0446659, 22.3310176], [99.0441107, 22.3312875], [99.0415841, 22.3312941], [99.0409365, 22.3309057], [99.0396127, 22.3305962], [99.0383957, 22.3302078], [99.0369722, 22.3300432], [99.0357766, 22.3304843], [99.0348513, 22.3306752], [99.0342677, 22.3309715], [99.0335774, 22.3320775], [99.0335418, 22.3325515], [99.033435, 22.3329597], [99.0329938, 22.3333086], [99.0324885, 22.3333152], [99.0318693, 22.3332954], [99.0305597, 22.3336641], [99.0298195, 22.3337892], [99.0290011, 22.3335719], [99.0280367, 22.3331242], [99.0268989, 22.3322033], [99.0258607, 22.3308483], [99.0252775, 22.3297432], [99.0256758, 22.328546], [99.02633, 22.3277566], [99.0272687, 22.3269409], [99.0278234, 22.3261121], [99.0278376, 22.3251517], [99.0279656, 22.3215731], [99.0273682, 22.3194812], [99.0271407, 22.3185733], [99.0271122, 22.3162314], [99.0268136, 22.3157708], [99.0258749, 22.3154945], [99.0250784, 22.3149025], [99.0234286, 22.3129157], [99.0224615, 22.3122973], [99.0217646, 22.3126394], [99.0196739, 22.3120868], [99.0181521, 22.3107973], [99.0170569, 22.3103631], [99.0160187, 22.3097447], [99.0153645, 22.3089815], [99.0152933, 22.3079947], [99.0144542, 22.3072315], [99.0135582, 22.3070473], [99.01188, 22.3073105], [99.0111119, 22.3071789], [99.010543, 22.3066657], [99.0101464, 22.305493], [99.0099172, 22.3041262], [99.0093626, 22.3035209], [99.0093768, 22.303034], [99.0098604, 22.3027972], [99.0101719, 22.3022817], [99.0096755, 22.3011129], [99.0098437, 22.3001081], [99.0106568, 22.299139], [99.0109555, 22.2979811], [99.0115671, 22.2960861], [99.0119292, 22.2956723], [99.0124062, 22.2948887], [99.0138174, 22.2939252], [99.0161609, 22.2928884], [99.0175401, 22.2920437], [99.0183512, 22.2907303], [99.0182786, 22.2902458], [99.0169482, 22.2893162], [99.0161312, 22.287991], [99.0161658, 22.2867684], [99.017469, 22.2839383], [99.017206, 22.2818961], [99.0177605, 22.2800698], [99.0176244, 22.2769407], [99.0184064, 22.274588], [99.0187255, 22.2731968], [99.0196206, 22.2724127], [99.0206673, 22.2719376], [99.0223184, 22.2704925], [99.02297, 22.2688328], [99.023418, 22.2672534], [99.0239891, 22.2665126], [99.0272225, 22.2639168], [99.0281129, 22.2623756], [99.0286021, 22.259027], [99.029267, 22.2573896], [99.0313269, 22.2542122], [99.0309836, 22.2532589], [99.0278814, 22.2503503], [99.0260648, 22.2474223], [99.0238233, 22.2458727], [99.023356, 22.2456621], [99.0211895, 22.2446854], [99.016049, 22.2421372], [99.0100409, 22.2419783], [99.0067793, 22.2422961], [99.0038611, 22.2464271], [98.9981963, 22.249287], [98.9956213, 22.2486514], [98.9915015, 22.2476981], [98.98618, 22.2429316], [98.9801718, 22.2422961], [98.9772536, 22.2429316], [98.9751936, 22.2422961], [98.9715887, 22.2426138], [98.9697005, 22.2410249], [98.9672972, 22.2403894], [98.964379, 22.2384827], [98.9630057, 22.2357815], [98.9587141, 22.2341925], [98.9566542, 22.2311734], [98.9535643, 22.2276776], [98.9519501, 22.2237078], [98.9503479, 22.2212873], [98.9495467, 22.2195857], [98.9481613, 22.2177823], [98.9412047, 22.2152824], [98.9394878, 22.2142227], [98.9390811, 22.2098014]]]]}}