{"type": "Feature", "properties": {"core_id": 6484, "public_id": "83bff115-fe01-47ed-acdc-9a49e678ca03", "canonical_name": "\u1015\u1014\u103a\u1006\u1014\u103a\u1038 (\u1015\u1014\u103a\u1001\u1019\u103a\u1038)", "aliases": "en:Man Man Hsai Township | en:Pangsang (Panghkam) | my:\u1015\u1014\u103a\u1006\u1014\u103a\u1038 (\u1015\u1014\u103a\u1001\u1019\u103a\u1038) | my:\u1019\u1014\u103a\u1019\u1014\u103a\u1006\u102d\u102f\u1004\u103a\u1019\u103c\u102d\u102f\u1037\u1014\u101a\u103a | my:\u1019\u1014\u103a\u1019\u1014\u103a\u1006\u102d\u102f\u1004\u103a\u1019\u103c\u102d\u102f\u1037\u1014\u101a\u103a", "parent_name": "\u1019\u1000\u103a\u1019\u1014\u103a\u1038\u1001\u101b\u102d\u102f\u1004\u103a", "gparent_name": "\u101b\u103e\u1019\u103a\u1038\u1015\u103c\u100a\u103a\u1014\u101a\u103a", "overlap_of_source": 0.1988, "overlap_of_core": 0.9977, "centroid_dist_m": 20827.9, "child_admins": 0, "settlements": 10, "postal": 0}, "geometry": {"type": "MultiPolygon", "coordinates": [[[[99.159627267, 22.166708463], [99.158440684, 22.165488975], [99.15627978, 22.163268147], [99.156375, 22.164089], [99.1573145, 22.1645971], [99.1575961, 22.1647494], [99.1580939, 22.166196], [99.1564162, 22.1682505], [99.1566753, 22.1685594], [99.1587324, 22.169437], [99.1613083, 22.1695579], [99.1630635, 22.1681017], [99.1653402, 22.1675115], [99.1675632, 22.168829], [99.1694987, 22.1689423], [99.1715325, 22.1695334], [99.1755066, 22.1686017], [99.176527719, 22.167806773], [99.173635718, 22.168591485], [99.167434389, 22.167144139], [99.159787354, 22.166872989], [99.159627267, 22.166708463]]], [[[99.1920634, 22.1716006], [99.1907741, 22.1712712], [99.190014, 22.1716537], [99.1892882, 22.1731071], [99.189146494, 22.173507749], [99.19424269, 22.174025734], [99.194595097, 22.17387955], [99.1940516, 22.1729999], [99.1929646, 22.1719543], [99.1920634, 22.1716006]]], [[[99.181854376, 22.17576419], [99.183929145, 22.175801103], [99.1833936, 22.175682], [99.1826747, 22.1756431], [99.1819322, 22.1757446], [99.181854376, 22.17576419]]], [[[99.1742172, 22.1794583], [99.1740531, 22.1797906], [99.1739934, 22.1801549], [99.1740509, 22.1805193], [99.1742515, 22.1809069], [99.1745832, 22.1812107], [99.1749928, 22.1813924], [99.1754551, 22.1814362], [99.1761981, 22.181364527], [99.175939612, 22.180405792], [99.176472365, 22.1781876], [99.1748173, 22.1789799], [99.1744763, 22.1791787], [99.1742172, 22.1794583]]], [[[99.1738724, 22.1895399], [99.1738249, 22.1898024], [99.1738652, 22.1900658], [99.1740048, 22.1903253], [99.1742286, 22.190528], [99.1745119, 22.1906513], [99.17570407, 22.190814751], [99.174901979, 22.188932956], [99.174798815, 22.188690914], [99.1742056, 22.1891139], [99.1740034, 22.189303], [99.1738724, 22.1895399]]], [[[99.182041196, 22.197161387], [99.1823068, 22.1975661], [99.1834569, 22.1993383], [99.185177279, 22.19991711], [99.182041196, 22.197161387]]], [[[99.1935948, 22.209003364], [99.192014688, 22.21013658], [99.1921511, 22.210273], [99.1928489, 22.210273], [99.1935948, 22.209527], [99.1935948, 22.209003364]]], [[[98.5224587, 22.7769121], [98.5302272, 22.7803835], [98.5392746, 22.7853595], [98.5428973, 22.792806], [98.5431039, 22.7942974], [98.5436378, 22.7981278], [98.5439841, 22.802813], [98.5479847, 22.8111313], [98.5532981, 22.8181564], [98.5570164, 22.82049], [98.566643, 22.8183826], [98.570726, 22.8210692], [98.5808927, 22.821323], [98.5897139, 22.8217754], [98.6048389, 22.8196423], [98.6073563, 22.8192873], [98.6126131, 22.8199509], [98.6130008, 22.8194694], [98.6136943, 22.8191168], [98.6138231, 22.8188893], [98.6141557, 22.8184493], [98.6144733, 22.8182727], [98.6149711, 22.8182663], [98.6153037, 22.8183454], [98.6156427, 22.8184409], [98.6160933, 22.8183618], [98.6165214, 22.8180784], [98.6169409, 22.8175706], [98.6170632, 22.8172428], [98.6173904, 22.8170252], [98.6177767, 22.816773], [98.618003, 22.8165322], [98.6185502, 22.8153554], [98.6187208, 22.8145282], [98.6193216, 22.8139645], [98.6198581, 22.8137271], [98.6201274, 22.8136445], [98.620417, 22.8126061], [98.6208033, 22.8117457], [98.6209953, 22.8111657], [98.6210178, 22.8106974], [98.6206638, 22.8099656], [98.6206734, 22.8096328], [98.6207496, 22.8086601], [98.6206638, 22.807948], [98.6207067, 22.8072656], [98.6205662, 22.8060724], [98.6205029, 22.8055744], [98.6202443, 22.8047669], [98.620373, 22.803679], [98.6201263, 22.803224], [98.6199332, 22.8025713], [98.6198151, 22.8017998], [98.6200083, 22.8009492], [98.6201907, 22.8003064], [98.6205769, 22.7993964], [98.6209524, 22.79907], [98.6212646, 22.798216], [98.621683, 22.7973258], [98.6222506, 22.7963798], [98.6223471, 22.795994], [98.6219834, 22.795318], [98.6215543, 22.7944773], [98.6213504, 22.7934091], [98.6204278, 22.7924101], [98.6199546, 22.7917211], [98.6198473, 22.7905837], [98.6198484, 22.7892449], [98.6196757, 22.7887439], [98.6192358, 22.7880614], [98.6189568, 22.7871118], [98.6186039, 22.7858126], [98.6188174, 22.7852027], [98.6196113, 22.7844905], [98.6199653, 22.7843521], [98.6203945, 22.7837091], [98.6204921, 22.7833792], [98.6201917, 22.7830231], [98.6194943, 22.7825285], [98.6190223, 22.7814899], [98.6185277, 22.7796732], [98.6184107, 22.779096], [98.6185921, 22.7781894], [98.6186564, 22.777675], [98.6191403, 22.7772264], [98.6189783, 22.7759538], [98.6190319, 22.7751624], [98.6193538, 22.7744007], [98.6191188, 22.7732794], [98.6192572, 22.7727289], [98.6201155, 22.7713043], [98.6207593, 22.7705723], [98.6210811, 22.7700678], [98.6209857, 22.7693322], [98.6209535, 22.7688376], [98.6213504, 22.7679472], [98.6216069, 22.7675649], [98.6217463, 22.766912], [98.6218965, 22.7660908], [98.6223579, 22.765339], [98.6227763, 22.7650719], [98.6235166, 22.7645277], [98.623699, 22.7641221], [98.6240326, 22.7636834], [98.6241496, 22.7622919], [98.624376, 22.7619026], [98.6245144, 22.7608771], [98.6246335, 22.7601811], [98.624848, 22.7596865], [98.6247408, 22.7589346], [98.6247504, 22.7584434], [98.6251163, 22.7580046], [98.6253834, 22.7573254], [98.6258662, 22.7567516], [98.6261355, 22.7558774], [98.6262203, 22.7551883], [98.6265529, 22.7542583], [98.6267674, 22.7532492], [98.6270142, 22.7526654], [98.6271108, 22.7520916], [98.6275721, 22.7518739], [98.6275624, 22.7508415], [98.6276375, 22.7502775], [98.6275302, 22.748922], [98.6272931, 22.7484802], [98.6273146, 22.7480053], [98.6271977, 22.7471113], [98.6270249, 22.746155], [98.6268758, 22.7454689], [98.6268211, 22.7443147], [98.6264681, 22.7431436], [98.626275, 22.742738], [98.6263275, 22.7419696], [98.6262213, 22.7414714], [98.6255669, 22.740294], [98.6255873, 22.7393376], [98.62576, 22.7386019], [98.6256312, 22.7381369], [98.6253405, 22.7370222], [98.6253083, 22.7367451], [98.6260057, 22.7359139], [98.6263608, 22.7353959], [98.6270474, 22.7339809], [98.6269294, 22.7331893], [98.62679, 22.7326054], [98.6266076, 22.7321008], [98.6266398, 22.7317247], [98.6264574, 22.7312399], [98.6261677, 22.730656], [98.6262846, 22.7303132], [98.6268854, 22.7297887], [98.6271966, 22.7291851], [98.6272406, 22.7282415], [98.6269713, 22.7277799], [98.6269509, 22.727341], [98.6273157, 22.7266186], [98.6271011, 22.7262228], [98.6269402, 22.7255103], [98.6270678, 22.725197], [98.6279047, 22.7245439], [98.6283231, 22.7233762], [98.6281514, 22.7227626], [98.6283564, 22.7217498], [98.6284733, 22.721397], [98.628999, 22.7210803], [98.6295902, 22.7206909], [98.6296975, 22.7201367], [98.6294078, 22.7193845], [98.6291288, 22.7187116], [98.629278, 22.7180322], [98.6297511, 22.7171381], [98.6297822, 22.7165774], [98.6295998, 22.7159737], [98.6295355, 22.7156372], [98.6295569, 22.7153601], [98.6298262, 22.7151191], [98.6302972, 22.7150236], [98.6309839, 22.715083], [98.6313486, 22.7151127], [98.6315739, 22.7149544], [98.6316394, 22.7146045], [98.6314141, 22.7138425], [98.6309088, 22.7132323], [98.630588, 22.7125064], [98.6300612, 22.7120744], [98.6299968, 22.7116884], [98.6299646, 22.7111837], [98.6302339, 22.7105666], [98.6301363, 22.7096793], [98.6312843, 22.7085313], [98.6313379, 22.7078682], [98.6311781, 22.7070234], [98.630942, 22.7064296], [98.6303305, 22.7062119], [98.6302865, 22.7058095], [98.6304581, 22.7053543], [98.6308551, 22.7049485], [98.6307693, 22.7045229], [98.629794, 22.7031734], [98.6297393, 22.7022563], [98.6301052, 22.7017679], [98.6303948, 22.701174], [98.6303519, 22.7006989], [98.6297618, 22.7001645], [98.6292136, 22.6993563], [98.6292576, 22.6985313], [98.6295033, 22.6980993], [98.6293853, 22.6977727], [98.6290108, 22.6971456], [98.628484, 22.6968324], [98.6284637, 22.6961657], [98.6288059, 22.6956149], [98.6292887, 22.6951497], [98.6296331, 22.6946117], [98.630147, 22.6939124], [98.6306835, 22.6935165], [98.6308015, 22.6925366], [98.6311459, 22.6915136], [98.6315525, 22.6910419], [98.6317671, 22.6902896], [98.6325406, 22.6894844], [98.6333335, 22.6890622], [98.6339665, 22.6887554], [98.6341167, 22.6879338], [98.6341274, 22.687617], [98.6344064, 22.6871716], [98.635093, 22.6865183], [98.6352765, 22.6860001], [98.6354685, 22.6856769], [98.6361026, 22.6852576], [98.6363161, 22.6847662], [98.6366927, 22.6843272], [98.6367678, 22.6838124], [98.6369384, 22.6835189], [98.6375177, 22.6831823], [98.6382162, 22.6827433], [98.6389125, 22.6824993], [98.6395347, 22.6822617], [98.6399371, 22.6819697], [98.6401742, 22.6815851], [98.6403083, 22.6813921], [98.6407482, 22.6809268], [98.641187, 22.6809402], [98.6415303, 22.6809303], [98.6419434, 22.6806482], [98.6421429, 22.6804665], [98.6422985, 22.6800508], [98.6423736, 22.6794915], [98.6425764, 22.6785001], [98.6427598, 22.6781105], [98.6434293, 22.6774804], [98.6443262, 22.6767048], [98.6446041, 22.676238], [98.6449099, 22.6752976], [98.6451996, 22.6744908], [98.6450923, 22.6736691], [98.6449421, 22.6730999], [98.6445666, 22.6723079], [98.6445237, 22.6718377], [98.6445355, 22.6707403], [98.6445998, 22.6701661], [98.6447178, 22.6698196], [98.6456566, 22.6690622], [98.6458873, 22.6687454], [98.6464119, 22.6677985], [98.6467939, 22.6669486], [98.646869, 22.6662308], [98.6468464, 22.6655214], [98.6470932, 22.6646997], [98.6470181, 22.6641948], [98.6471157, 22.6634785], [98.6473142, 22.6631914], [98.6473625, 22.6626914], [98.6473024, 22.6619672], [98.6474097, 22.6612049], [98.6473346, 22.6609771], [98.6474258, 22.6606306], [98.6471962, 22.6598995], [98.6471908, 22.6594638], [98.6473024, 22.6587049], [98.647502, 22.6584094], [98.6477756, 22.6582064], [98.6479622, 22.6580515], [98.6481994, 22.6572857], [98.6486392, 22.6564243], [98.648665, 22.6560961], [98.6483388, 22.6557807], [98.6478818, 22.6553387], [98.6477316, 22.6549476], [98.6477477, 22.6544575], [98.6478979, 22.653705], [98.6476994, 22.6533535], [98.6473453, 22.6528931], [98.6471587, 22.6524936], [98.6472338, 22.6515777], [98.647517, 22.6510267], [98.6478281, 22.6507792], [98.6483056, 22.6505712], [98.6484826, 22.6502841], [98.6486875, 22.6497559], [98.6488849, 22.6490514], [98.6491596, 22.6488845], [98.649652, 22.6488435], [98.6501305, 22.6488994], [98.6503719, 22.6490727], [98.6507796, 22.6493153], [98.6510146, 22.6495366], [98.6512775, 22.6495267], [98.6515628, 22.6493004], [98.651933, 22.6488845], [98.6521894, 22.6484078], [98.652566, 22.6478894], [98.652919, 22.6475513], [98.6531722, 22.6472706], [98.6532044, 22.647028], [98.6529683, 22.6466171], [98.6529726, 22.6462096], [98.6531389, 22.6459869], [98.6537504, 22.6455858], [98.6546206, 22.6449536], [98.6552911, 22.6446269], [98.6555271, 22.64431], [98.6559938, 22.6436317], [98.6564702, 22.6430213], [98.657012, 22.6426648], [98.6581225, 22.6421004], [98.6587608, 22.6417835], [98.6591803, 22.6412998], [98.6594485, 22.6408592], [98.6601073, 22.6396595], [98.6605418, 22.6389169], [98.660574, 22.6385456], [98.6606384, 22.6377979], [98.6611276, 22.636933], [98.6616533, 22.6359031], [98.6618786, 22.6354971], [98.6619966, 22.6349277], [98.6624247, 22.6345203], [98.6628056, 22.6340697], [98.663444, 22.6338419], [98.6640662, 22.6334607], [98.6645437, 22.6333518], [98.6651284, 22.6331488], [98.6654728, 22.6326353], [98.6661583, 22.6320347], [98.6668182, 22.6317079], [98.6674576, 22.6311945], [98.6679941, 22.6309419], [98.6683417, 22.6308711], [98.6687225, 22.6306483], [98.6691624, 22.6299749], [98.6692107, 22.6297224], [98.6695605, 22.6291495], [98.6701291, 22.6286891], [98.6706226, 22.6282632], [98.6710732, 22.6279513], [98.6714101, 22.6279696], [98.6717009, 22.6280751], [98.6721461, 22.6281592], [98.672601, 22.6281627], [98.6730784, 22.6279944], [98.6733681, 22.627831], [98.6738305, 22.6275601], [98.6743445, 22.6275438], [98.6747843, 22.6275438], [98.675589, 22.6271823], [98.675943, 22.6267862], [98.6763937, 22.6262069], [98.6768979, 22.6258157], [98.6771887, 22.6254211], [98.6774515, 22.625119], [98.6779611, 22.6247823], [98.6782455, 22.6241336], [98.6787218, 22.623632], [98.6792862, 22.6233018], [98.6799771, 22.6226566], [98.6805682, 22.6220391], [98.6808257, 22.6216479], [98.6807882, 22.621326], [98.6807775, 22.6208457], [98.6807989, 22.6206031], [98.6809373, 22.6204877], [98.6812817, 22.62041], [98.6815918, 22.6203194], [98.6821282, 22.6200668], [98.682301, 22.6197662], [98.6822784, 22.6195122], [98.6819995, 22.619017], [98.681742, 22.618814], [98.6817205, 22.6183584], [98.6818064, 22.6180366], [98.6820531, 22.6178781], [98.6826757, 22.6176055], [98.6833095, 22.6172903], [98.6841517, 22.6169734], [98.6849671, 22.6167654], [98.6855829, 22.6166847], [98.6858468, 22.6163396], [98.6862599, 22.6162009], [98.6870796, 22.6160162], [98.6876439, 22.615676], [98.6880666, 22.615313], [98.6883295, 22.6149763], [98.6886256, 22.6142944], [98.6887919, 22.6139874], [98.6890548, 22.6138091], [98.6892039, 22.6135749], [98.6892532, 22.6132347], [98.6895097, 22.6130252], [98.6898326, 22.6127593], [98.6902242, 22.6124077], [98.6907875, 22.6117243], [98.6910181, 22.6114024], [98.6912166, 22.6111647], [98.6911791, 22.6110063], [98.6910611, 22.6108181], [98.6908508, 22.6103907], [98.6908357, 22.6100852], [98.6911791, 22.609481], [98.6914258, 22.6090304], [98.6918539, 22.608806], [98.6919945, 22.6086243], [98.6920106, 22.6084609], [98.6918067, 22.6079607], [98.6916125, 22.6076076], [98.6916232, 22.6073699], [98.6911898, 22.6066533], [98.6911844, 22.6062373], [98.6913121, 22.6058], [98.6917745, 22.6053212], [98.6921275, 22.6052454], [98.6926747, 22.605186], [98.6930341, 22.604973], [98.6934697, 22.6046476], [98.6937969, 22.6040583], [98.6939525, 22.6035779], [98.6940759, 22.6027658], [98.6941392, 22.6023829], [98.694402, 22.6016549], [98.694505, 22.6010819], [98.6948043, 22.6004762], [98.6951166, 22.6001113], [98.6957538, 22.5995798], [98.6965328, 22.5991009], [98.6969394, 22.5987577], [98.6971979, 22.5981055], [98.6974072, 22.5977737], [98.6977816, 22.59748], [98.6979704, 22.5972338], [98.6979972, 22.5967534], [98.6980015, 22.5962814], [98.6982161, 22.5960586], [98.6986184, 22.5958308], [98.6992139, 22.5954544], [98.6994767, 22.595068], [98.6999005, 22.5947659], [98.7002557, 22.5941236], [98.7006301, 22.5936219], [98.7011354, 22.5931578], [98.7017834, 22.5927353], [98.7022502, 22.5925025], [98.7025731, 22.5919988], [98.7029958, 22.591403], [98.7036352, 22.5910182], [98.7042672, 22.5908533], [98.7045043, 22.5906467], [98.705104, 22.5901351], [98.70584, 22.5893986], [98.7067348, 22.5886889], [98.7075405, 22.5884526], [98.7086124, 22.588258], [98.7091166, 22.5880549], [98.7094921, 22.5880351], [98.7102378, 22.5882877], [98.7106347, 22.5881886], [98.7109083, 22.5880004], [98.7114019, 22.5876834], [98.7119973, 22.5873763], [98.7123739, 22.5869667], [98.7133223, 22.5865195], [98.7141535, 22.5864353], [98.7146699, 22.5865012], [98.7151996, 22.5866681], [98.715736, 22.586673], [98.7164991, 22.5863823], [98.7170879, 22.586148], [98.7175975, 22.58594], [98.7181178, 22.5857963], [98.7190137, 22.5858013], [98.7194428, 22.585732], [98.7202851, 22.5853803], [98.7208859, 22.5852268], [98.7214384, 22.585306], [98.7217764, 22.5853605], [98.7220446, 22.5852515], [98.7221197, 22.5850683], [98.7221036, 22.5847166], [98.7221787, 22.5844145], [98.7223732, 22.5841287], [98.7223128, 22.5837805], [98.7223986, 22.5834536], [98.722754, 22.5831529], [98.7235855, 22.5829201], [98.7239865, 22.5825868], [98.7240294, 22.5821806], [98.7238202, 22.5818091], [98.7236003, 22.5812296], [98.723611, 22.5808185], [98.7237612, 22.5806848], [98.7240683, 22.5807061], [98.72448, 22.58066], [98.7247429, 22.5803727], [98.7248287, 22.5800706], [98.7248555, 22.5795009], [98.7251399, 22.5792632], [98.726084, 22.5788768], [98.7265453, 22.5785995], [98.7273554, 22.578332], [98.7278717, 22.5780264], [98.7282137, 22.5779902], [98.7284551, 22.5777673], [98.7288909, 22.5775409], [98.7291484, 22.5776598], [98.72954, 22.5777143], [98.7298981, 22.5775989], [98.7303165, 22.5770738], [98.7305257, 22.5768064], [98.7309616, 22.5766246], [98.7315517, 22.5763621], [98.7321833, 22.5763358], [98.7326514, 22.5764562], [98.7331007, 22.576311], [98.7334708, 22.5761129], [98.7336974, 22.5757528], [98.7338101, 22.5753615], [98.7338101, 22.5751435], [98.7342594, 22.5750182], [98.7350694, 22.5747606], [98.7356273, 22.574404], [98.735972, 22.574133], [98.7363904, 22.573603], [98.7365352, 22.5732018], [98.7365942, 22.572969], [98.7367015, 22.5728699], [98.7371615, 22.5730269], [98.7378441, 22.573281], [98.7383202, 22.5732399], [98.7391249, 22.5730418], [98.7394696, 22.57286], [98.7397794, 22.5723434], [98.7397901, 22.571952], [98.7399309, 22.5716514], [98.7401119, 22.5715508], [98.7403976, 22.571582], [98.7409112, 22.5714814], [98.7411325, 22.5713393], [98.7413619, 22.5709167], [98.7418554, 22.5706294], [98.7419211, 22.5703535], [98.7426064, 22.5702976], [98.7430999, 22.5701935], [98.7434446, 22.5700613], [98.7437182, 22.5691795], [98.7439328, 22.568699], [98.7442747, 22.568539], [98.7448863, 22.5684944], [98.7452296, 22.5684796], [98.7454133, 22.5687387], [98.745868, 22.5689155], [98.7462059, 22.5689056], [98.7464809, 22.5687684], [98.7465613, 22.5685207], [98.7466244, 22.5682517], [98.7468121, 22.5679396], [98.7469261, 22.5676142], [98.7469261, 22.5672922], [98.7469409, 22.567048], [98.7468336, 22.5668944], [98.7468657, 22.5666467], [98.7473392, 22.5664005], [98.7489257, 22.5664932], [98.7491671, 22.5664238], [98.7495319, 22.5661216], [98.7496405, 22.565816], [98.7497411, 22.5652151], [98.7498376, 22.5649674], [98.7503043, 22.5647643], [98.7509481, 22.5645364], [98.7512324, 22.5643036], [98.7512753, 22.5640559], [98.7518547, 22.5637587], [98.7520049, 22.5634169], [98.7521457, 22.5631856], [98.7524555, 22.5629364], [98.7527089, 22.5625861], [98.7526915, 22.562436], [98.7525091, 22.5619654], [98.7525105, 22.5617192], [98.752607, 22.5613873], [98.7526915, 22.5612967], [98.7531314, 22.5611579], [98.7533031, 22.561044], [98.7539803, 22.5601686], [98.7543451, 22.559911], [98.7547085, 22.5595776], [98.7551283, 22.5592522], [98.7553107, 22.5591036], [98.7552986, 22.5589931], [98.7551538, 22.5588692], [98.7550639, 22.5586626], [98.7550747, 22.5584794], [98.7554059, 22.5583491], [98.7559705, 22.5581375], [98.7563782, 22.5577016], [98.7568897, 22.5573005], [98.7569752, 22.5568268], [98.7579156, 22.5565637], [98.7591979, 22.5569321], [98.7599672, 22.55559], [98.7616199, 22.5551163], [98.7619904, 22.5546953], [98.7627882, 22.5539321], [98.7652673, 22.5526953], [98.7657517, 22.5520637], [98.7657517, 22.5512215], [98.7667776, 22.5500373], [98.7684018, 22.5509584], [98.7691427, 22.5508794], [98.7693991, 22.5498794], [98.7699405, 22.5493268], [98.7714793, 22.5472214], [98.7734739, 22.5458529], [98.7753831, 22.5464319], [98.7767224, 22.5466951], [98.7780047, 22.5455371], [98.7783466, 22.5443791], [98.7776627, 22.5437475], [98.7775772, 22.5430106], [98.778717, 22.5417737], [98.7788025, 22.5411157], [98.778888, 22.5405893], [98.7825069, 22.5400103], [98.7829058, 22.539484], [98.7833048, 22.5389839], [98.7849575, 22.5382207], [98.7857839, 22.5371679], [98.788092, 22.5366152], [98.788517, 22.5371296], [98.7889685, 22.5382714], [98.7895024, 22.5387697], [98.7903465, 22.5385706], [98.7909508, 22.5386211], [98.7914571, 22.5389976], [98.7928288, 22.538504], [98.7935828, 22.5381396], [98.7934704, 22.5372075], [98.7930296, 22.5364756], [98.793161, 22.536157], [98.7947917, 22.535787], [98.7964122, 22.5356471], [98.7982507, 22.5367299], [98.7989759, 22.5367482], [98.7995436, 22.5364907], [98.8004381, 22.5362842], [98.8015702, 22.5355887], [98.8025025, 22.5344628], [98.8032353, 22.533478], [98.8037673, 22.5334814], [98.8046086, 22.533478], [98.8053315, 22.5329305], [98.8055789, 22.5320046], [98.8060248, 22.5310403], [98.8064485, 22.5302241], [98.8069558, 22.5301669], [98.807459, 22.5304124], [98.8079131, 22.5303069], [98.8082096, 22.52993], [98.8087225, 22.5297457], [98.8092924, 22.529114], [98.8102897, 22.5286929], [98.8118, 22.5276664], [98.8124905, 22.5264057], [98.8130035, 22.5261491], [98.8135022, 22.5263136], [98.8139083, 22.5264189], [98.8144926, 22.526386], [98.8151338, 22.526103], [98.815433, 22.5257476], [98.8160274, 22.525457], [98.8160386, 22.5254515], [98.8162255, 22.525256], [98.8136339, 22.5223819], [98.8100979, 22.519805], [98.8084987, 22.5177204], [98.8067001, 22.5146822], [98.8040565, 22.5139451], [98.8024574, 22.5128453], [98.8021356, 22.5112496], [98.8005894, 22.5105491], [98.8018452, 22.508215], [98.8022974, 22.5073956], [98.8039144, 22.5060331], [98.8067218, 22.5030455], [98.8085165, 22.4994996], [98.8100979, 22.4974476], [98.8110396, 22.4952313], [98.8112173, 22.4932613], [98.8115549, 22.4923091], [98.8124611, 22.4909629], [98.813083, 22.4897973], [98.8128165, 22.4882869], [98.8121768, 22.4867765], [98.8108797, 22.4856765], [98.8105954, 22.4848556], [98.8092805, 22.4822943], [98.8079782, 22.4810992], [98.8041098, 22.4775494], [98.8030793, 22.4761374], [98.804945, 22.4727058], [98.807628, 22.4704399], [98.8090732, 22.4675507], [98.8088116, 22.4660874], [98.809732, 22.4646389], [98.8108565, 22.4640958], [98.812303, 22.4634429], [98.8136544, 22.4611204], [98.8161215, 22.4596517], [98.8175252, 22.4581738], [98.8165835, 22.4560555], [98.8168855, 22.4530175], [98.8162487, 22.4489072], [98.8171913, 22.4477486], [98.818265, 22.4478898], [98.8186346, 22.4482715], [98.8190863, 22.4482191], [98.819767, 22.4477656], [98.8200116, 22.4471036], [98.8202197, 22.4467869], [98.8203433, 22.4465989], [98.8217264, 22.4444943], [98.822433, 22.4430997], [98.8226206, 22.4425012], [98.8217225, 22.4419353], [98.8217021, 22.4407279], [98.8219878, 22.4398884], [98.82259, 22.4394733], [98.82309, 22.4386338], [98.8228553, 22.4370114], [98.8230798, 22.4360492], [98.8233452, 22.4352003], [98.8243659, 22.4345576], [98.8250929, 22.4329093], [98.8250794, 22.4318061], [98.8248129, 22.4312888], [98.8241021, 22.431026], [98.8251949, 22.4286527], [98.8256124, 22.4277247], [98.8255147, 22.4270677], [98.8245019, 22.4270266], [98.8231426, 22.4258194], [98.8213657, 22.4254662], [98.8200686, 22.4249324], [98.8193579, 22.4241605], [98.8188426, 22.4231421], [98.817732, 22.4231092], [98.8161595, 22.4231996], [98.8154221, 22.4233392], [98.8145514, 22.4230682], [98.8135386, 22.4234377], [98.8115929, 22.4232242], [98.8095051, 22.4229614], [98.8081813, 22.4226247], [98.8077371, 22.4224604], [98.8071508, 22.4212778], [98.8069819, 22.4206783], [98.8065466, 22.4201527], [98.8055693, 22.4198242], [98.803979, 22.4194956], [98.8031794, 22.4195449], [98.8017313, 22.419586], [98.7990127, 22.4180091], [98.7974846, 22.4167032], [98.7971647, 22.4154549], [98.7958054, 22.4110444], [98.7952901, 22.4103791], [98.794535, 22.4097056], [98.7937709, 22.4083586], [98.7940463, 22.406453], [98.7942151, 22.4050403], [98.7930335, 22.4033072], [98.7900128, 22.4001038], [98.787543, 22.3985431], [98.7850198, 22.3968263], [98.7789962, 22.3941649], [98.7775214, 22.3936146], [98.7756912, 22.3945017], [98.7730437, 22.3952821], [98.7696243, 22.3962516], [98.7663842, 22.3964302], [98.7544108, 22.3939503], [98.752769, 22.3935311], [98.7522755, 22.3939336], [98.7524582, 22.3944066], [98.7520076, 22.3953192], [98.7512566, 22.3957953], [98.7507201, 22.3956366], [98.7506987, 22.3949224], [98.7506772, 22.3935138], [98.7496043, 22.3943669], [98.749228, 22.3950747], [98.7495614, 22.3956961], [98.7492825, 22.3958945], [98.7486817, 22.3955176], [98.7483383, 22.3963508], [98.747995, 22.3966087], [98.7473298, 22.3966881], [98.7469221, 22.3959937], [98.746214, 22.3955572], [98.7448836, 22.3956366], [98.7441326, 22.3960731], [98.7433816, 22.3962715], [98.7428881, 22.3980768], [98.7421585, 22.3991481], [98.7410856, 22.4009137], [98.7396265, 22.4018263], [98.7376953, 22.4023223], [98.7370301, 22.402719], [98.7355066, 22.4021834], [98.7349487, 22.4022032], [98.7347985, 22.4027785], [98.7342192, 22.4030761], [98.733554, 22.4033142], [98.7324167, 22.4030563], [98.7320734, 22.4034729], [98.7318159, 22.4038101], [98.7310864, 22.4039688], [98.7300425, 22.4039884], [98.7299418, 22.4038706], [98.7295788, 22.4038442], [98.7292513, 22.4037982], [98.7288313, 22.4038047], [98.7285251, 22.4035875], [98.7282368, 22.4034888], [98.7276127, 22.4035446], [98.7269182, 22.4035586], [98.72643, 22.4036098], [98.7255845, 22.4035074], [98.7250963, 22.4033585], [98.724588, 22.4030096], [98.7235613, 22.4025349], [98.7231184, 22.4024419], [98.7223937, 22.4027816], [98.7221873, 22.4028002], [98.7219558, 22.4027118], [98.7216488, 22.402614], [98.7213619, 22.4024233], [98.7210398, 22.4019301], [98.7207832, 22.4015485], [98.7203, 22.4012321], [98.7200031, 22.4011623], [98.7194746, 22.4011716], [98.7190317, 22.4010646], [98.7185637, 22.4010134], [98.7183372, 22.4009436], [98.7180604, 22.4007761], [98.7177987, 22.4004783], [98.7173759, 22.4002317], [98.7172098, 22.3999199], [98.71723, 22.3997059], [98.7174242, 22.399461], [98.7174946, 22.3991212], [98.717696, 22.3985348], [98.7177363, 22.3982184], [98.7176456, 22.3979065], [98.7172631, 22.3975389], [98.7169309, 22.3974086], [98.7165382, 22.3971759], [98.7160751, 22.3967012], [98.7157832, 22.3962171], [98.7156473, 22.3959239], [98.7155265, 22.3955283], [98.7154912, 22.3952491], [98.715461, 22.3949559], [98.7152899, 22.3948488], [98.7148519, 22.3945836], [98.7147261, 22.3942438], [98.7145197, 22.3941275], [98.7143435, 22.3942159], [98.713966, 22.3944905], [98.7137798, 22.3946999], [98.7134425, 22.3947185], [98.713065, 22.3949652], [98.7126874, 22.3957052], [98.7126421, 22.3961101], [98.7124156, 22.3961892], [98.7119374, 22.3961473], [98.7110162, 22.3959193], [98.7106437, 22.3957238], [98.710382, 22.3954678], [98.7103166, 22.3949931], [98.7101051, 22.3945696], [98.7097679, 22.3942717], [98.7094659, 22.3941554], [98.7087561, 22.39416], [98.7081621, 22.3941182], [98.7077141, 22.3942578], [98.7073014, 22.3946022], [98.7068383, 22.394928], [98.7064758, 22.3953515], [98.7063248, 22.395547], [98.7061889, 22.395547], [98.7059775, 22.3953841], [98.7058265, 22.39517], [98.7057963, 22.3949699], [98.7057912, 22.3947604], [98.7056402, 22.3943322], [98.7055396, 22.3942392], [98.705464, 22.3942624], [98.7053332, 22.3945277], [98.7047342, 22.39517], [98.7046637, 22.3954166], [98.704714, 22.3956121], [98.7052677, 22.3963149], [98.7052023, 22.3964638], [98.7049758, 22.3965941], [98.7041402, 22.3964173], [98.7038885, 22.3964685], [98.7034053, 22.3967477], [98.7029019, 22.3967803], [98.7024136, 22.3966127], [98.7020663, 22.3963195], [98.7012005, 22.3960031], [98.7005813, 22.3958122], [98.6998917, 22.395426], [98.6996803, 22.3954911], [98.6995444, 22.3956819], [98.6993883, 22.3962358], [98.6992071, 22.396743], [98.6988296, 22.3969246], [98.6985829, 22.3967896], [98.6977927, 22.396017], [98.6962825, 22.3953329], [98.6958194, 22.3950629], [98.6955325, 22.3951234], [98.6949989, 22.3956819], [98.6945006, 22.3957192], [98.6942137, 22.3956121], [98.6934788, 22.3955423], [98.692618, 22.3952956], [98.6923864, 22.3950816], [98.6919435, 22.3942904], [98.6910173, 22.3940995], [98.6907756, 22.3942299], [98.6903629, 22.3949931], [98.6898847, 22.395049], [98.6893561, 22.3938436], [98.6891548, 22.3936388], [98.688883, 22.3936434], [98.6882739, 22.394188], [98.6879467, 22.3943648], [98.6877353, 22.394309], [98.687544, 22.3941088], [98.687544, 22.3938017], [98.6876447, 22.3932478], [98.6875289, 22.3928941], [98.6871866, 22.3928336], [98.6868846, 22.3929174], [98.6867285, 22.3931408], [98.6864869, 22.3937644], [98.6863661, 22.3938761], [98.6861597, 22.3937924], [98.6857872, 22.3933409], [98.6854097, 22.3929593], [98.6850422, 22.3923682], [98.6849365, 22.3919121], [98.6846395, 22.3918004], [98.6840053, 22.3919819], [98.6830892, 22.3921913], [98.6823693, 22.3926288], [98.6819868, 22.3929267], [98.6816747, 22.3929779], [98.6813374, 22.3927126], [98.6808542, 22.3925218], [98.68023, 22.3921076], [98.6800538, 22.3917445], [98.6799481, 22.3911255], [98.6800186, 22.3907392], [98.6801746, 22.3904321], [98.6804616, 22.3903343], [98.6811411, 22.3902785], [98.6813827, 22.3900132], [98.6815086, 22.389585], [98.6813374, 22.3890963], [98.6809549, 22.3888263], [98.6807837, 22.3883795], [98.6806126, 22.387956], [98.6804867, 22.3879234], [98.6802803, 22.3879932], [98.6799834, 22.3882818], [98.6795907, 22.3883795], [98.6792031, 22.3882259], [98.6790622, 22.3880258], [98.6789414, 22.3875976], [98.6783826, 22.3871554], [98.6777836, 22.3871601], [98.6771846, 22.3870065], [98.6769128, 22.3866016], [98.6767618, 22.3859453], [98.6765151, 22.3860198], [98.6758708, 22.385815], [98.6755383, 22.3856816], [98.6750752, 22.3853884], [98.6746927, 22.3853511], [98.674431, 22.3854675], [98.6739478, 22.3859887], [98.6735703, 22.3860492], [98.6733086, 22.3860073], [98.6720905, 22.3851882], [98.6712097, 22.3847647], [98.6706409, 22.3846251], [98.6702786, 22.3846437], [98.6701628, 22.3847322], [98.6698658, 22.3851882], [98.6689145, 22.3857281], [98.6686428, 22.3857746], [98.6680186, 22.3856583], [98.6676562, 22.3855326], [98.6674448, 22.3856397], [98.667017, 22.3861702], [98.6667402, 22.386361], [98.6663124, 22.3864448], [98.6658292, 22.3864541], [98.6655976, 22.3865705], [98.6649987, 22.3870824], [98.6646011, 22.3871429], [98.6639216, 22.3870312], [98.6624317, 22.3869102], [98.6612942, 22.3870359], [98.6606198, 22.3875431], [98.6601416, 22.3880923], [98.6599906, 22.3884041], [98.6594873, 22.3884553], [98.6590645, 22.3882738], [98.6587977, 22.3879759], [98.6584202, 22.3871289], [98.6580931, 22.3868357], [98.6570965, 22.3869567], [98.657026, 22.3870824], [98.6572827, 22.3873942], [98.6576954, 22.3875757], [98.6582491, 22.3878224], [98.6585763, 22.3883622], [98.6587826, 22.3887485], [98.6586216, 22.3889858], [98.6582894, 22.3890929], [98.6575545, 22.3889532], [98.6572777, 22.3890556], [98.657318, 22.3892651], [98.6575797, 22.3898794], [98.6574941, 22.3902098], [98.6572576, 22.390368], [98.6569254, 22.390247], [98.6567895, 22.3903959], [98.6565831, 22.3909451], [98.6563616, 22.3912476], [98.656115, 22.3914849], [98.6560982, 22.3922501], [98.6560949, 22.3924017], [98.6557073, 22.3928717], [98.6554406, 22.3930206], [98.6550681, 22.3929834], [98.6543383, 22.3927507], [98.6532511, 22.3926204], [98.6525917, 22.3924436], [98.6523904, 22.3926204], [98.6521136, 22.3931184], [98.6520935, 22.3935093], [98.6521136, 22.393849], [98.6523501, 22.393956], [98.652788, 22.3939421], [98.6533618, 22.3939793], [98.6534323, 22.3941329], [98.6531706, 22.3945331], [98.6526874, 22.3948821], [98.6522495, 22.3953475], [98.652023, 22.3955476], [98.6518921, 22.3960967], [98.6517311, 22.3967854], [98.6515599, 22.3969669], [98.6510113, 22.3970135], [98.65006, 22.3964969], [98.649597, 22.3959385], [98.6494963, 22.3955662], [98.6497077, 22.3949938], [98.6496876, 22.3947425], [98.6496322, 22.3943655], [98.6496423, 22.3941515], [98.6497782, 22.3940444], [98.6502563, 22.394319], [98.650513, 22.3947239], [98.6506791, 22.3947471], [98.6509056, 22.3946168], [98.651117, 22.394212], [98.6510465, 22.393742], [98.6506992, 22.3933045], [98.650367, 22.3930718], [98.6501003, 22.3929974], [98.6497379, 22.3932068], [98.6496825, 22.3935884], [98.6493805, 22.3936908], [98.6486759, 22.3933371], [98.648082, 22.3930858], [98.6476894, 22.3932161], [98.6474125, 22.3938118], [98.6472263, 22.3938955], [98.647035, 22.3937513], [98.64703, 22.393486], [98.6473572, 22.3928671], [98.6473068, 22.3925041], [98.6471005, 22.3923645], [98.6466978, 22.3924017], [98.6461039, 22.3928112], [98.6458573, 22.39276], [98.6456912, 22.3919782], [98.6449462, 22.3913267], [98.6448405, 22.3909683], [98.6447852, 22.3901632], [98.644604, 22.3897025], [98.6441107, 22.3894605], [98.643844, 22.3895536], [98.6436326, 22.3898142], [98.6430839, 22.3906193], [98.6428071, 22.3910428], [98.6426561, 22.3916757], [98.6422887, 22.3918526], [98.6413877, 22.3919689], [98.6410002, 22.3919363], [98.6407284, 22.3917734], [98.6408492, 22.3915175], [98.6413525, 22.391215], [98.6414481, 22.3908939], [98.6412116, 22.390717], [98.6403509, 22.3908613], [98.6397972, 22.3910335], [98.6393493, 22.3913453], [98.6387122, 22.3920101], [98.6381142, 22.3923194], [98.6376444, 22.392405], [98.6374237, 22.3925563], [98.6373383, 22.3927999], [98.6374095, 22.3930302], [98.6377266, 22.3934557], [98.6376209, 22.393693], [98.6372736, 22.3937815], [98.636735, 22.3936698], [98.6363222, 22.3934231], [98.6361259, 22.3929996], [98.6361008, 22.3926971], [98.6364783, 22.3920734], [98.6364783, 22.3918547], [98.6362971, 22.3916499], [98.6354112, 22.391259], [98.6351192, 22.3912729], [98.6349783, 22.3914544], [98.6349078, 22.3918547], [98.6350034, 22.3922363], [98.6351393, 22.3925109], [98.6350739, 22.3926505], [98.6347216, 22.3929484], [98.6341075, 22.3930601], [98.6338004, 22.3929065], [98.6336192, 22.39259], [98.6336444, 22.392241], [98.6338155, 22.3919245], [98.6343273, 22.3915225], [98.6343843, 22.3914777], [98.6347417, 22.3909006], [98.6347417, 22.390505], [98.6346108, 22.3902397], [98.634339, 22.3901048], [98.6337299, 22.3901467], [98.6332719, 22.3903561], [98.6325169, 22.3911752], [98.6322501, 22.3912916], [98.6320487, 22.3912683], [98.6318776, 22.3910868], [98.6319783, 22.3907377], [98.6317618, 22.3900582], [98.6319179, 22.3894858], [98.6321041, 22.389281], [98.6325538, 22.3892837], [98.6329766, 22.3891302], [98.6335404, 22.3885856], [98.6335202, 22.3882366], [98.6332232, 22.3878689], [98.6325588, 22.387478], [98.6311243, 22.3874454], [98.6304196, 22.3873244], [98.6299767, 22.387222], [98.6291965, 22.3871615], [98.6285824, 22.3869055], [98.6282854, 22.3866449], [98.6281243, 22.3863424], [98.6279884, 22.3857373], [98.6279935, 22.3851183], [98.6278274, 22.3849787], [98.6275807, 22.3850159], [98.6272888, 22.3849601], [98.6269515, 22.3849042], [98.6259851, 22.3844435], [98.6251445, 22.3838198], [98.6247721, 22.3833311], [98.6245204, 22.3833172], [98.6239315, 22.3840339], [98.6234382, 22.3847134], [98.6230154, 22.3852626], [98.6227385, 22.3853603], [98.6224869, 22.3852719], [98.6224214, 22.3849973], [98.6225171, 22.3843876], [98.6224114, 22.3841642], [98.6220288, 22.3842806], [98.6211933, 22.3846901], [98.6207604, 22.3852114], [98.6204936, 22.3854069], [98.6198594, 22.3860678], [98.6194315, 22.3862493], [98.6190742, 22.3863749], [98.6188426, 22.3866449], [98.6184249, 22.387101], [98.6178762, 22.387115], [98.617096, 22.3868264], [98.6165323, 22.386468], [98.6160893, 22.3859887], [98.6159887, 22.3850997], [98.6154205, 22.3848055], [98.615212, 22.3847916], [98.6146858, 22.3847916], [98.6141585, 22.3876354], [98.6123136, 22.3943877], [98.6123543, 22.3956505], [98.6131874, 22.3968951], [98.6171665, 22.4027599], [98.6174083, 22.4081154], [98.6165563, 22.4107128], [98.6166545, 22.4120407], [98.6168658, 22.4152116], [98.616908, 22.4185333], [98.6176692, 22.4212965], [98.619073, 22.4278691], [98.6197447, 22.4311037], [98.6210036, 22.4322644], [98.6264846, 22.4338949], [98.6317191, 22.4361841], [98.6346908, 22.4386395], [98.6364116, 22.4398289], [98.6413125, 22.4412864], [98.6417433, 22.4445006], [98.6411659, 22.4477147], [98.6389075, 22.4523859], [98.6373988, 22.4552906], [98.6392742, 22.4586733], [98.6378817, 22.4643258], [98.637745, 22.4675614], [98.6354485, 22.4706988], [98.6346632, 22.4723296], [98.6365415, 22.478006], [98.6369134, 22.480923], [98.6363095, 22.4844711], [98.63377, 22.4910832], [98.63525, 22.4997251], [98.6335692, 22.502557], [98.6315128, 22.5051517], [98.6286866, 22.5072231], [98.6257489, 22.5092943], [98.6230284, 22.5121978], [98.6218292, 22.5147821], [98.6191021, 22.5195082], [98.616117, 22.5239027], [98.6148168, 22.5277169], [98.6141378, 22.5332532], [98.6146209, 22.5365725], [98.6145224, 22.5387554], [98.6149751, 22.5457381], [98.6138861, 22.5482377], [98.6107994, 22.552553], [98.6088336, 22.5566675], [98.6075851, 22.5589548], [98.5984523, 22.5689096], [98.595738, 22.5736834], [98.5946029, 22.5774531], [98.591902, 22.5834355], [98.586324, 22.5930551], [98.5845099, 22.597997], [98.5816702, 22.6002479], [98.5810315, 22.6077534], [98.5801262, 22.6116171], [98.5774479, 22.6183498], [98.5774228, 22.622986], [98.5778591, 22.6246106], [98.5767161, 22.6275552], [98.5751338, 22.6303637], [98.5733076, 22.6307256], [98.5702619, 22.6295179], [98.5659141, 22.6285552], [98.5621193, 22.6286131], [98.5601549, 22.629734], [98.5557586, 22.6369033], [98.5550459, 22.6400346], [98.5554319, 22.6425376], [98.5573665, 22.6456326], [98.5577361, 22.6490768], [98.55635, 22.6522352], [98.5557845, 22.6545496], [98.5554266, 22.656824], [98.5555499, 22.6579984], [98.5558206, 22.6594841], [98.5568764, 22.6635968], [98.5572762, 22.6657115], [98.5564962, 22.667821], [98.5562216, 22.67169], [98.555458, 22.6730528], [98.554372, 22.6751918], [98.5532427, 22.6774803], [98.5514352, 22.6804941], [98.5481624, 22.6846484], [98.5435384, 22.6892142], [98.5412237, 22.6929564], [98.5396434, 22.6976378], [98.5391864, 22.7019099], [98.5392114, 22.7021168], [98.5396328, 22.7056119], [98.5408689, 22.7080667], [98.5426693, 22.7100544], [98.5445839, 22.7110006], [98.5469487, 22.7123662], [98.5491351, 22.7139373], [98.5501462, 22.7152534], [98.5508243, 22.7161342], [98.5512716, 22.7175953], [98.5510456, 22.7198851], [98.5503669, 22.7214454], [98.5474331, 22.7253934], [98.5459645, 22.7285138], [98.5439316, 22.7320495], [98.541047, 22.7356043], [98.5392166, 22.7378598], [98.5375876, 22.7399175], [98.5361731, 22.7417042], [98.5361054, 22.7417938], [98.5345247, 22.7428367], [98.5302272, 22.7493961], [98.522079, 22.7592746], [98.518846, 22.7652007], [98.5182023, 22.7690787], [98.5186917, 22.7726932], [98.5199682, 22.7747582], [98.5211734, 22.7757835], [98.5224587, 22.7769121]]], [[[99.217550169, 22.2344396], [99.217954029, 22.2344396], [99.217802357, 22.234351253], [99.217550169, 22.2344396]]], [[[99.2188178, 22.235273], [99.219384796, 22.235273], [99.218026998, 22.234482103], [99.2188178, 22.235273]]], [[[99.2161822, 22.235273], [99.216727245, 22.234727889], [99.215171223, 22.235273], [99.2161822, 22.235273]]], [[[99.2221511, 22.2369396], [99.222245986, 22.2369396], [99.222018722, 22.236807222], [99.2221511, 22.2369396]]], [[[99.2272385, 22.242027], [99.228169113, 22.242957613], [99.2272385, 22.241947031], [99.2272385, 22.242027]]], [[[99.233515119, 22.29747023], [99.233412868, 22.297182787], [99.233309365, 22.293568821], [99.2330719, 22.2938063], [99.2330719, 22.297027], [99.233515119, 22.29747023]]], [[[99.2654846, 22.3427731], [99.2679846, 22.3452731], [99.2696512, 22.3452731], [99.2704846, 22.3461064], [99.2729846, 22.3461064], [99.2738179, 22.3469397], [99.276098195, 22.3469397], [99.276038969, 22.346798375], [99.269561861, 22.344675523], [99.263707916, 22.341829816], [99.2646512, 22.3427731], [99.2654846, 22.3427731]]]]}}