{"type": "Feature", "properties": {"core_id": 6486, "public_id": "d345f36d-a0fd-4044-9e62-becb8d3892b2", "canonical_name": "\u101c\u1004\u103a\u101f\u1031\u102c\u103a\u1019\u103c\u102d\u102f\u1037\u1014\u101a\u103a", "aliases": "en:Moegraix Township | my:\u101c\u1004\u103a\u101f\u1031\u102c\u103a\u1019\u103c\u102d\u102f\u1037\u1014\u101a\u103a", "parent_name": "\u1019\u1000\u103a\u1019\u1014\u103a\u1038\u1001\u101b\u102d\u102f\u1004\u103a", "gparent_name": "\u101b\u103e\u1019\u103a\u1038\u1015\u103c\u100a\u103a\u1014\u101a\u103a", "overlap_of_source": 0.0936, "overlap_of_core": 0.4172, "centroid_dist_m": 29860.4, "child_admins": 0, "settlements": 2, "postal": 0}, "geometry": {"type": "MultiPolygon", "coordinates": [[[[98.725913, 22.8506551], [98.7296879, 22.8469147], [98.7359602, 22.8374111], [98.7390014, 22.8261969], [98.7450836, 22.8085203], [98.7451382, 22.8084157], [98.7453932, 22.8071416], [98.7472893, 22.8029685], [98.7467278, 22.8002996], [98.7482119, 22.8002135], [98.749068, 22.7995755], [98.7480343, 22.7971145], [98.7468433, 22.7965551], [98.7475481, 22.7954225], [98.7488852, 22.7949725], [98.7484989, 22.7931222], [98.7492864, 22.7918717], [98.7484965, 22.7907559], [98.7490716, 22.7902014], [98.7491502, 22.7890545], [98.7498759, 22.7865699], [98.7499579, 22.7862874], [98.7507972, 22.7846905], [98.7523202, 22.7842118], [98.7519938, 22.7831534], [98.7538608, 22.7822875], [98.7524999, 22.780856], [98.7517172, 22.7791542], [98.7522489, 22.7783949], [98.7531999, 22.7777028], [98.7541837, 22.7770602], [98.7559177, 22.7769686], [98.7571766, 22.775421], [98.7560707, 22.7736624], [98.7566779, 22.7684154], [98.7594162, 22.7639533], [98.7583447, 22.7631484], [98.7574943, 22.7623074], [98.7550049, 22.7608414], [98.7524414, 22.7593868], [98.7489783, 22.7586253], [98.7473146, 22.7582617], [98.7462054, 22.7574548], [98.7467723, 22.756341], [98.748054, 22.7551363], [98.7482512, 22.7540226], [98.7482142, 22.7533634], [98.7481033, 22.7524996], [98.7494713, 22.7511813], [98.7502724, 22.7506812], [98.7517882, 22.7503289], [98.752614, 22.7501584], [98.7533411, 22.7499083], [98.7538957, 22.749306], [98.7540559, 22.7486809], [98.7538094, 22.7479762], [98.7541175, 22.7476125], [98.7542901, 22.7470101], [98.7548446, 22.7467033], [98.7569398, 22.7454189], [98.7574943, 22.7453621], [98.7576546, 22.7444869], [98.7583694, 22.7445097], [98.7586775, 22.7443733], [98.7594785, 22.7441573], [98.7600455, 22.7441573], [98.7605261, 22.7440891], [98.7608958, 22.7433731], [98.7613518, 22.7436913], [98.7628554, 22.7433958], [98.7646424, 22.7427707], [98.7665157, 22.7426911], [98.7667375, 22.742532], [98.7672551, 22.7421683], [98.7671935, 22.7412022], [98.7675879, 22.7401451], [98.7672058, 22.7385993], [98.7667005, 22.7380424], [98.7660473, 22.7363033], [98.766072, 22.7358941], [98.766528, 22.7357691], [98.7668854, 22.7357577], [98.7675879, 22.735735], [98.7682534, 22.735735], [98.7689558, 22.7353371], [98.7689312, 22.7346438], [98.7690175, 22.7321886], [98.7689682, 22.7306995], [98.7704348, 22.7290172], [98.7718644, 22.7265618], [98.7714084, 22.7255842], [98.7706196, 22.7236859], [98.7700157, 22.7222763], [98.7699788, 22.7214123], [98.770484, 22.7204461], [98.7705826, 22.7193548], [98.7701513, 22.7184908], [98.7692147, 22.7178655], [98.7700527, 22.7161376], [98.7704724, 22.7152768], [98.7708045, 22.7147393], [98.7720985, 22.7128408], [98.7727394, 22.7118858], [98.773257, 22.7114197], [98.7750686, 22.7090664], [98.7757181, 22.7070451], [98.7753783, 22.7057261], [98.7754633, 22.7046682], [98.7753642, 22.7037541], [98.7754491, 22.7031141], [98.7759305, 22.7028921], [98.7765675, 22.7008548], [98.776525, 22.7004368], [98.7769214, 22.6996271], [98.7776717, 22.6972501], [98.7783513, 22.6955914], [98.7787335, 22.6929532], [98.7782522, 22.6909548], [98.7780115, 22.6904585], [98.7780115, 22.6889826], [98.7778275, 22.6877157], [98.7788326, 22.6875981], [98.778776, 22.6873369], [98.778691, 22.6867753], [98.7789883, 22.6850903], [98.7791724, 22.6839278], [98.7797245, 22.6830266], [98.7800784, 22.6827915], [98.7804606, 22.6822951], [98.7803332, 22.6815506], [98.7809844, 22.6806493], [98.7811543, 22.6804664], [98.7817347, 22.680584], [98.7823576, 22.6803881], [98.7824992, 22.6800484], [98.7821878, 22.6795521], [98.7824001, 22.6791472], [98.7825275, 22.678703], [98.7827682, 22.6783765], [98.7827682, 22.6776711], [98.7834619, 22.6771748], [98.783929, 22.6759338], [98.7843396, 22.6758032], [98.7848068, 22.6757901], [98.7852315, 22.6759208], [98.7857128, 22.6758555], [98.7858968, 22.6754505], [98.7864914, 22.6756856], [98.7867604, 22.675346], [98.7868878, 22.6747582], [98.786633, 22.6737524], [98.7874682, 22.6730209], [98.7878788, 22.6724461], [98.7879496, 22.6716232], [98.7880203, 22.6708786], [98.7873408, 22.670134], [98.7877797, 22.6690497], [98.7874824, 22.6680439], [98.7871993, 22.6675736], [98.7881336, 22.6673254], [98.7885583, 22.6677565], [98.7892095, 22.6677304], [98.789889, 22.6677304], [98.7902854, 22.6674952], [98.7897899, 22.6671948], [98.7896767, 22.6665416], [98.7899598, 22.6660191], [98.790427, 22.6658623], [98.7903987, 22.6653267], [98.7906394, 22.6649348], [98.7909083, 22.6643992], [98.7922391, 22.6632365], [98.7925222, 22.6617342], [98.7925222, 22.661081], [98.7926496, 22.6606107], [98.7933575, 22.6598007], [98.7937255, 22.6596178], [98.7938105, 22.6591737], [98.7935981, 22.6588863], [98.793768, 22.6581939], [98.7942352, 22.6576713], [98.7946174, 22.6567045], [98.7950563, 22.656195], [98.7951412, 22.655372], [98.7951412, 22.6550062], [98.7954385, 22.6548494], [98.7961322, 22.6538173], [98.7963162, 22.6531641], [98.7966277, 22.6531641], [98.7968966, 22.6533078], [98.7980433, 22.6530595], [98.7984256, 22.6530987], [98.7989494, 22.6532686], [98.7993175, 22.6531771], [98.7993741, 22.6529158], [98.7991617, 22.6523802], [98.7995864, 22.6523149], [98.8002801, 22.6522365], [98.8010304, 22.6514395], [98.8015118, 22.6510737], [98.8016675, 22.650525], [98.8019082, 22.6503159], [98.8025594, 22.6506295], [98.8030549, 22.6506295], [98.803253, 22.6504335], [98.8031256, 22.6499109], [98.8035928, 22.6495451], [98.8041732, 22.6495712], [98.8047254, 22.6498456], [98.8053624, 22.6498325], [98.8055748, 22.6494145], [98.8053058, 22.6487481], [98.8039467, 22.6482778], [98.8031398, 22.6479904], [98.8032106, 22.6474547], [98.8034796, 22.6454557], [98.8038901, 22.6449592], [98.8049519, 22.6452336], [98.8053766, 22.645116], [98.8053482, 22.6446326], [98.8042865, 22.6440185], [98.8041025, 22.6436004], [98.8045272, 22.6429733], [98.8048244, 22.6431954], [98.8054615, 22.6434828], [98.8060561, 22.6434567], [98.8056739, 22.6430647], [98.8054473, 22.6424637], [98.8056031, 22.6416798], [98.8062684, 22.6412747], [98.8063109, 22.640726], [98.8065374, 22.6402164], [98.8070471, 22.6403601], [98.80767, 22.640334], [98.8082787, 22.6401119], [98.8085902, 22.6398114], [98.8086751, 22.6393802], [98.8082504, 22.6388053], [98.8078257, 22.6384525], [98.80767, 22.6379429], [98.8086043, 22.6375771], [98.8088025, 22.6373419], [98.8084911, 22.6369499], [98.8090007, 22.6359961], [98.8101191, 22.6335396], [98.8099775, 22.6330692], [98.8100341, 22.632442], [98.8100625, 22.6314881], [98.810657, 22.6309393], [98.8116622, 22.6310961], [98.8120586, 22.6307695], [98.8121435, 22.6302337], [98.8124974, 22.630286], [98.8128797, 22.6303905], [98.8130071, 22.6293713], [98.8136724, 22.6284828], [98.8139839, 22.6278947], [98.8137998, 22.6273459], [98.8132336, 22.6272675], [98.8131345, 22.6266926], [98.8135026, 22.6264312], [98.8141679, 22.6266403], [98.8145077, 22.6265227], [98.8142104, 22.6261568], [98.8139131, 22.6251768], [98.8147767, 22.6242098], [98.8153146, 22.6238831], [98.8154137, 22.6234649], [98.8151589, 22.6226809], [98.8151731, 22.6221713], [98.8154562, 22.6219883], [98.8158951, 22.621936], [98.8161074, 22.621727], [98.8167161, 22.620773], [98.8180327, 22.6195839], [98.8194342, 22.6187998], [98.8204677, 22.6185907], [98.8217984, 22.6184469], [98.8218126, 22.6180157], [98.8220674, 22.6175191], [98.8225771, 22.6174276], [98.8228319, 22.6172578], [98.8229593, 22.6169964], [98.8227611, 22.6166566], [98.8226478, 22.6159379], [98.8230584, 22.6156242], [98.8235114, 22.6151015], [98.8237804, 22.6146572], [98.8241768, 22.6141214], [98.8252385, 22.614056], [98.8256349, 22.6141606], [98.8260596, 22.6138339], [98.8260455, 22.6132197], [98.8257057, 22.6124225], [98.8261304, 22.6119912], [98.8269232, 22.6120174], [98.8273762, 22.6116253], [98.8272771, 22.6110764], [98.8270648, 22.6105798], [98.8275744, 22.6101747], [98.8280416, 22.6102531], [98.828891, 22.6102792], [98.8290892, 22.6100179], [98.8292874, 22.6097304], [98.8293157, 22.6092991], [98.8293865, 22.6087763], [98.829882, 22.6085672], [98.8304199, 22.6082928], [98.8310994, 22.6080968], [98.8316374, 22.6080575], [98.8324019, 22.6081621], [98.8332654, 22.6082797], [98.8337468, 22.6077962], [98.8353889, 22.607378], [98.8353606, 22.6066722], [98.8353748, 22.6062671], [98.8358278, 22.6053523], [98.8367763, 22.6037055], [98.8371302, 22.6030259], [98.837654, 22.6027907], [98.838008, 22.6026469], [98.8386592, 22.6024509], [98.8394519, 22.6022025], [98.8398766, 22.6012746], [98.8403721, 22.6007257], [98.8401881, 22.599105], [98.8399474, 22.597968], [98.8404146, 22.5975759], [98.8410941, 22.5967263], [98.8414764, 22.5953278], [98.8420143, 22.5945698], [98.8425947, 22.5947266], [98.8432318, 22.5945436], [98.8434158, 22.5939685], [98.8448457, 22.5926354], [98.8454827, 22.5921125], [98.8473797, 22.5910146], [98.8487954, 22.590348], [98.8494183, 22.5901389], [98.8500412, 22.5905049], [98.850565, 22.5903872], [98.851018, 22.5901127], [98.8524054, 22.5894069], [98.852915, 22.5892239], [98.853906, 22.5891978], [98.854444, 22.5895115], [98.8548687, 22.5894984], [98.8553925, 22.5894984], [98.8562136, 22.5893154], [98.8564967, 22.5891978], [98.8569356, 22.5887403], [98.8581814, 22.5883351], [98.8587052, 22.5884397], [98.8595404, 22.588309], [98.8598094, 22.5879169], [98.8597952, 22.5872764], [98.8599934, 22.5868058], [98.8604606, 22.5867013], [98.8607721, 22.5867666], [98.8614799, 22.587028], [98.8620603, 22.5864268], [98.8622302, 22.5858124], [98.8626266, 22.5852504], [98.8630513, 22.5846491], [98.8634194, 22.5843223], [98.8638441, 22.5837211], [98.8639007, 22.5828714], [98.8645236, 22.5823747], [98.8648067, 22.582427], [98.8655854, 22.5831198], [98.8659959, 22.5831982], [98.8667038, 22.5821394], [98.8671143, 22.5816166], [98.8671992, 22.5809238], [98.8671851, 22.5797343], [98.8674824, 22.5792114], [98.8684592, 22.5781134], [98.8693794, 22.5766101], [98.8699598, 22.5767278], [98.8702146, 22.5765578], [98.8702571, 22.5761265], [98.8701438, 22.5755905], [98.8701863, 22.5750284], [98.8704411, 22.5746101], [98.8707809, 22.5735513], [98.8709366, 22.5731852], [98.8712622, 22.5727277], [98.8717577, 22.5721395], [98.8719559, 22.5715773], [98.8722532, 22.5706492], [98.8725647, 22.5703093], [98.873046, 22.5698518], [98.8731734, 22.5696295], [98.8731876, 22.5688452], [98.8734849, 22.5680085], [98.873952, 22.566479], [98.8739237, 22.5657077], [98.8739803, 22.5652632], [98.8740936, 22.5647142], [98.8746599, 22.5634199], [98.8746174, 22.5627794], [98.8747731, 22.5623741], [98.8755517, 22.5616028], [98.8761746, 22.5609229], [98.8764295, 22.5603216], [98.8764011, 22.5597594], [98.8761322, 22.5590796], [98.8767268, 22.5580206], [98.8776328, 22.5575369], [98.8780858, 22.5570662], [98.8782132, 22.5564648], [98.8781566, 22.5552882], [98.8792608, 22.5540069], [98.8804358, 22.5525819], [98.8814551, 22.5503331], [98.882078, 22.5492479], [98.885957, 22.5505815], [98.8884344, 22.5514183], [98.8892272, 22.552438], [98.8905721, 22.5541638], [98.8903456, 22.5546606], [98.8904871, 22.5561772], [98.8916338, 22.5574715], [98.8939131, 22.5580337], [98.8954562, 22.5597856], [98.8984008, 22.5630931], [98.9007933, 22.5650933], [98.9025912, 22.5649103], [98.9043608, 22.565041], [98.9056491, 22.5651325], [98.9077867, 22.5649233], [98.9101085, 22.5645704], [98.9124585, 22.563433], [98.9125434, 22.5644004], [98.9184468, 22.5630147], [98.9201031, 22.5624917], [98.9224956, 22.5622303], [98.9240246, 22.5620603], [98.925143, 22.562361], [98.9264454, 22.563786], [98.92813, 22.564858], [98.9310039, 22.5661522], [98.9324903, 22.5668581], [98.9347696, 22.56827], [98.9354633, 22.5697864], [98.9358172, 22.5736166], [98.9366383, 22.5741657], [98.9378133, 22.5751591], [98.9382097, 22.577133], [98.9385353, 22.5779304], [98.9389458, 22.5789369], [98.9392997, 22.5795382], [98.941126, 22.580414], [98.9419187, 22.5804794], [98.9439432, 22.5801003], [98.947355, 22.5806624], [98.9482327, 22.5806754], [98.9496767, 22.580414], [98.9521966, 22.5797343], [98.9539803, 22.5796036], [98.9549288, 22.580048], [98.9563728, 22.5817734], [98.9583831, 22.5819172], [98.9608464, 22.5819564], [98.9619789, 22.5820349], [98.9643856, 22.5819434], [98.966594, 22.5821656], [98.968307, 22.5821002], [98.9707561, 22.5818257], [98.971832, 22.5823224], [98.973007, 22.5821264], [98.973998, 22.5814074], [98.9747766, 22.5812114], [98.9751447, 22.5813421], [98.9755411, 22.5820087], [98.9761923, 22.5822179], [98.9768718, 22.5820741], [98.977424, 22.581695], [98.978061, 22.5811591], [98.9784574, 22.5797996], [98.9787972, 22.5788977], [98.9798023, 22.5774598], [98.9809065, 22.5759565], [98.982308, 22.5751199], [98.9838936, 22.5737473], [98.9846156, 22.5741003], [98.9853659, 22.5741787], [98.9861304, 22.5737212], [98.9861021, 22.573133], [98.9860171, 22.5724271], [98.9871072, 22.5716819], [98.9895139, 22.5707669], [98.9916798, 22.5687668], [98.9929256, 22.5676556], [98.9946245, 22.5660999], [98.9957576, 22.5652354], [98.9966494, 22.5650655], [98.9988154, 22.56534], [99.0001598, 22.5658405], [99.0010825, 22.5664746], [99.0024773, 22.5677625], [99.00237, 22.5685353], [99.0020481, 22.5694864], [99.0022841, 22.5706753], [99.0024343, 22.5715867], [99.0035931, 22.5723991], [99.0037647, 22.5739247], [99.0047303, 22.5750739], [99.0060178, 22.5759259], [99.006919, 22.5764212], [99.0059319, 22.5769166], [99.0055028, 22.577511], [99.0050307, 22.5785016], [99.0050951, 22.5793536], [99.0054813, 22.5801461], [99.0047303, 22.5811367], [99.0037433, 22.5821868], [99.003357, 22.5830586], [99.0023914, 22.5838114], [99.0018121, 22.5853964], [99.002091, 22.5854955], [99.0023914, 22.5862285], [99.00237, 22.5866445], [99.0019194, 22.5884672], [99.0016404, 22.588705], [99.00031, 22.5892993], [99.0001384, 22.5899927], [99.0006748, 22.5903295], [99.00134, 22.5910427], [99.0011898, 22.5918153], [99.0019837, 22.5919936], [99.0022198, 22.5915974], [99.003121, 22.5913795], [99.0050307, 22.5914587], [99.0092364, 22.5924691], [99.0084425, 22.5962728], [99.0063182, 22.5982736], [99.0029922, 22.6026318], [99.0051595, 22.6082972], [99.0047947, 22.6123381], [99.0038076, 22.6152103], [99.0035716, 22.6187162], [99.0017048, 22.6246385], [99.0027991, 22.6261437], [99.004151, 22.6295702], [99.003357, 22.6338085], [99.0028635, 22.6366802], [99.0074769, 22.6407005], [99.0096012, 22.6435721], [99.010953, 22.6464238], [99.0132919, 22.6473347], [99.015781, 22.6485427], [99.0169571, 22.6532337], [99.0207567, 22.6561884], [99.0218324, 22.6609163], [99.0217894, 22.6652923], [99.0221542, 22.6678466], [99.0232486, 22.6706582], [99.0231413, 22.6741429], [99.022283, 22.674717], [99.0197724, 22.6756872], [99.0158027, 22.6805775], [99.0156955, 22.6817456], [99.0153521, 22.6870712], [99.0147942, 22.6891697], [99.0124768, 22.6937427], [99.0094727, 22.6956036], [99.0043014, 22.6979791], [99.0015549, 22.7016413], [98.9992374, 22.7029676], [98.9959973, 22.704947], [98.9939159, 22.7084903], [98.9932293, 22.7141513], [98.9893669, 22.7172984], [98.9889163, 22.7210393], [98.9902252, 22.7239685], [98.9916414, 22.7293123], [98.9893669, 22.7309352], [98.9901608, 22.7338444], [98.9895815, 22.7349725], [98.9903754, 22.7363578], [98.9923495, 22.7384358], [98.9950532, 22.7406522], [98.9956969, 22.7417604], [98.9946884, 22.7429676], [98.9920276, 22.7431457], [98.9891523, 22.7418792], [98.9874142, 22.743957], [98.9884871, 22.7457776], [98.9899463, 22.7471035], [98.9922422, 22.7471233], [98.9945167, 22.7470837], [98.9956052, 22.7483916], [98.9943856, 22.7503112], [98.9939628, 22.751241], [98.9943856, 22.7524257], [98.994971, 22.7536854], [98.9949873, 22.7546901], [98.9946783, 22.7555449], [98.9938001, 22.7561897], [98.9924179, 22.7569845], [98.9927106, 22.7575544], [98.9940603, 22.7585141], [98.9945319, 22.7599387], [98.9945319, 22.7608684], [98.994288, 22.7625029], [98.9941889, 22.7636908], [98.9936793, 22.7656359], [98.9943871, 22.7673721], [98.9940631, 22.7694862], [98.9928787, 22.7697028], [98.9925073, 22.7700453], [98.9920579, 22.7704498], [98.990627, 22.7700381], [98.9902316, 22.7702755], [98.9900809, 22.7706316], [98.9900809, 22.7711151], [98.9894739, 22.7718264], [98.9891631, 22.7722564], [98.9886399, 22.7724685], [98.9878588, 22.7733481], [98.9858996, 22.7740829], [98.9843236, 22.7736894], [98.9828001, 22.7739285], [98.9810459, 22.7743478], [98.9791701, 22.7756002], [98.9783521, 22.7776215], [98.9774849, 22.7781652], [98.9769672, 22.7777196], [98.9765117, 22.7774677], [98.9755946, 22.77808], [98.9745214, 22.7790095], [98.9732042, 22.7806795], [98.9709831, 22.7811379], [98.9696938, 22.7809551], [98.9679775, 22.7804773], [98.967127, 22.780884], [98.9663078, 22.7821226], [98.9648246, 22.7826696], [98.9642223, 22.7830398], [98.9622989, 22.7827092], [98.9616428, 22.7833141], [98.9614183, 22.7842011], [98.9613518, 22.7850908], [98.9605722, 22.7857782], [98.9579818, 22.786141], [98.9560059, 22.7872161], [98.9555158, 22.7878788], [98.9544361, 22.7885123], [98.9535793, 22.7896363], [98.95135, 22.7900292], [98.9490709, 22.7921304], [98.9466573, 22.794085], [98.9459119, 22.7954919], [98.9458436, 22.7970022], [98.9451111, 22.7974411], [98.9416448, 22.7947155], [98.9392268, 22.7942511], [98.9369099, 22.7939105], [98.9337654, 22.794908], [98.9311431, 22.7943115], [98.9295839, 22.793624], [98.9286426, 22.7931057], [98.9285535, 22.7929671], [98.9279063, 22.7916043], [98.9273377, 22.791564], [98.9269353, 22.7919026], [98.926533, 22.7927252], [98.9263318, 22.7941041], [98.9259207, 22.7951443], [98.9260956, 22.7960717], [98.9268041, 22.7970313], [98.9269739, 22.7976613], [98.9272519, 22.79836], [98.9273465, 22.7988456], [98.9268129, 22.7992084], [98.9258332, 22.7990391], [98.9247748, 22.7994503], [98.9238739, 22.7994261], [98.922903, 22.7990713], [98.9225968, 22.7991842], [98.9221333, 22.8002889], [98.920585, 22.8026031], [98.9202352, 22.8039981], [98.919929, 22.8062477], [98.9192817, 22.8071427], [98.9177598, 22.8081264], [98.9163253, 22.8081748], [98.915538, 22.8081264], [98.9153194, 22.8083845], [98.9151794, 22.8090134], [98.9154593, 22.8091504], [98.9161503, 22.8089327], [98.9172612, 22.8094488], [98.9180047, 22.8105776], [98.9188094, 22.8125207], [98.9197541, 22.8136011], [98.9206025, 22.8147863], [98.9205063, 22.8153346], [98.9188269, 22.8163263], [98.9184245, 22.8169391], [98.918442, 22.8176566], [98.9191505, 22.8189385], [98.9197366, 22.819777], [98.9195267, 22.8213492], [98.9197978, 22.8228649], [98.9196316, 22.8231148], [98.9192293, 22.8234453], [98.9190718, 22.8247595], [98.9196229, 22.8257188], [98.9191855, 22.8295563], [98.9196929, 22.8304995], [98.9196141, 22.8315637], [98.9188356, 22.8322086], [98.9175761, 22.8322005], [98.9166664, 22.8316282], [98.9157305, 22.830564], [98.9148383, 22.8307494], [98.9144447, 22.8313299], [98.9136312, 22.8324182], [98.9127915, 22.8329422], [98.912669, 22.8333372], [98.9126515, 22.8345545], [98.9123104, 22.8367553], [98.9123279, 22.8377307], [98.9125028, 22.8386819], [98.9123979, 22.8396412], [98.9123017, 22.8407375], [98.912704, 22.8410922], [98.9131151, 22.8414953], [98.9141123, 22.8435266], [98.9145059, 22.8444536], [98.9141123, 22.8453726], [98.9136312, 22.8457756], [98.9130801, 22.845832], [98.9120742, 22.8453564], [98.9115232, 22.8456386], [98.9114357, 22.8461303], [98.9103861, 22.8465333], [98.9097213, 22.8473636], [98.9094676, 22.8479439], [98.909765, 22.8497334], [98.9093934, 22.8501418], [98.9083329, 22.8504676], [98.9072319, 22.8512308], [98.9069592, 22.8520778], [98.9076057, 22.8533809], [98.9083935, 22.8539207], [98.9083935, 22.8544792], [98.9089894, 22.8556984], [98.9088783, 22.8562848], [98.908949, 22.8567594], [98.9083834, 22.8573179], [98.9069996, 22.8584999], [98.9058684, 22.8597191], [98.9043938, 22.8611338], [98.9043029, 22.861748], [98.9037675, 22.862809], [98.9034645, 22.8644656], [98.9029191, 22.8657778], [98.9020808, 22.866876], [98.9013334, 22.8677415], [98.9014142, 22.8684116], [98.9014142, 22.8689793], [98.9015556, 22.8694725], [98.9016667, 22.8710267], [98.9007879, 22.8721248], [98.8988285, 22.8728786], [98.8977175, 22.8738185], [98.8957984, 22.874898], [98.895051, 22.8758379], [98.8949399, 22.8766475], [98.8950308, 22.8777549], [98.8944248, 22.8789739], [98.8933743, 22.8802023], [98.8923744, 22.8809281], [98.8912028, 22.8817749], [98.8880717, 22.8820634], [98.8868091, 22.8825659], [98.8850921, 22.8830405], [98.8843851, 22.8835337], [98.8829306, 22.8836453], [98.8820822, 22.8841013], [98.8808297, 22.8851993], [98.8800419, 22.8860275], [98.8791329, 22.8874419], [98.8765775, 22.8887446], [98.8759311, 22.8897495], [98.8759816, 22.8905032], [98.8763553, 22.891657], [98.8759008, 22.8933505], [98.8757493, 22.8949695], [98.8758301, 22.8968676], [98.8757291, 22.8972863], [98.8739211, 22.8988122], [98.8732949, 22.9001893], [98.8734161, 22.9007289], [98.8732343, 22.9017617], [98.8719011, 22.9027851], [98.8715072, 22.9036132], [98.8709214, 22.9040412], [98.8703335, 22.9042385], [98.8685377, 22.9048413], [98.866457, 22.9049623], [98.8657803, 22.9055763], [98.8658308, 22.9063578], [98.8658611, 22.9067393], [98.8648511, 22.9082], [98.8635986, 22.9082465], [98.8626997, 22.9086559], [98.8621644, 22.909456], [98.8612049, 22.9100142], [98.8587202, 22.9125168], [98.8583162, 22.9133727], [98.858195, 22.9143403], [98.857094, 22.9159963], [98.8542357, 22.917829], [98.8536296, 22.9191314], [98.8535286, 22.919643], [98.8531448, 22.9202105], [98.8523065, 22.9206012], [98.8517409, 22.9213827], [98.8495996, 22.9224525], [98.8486603, 22.9233548], [98.8482765, 22.9240339], [98.8481856, 22.9256247], [98.8484482, 22.9263968], [98.8485189, 22.9270852], [98.8487108, 22.928434], [98.848327, 22.9295782], [98.8479331, 22.9301177], [98.8470745, 22.9311781], [98.8459433, 22.9315409], [98.8453474, 22.93182], [98.844206, 22.9329641], [98.8428122, 22.9342943], [98.8422567, 22.9350757], [98.8416002, 22.935978], [98.8413275, 22.9363872], [98.8400346, 22.9371221], [98.8390848, 22.937813], [98.8386214, 22.9357295], [98.8377631, 22.9332988], [98.8363361, 22.9312101], [98.8365722, 22.9286015], [98.8347483, 22.9249059], [98.833847, 22.9215857], [98.829577, 22.9189571], [98.8269806, 22.9173562], [98.8255, 22.9140754], [98.8253498, 22.9122768], [98.8258862, 22.911249], [98.8266587, 22.9076123], [98.8264012, 22.9058927], [98.8251781, 22.9033429], [98.8255429, 22.900121], [98.8260794, 22.8963257], [98.8265514, 22.8932421], [98.8269806, 22.8921351], [98.827002, 22.8882013], [98.8279247, 22.8868768], [98.8276243, 22.88575], [98.8235474, 22.8818753], [98.8220024, 22.8810845], [98.8183546, 22.8804717], [98.8160801, 22.8806496], [98.8147068, 22.8807089], [98.813355, 22.8798984], [98.809278, 22.8760235], [98.8070893, 22.8731568], [98.8040423, 22.8709425], [98.8005662, 22.870903], [98.79915, 22.8707053], [98.7952661, 22.8691829], [98.7923264, 22.8674233], [98.7891078, 22.866059], [98.7868333, 22.8654857], [98.7838721, 22.8648332], [98.7834001, 22.8623222], [98.7829709, 22.8600484], [98.7814903, 22.8584468], [98.7791085, 22.8574187], [98.7761044, 22.8576955], [98.7710619, 22.8593564], [98.7685513, 22.8587434], [98.7656116, 22.8577152], [98.7626076, 22.8589214], [98.7597108, 22.8590993], [98.7553334, 22.8587632], [98.7534451, 22.8558764], [98.7494111, 22.8532861], [98.7444329, 22.8517042], [98.7404847, 22.8511506], [98.7338757, 22.8498455], [98.7326097, 22.8499246], [98.7317729, 22.8517438], [98.7308931, 22.8520602], [98.7277174, 22.8515263], [98.7263193, 22.851097], [98.725913, 22.8506551]]]]}}