{"type": "Feature", "properties": {"source_pcode": "MMR013018701526", "entity_type": "ward", "name_en": "No (106) Ward", "name_my": "\u1021\u1019\u103e\u1010\u103a (\u1041\u1040\u1046) \u101b\u1015\u103a\u1000\u103d\u1000\u103a", "role": "source", "pcode": "MMR013018701526"}, "geometry": {"type": "Polygon", "coordinates": [[[96.25893211442559, 16.890470504410295], [96.26675904009767, 16.88404714436029], [96.26241031438457, 16.87913864643144], [96.25457440538459, 16.88553560418484], [96.25893211442559, 16.890470504410295]]]}}