{"type": "Feature", "properties": {"role": "candidate", "core_id": 5183, "public_id": "b463e80f-9d80-4de1-b135-1e73f108eacb", "is_proposed_survivor": false, "source_coverage_pct": 99.92999999999999, "candidate_coverage_pct": 99.6, "centroid_dist_m": 1.5}, "geometry": {"type": "MultiPolygon", "coordinates": [[[[96.2545744, 16.8855356], [96.2558002, 16.8845501], [96.2596397, 16.8813934], [96.2603893, 16.8807926], [96.2615719, 16.8798332], [96.2624103, 16.8791386], [96.2665111, 16.8837673], [96.266759, 16.8840471], [96.2623046, 16.8877348], [96.2618141, 16.8881125], [96.2589321, 16.8904705], [96.2582901, 16.8897675], [96.2572621, 16.8886634], [96.2564626, 16.8877497], [96.2553395, 16.8863982], [96.2545744, 16.8855356]]]]}}