{"type": "Feature", "properties": {"role": "candidate", "core_id": 6908, "public_id": "e32465e7-619b-4bf9-98a3-b1cd445adcb6", "is_proposed_survivor": false, "source_coverage_pct": 96.89999999999999, "candidate_coverage_pct": 95.5, "centroid_dist_m": 8.8}, "geometry": {"type": "MultiPolygon", "coordinates": [[[[95.4393217, 21.2810378], [95.4399689, 21.2808951], [95.440597, 21.2806809], [95.4408778, 21.2806191], [95.4411824, 21.280581], [95.4414536, 21.2805953], [95.4416868, 21.2806143], [95.44192, 21.2806571], [95.4423103, 21.2807142], [95.4425434, 21.2807333], [95.4428195, 21.2807095], [95.4429432, 21.2806428], [95.4424721, 21.2800861], [95.4419866, 21.2794626], [95.4416773, 21.2790534], [95.4414647, 21.2786993], [95.44123, 21.2784204], [95.4409206, 21.2779636], [95.4406684, 21.2775781], [95.4404114, 21.2772545], [95.440164, 21.2768928], [95.4401021, 21.276612], [95.4407208, 21.2767025], [95.4413965, 21.2768167], [95.4416202, 21.2768405], [95.4420628, 21.2769119], [95.4424387, 21.2769594], [95.4434381, 21.2771403], [95.4439521, 21.2772593], [95.4445993, 21.2774401], [95.4454066, 21.2776292], [95.4454855, 21.2778285], [95.4454573, 21.2781197], [95.4453352, 21.2784108], [95.4452507, 21.2786268], [95.4452461, 21.2788564], [95.4452223, 21.2791975], [95.4451986, 21.279713], [95.4451986, 21.2805221], [95.4452303, 21.2814282], [95.4452663, 21.2817591], [95.4453255, 21.2822928], [95.4453703, 21.2831403], [95.4449984, 21.2831646], [95.444532, 21.2832646], [95.4443512, 21.2832598], [95.4440799, 21.2832741], [95.4438277, 21.2833026], [95.4436802, 21.2832598], [95.443447, 21.2832075], [95.4432233, 21.2831837], [95.4430092, 21.2831361], [95.4429426, 21.2831361], [95.4427284, 21.2832931], [95.4424952, 21.2834406], [95.4423382, 21.2835168], [95.4421526, 21.2835834], [95.4420051, 21.2835834], [95.4419194, 21.2835025], [95.4418623, 21.2834073], [95.4417814, 21.2833122], [95.4417671, 21.2832646], [95.4411199, 21.2834264], [95.4408962, 21.2835025], [95.4403965, 21.2835977], [95.4402014, 21.2835882], [95.4400825, 21.2835549], [95.4399825, 21.2835025], [95.4400342, 21.2833841], [95.4402794, 21.2830891], [95.4406367, 21.2829312], [95.4407032, 21.2827982], [95.4406866, 21.2825697], [95.4407032, 21.2823037], [95.4406866, 21.2820212], [95.4406575, 21.2817635], [95.4405412, 21.2815849], [95.4402711, 21.2815765], [95.4399844, 21.2815807], [95.4397891, 21.2815599], [95.4396104, 21.2815558], [95.4395131, 21.2815625], [95.4394168, 21.2813329], [95.439355, 21.2811711], [95.4393217, 21.2810378]]]]}}