{"type": "FeatureCollection", "features": [{"type": "Feature", "properties": {"source_pcode": "MMR015005071", "entity_type": "village_tract", "name_en": "Ba Yin", "name_my": "ဗယင်း"}, "geometry": {"type": "Polygon", "coordinates": [[[98.82591561101668, 22.470450633889694], [98.83163147621173, 22.46515890875667], [98.83618402427334, 22.457241433045734], [98.84014276167915, 22.44615696776992], [98.8424257842226, 22.441441345641632], [98.84300417869999, 22.436985760684365], [98.8392962703067, 22.436985678846035], [98.83647679227022, 22.433038041772246], [98.82925623268903, 22.431113764188922], [98.8195573259099, 22.429134395036325], [98.80436743840664, 22.430585351332923], [98.80471205861465, 22.433686943997305], [98.80946254386134, 22.444177598617337], [98.82054701003653, 22.463971288344336], [98.82591561101668, 22.470450633889694]]]}}]}