{"type": "FeatureCollection", "features": [{"type": "Feature", "properties": {"source_pcode": "MMR015005036", "entity_type": "village_tract", "name_en": "Pang Kaw (Upper)", "name_my": "ပန်ကော် (ထက်)"}, "geometry": {"type": "Polygon", "coordinates": [[[98.66179960067109, 22.63444689231028], [98.66596703115363, 22.631750320121228], [98.67070519388966, 22.631192888840808], [98.67469778537458, 22.63132597591311], [98.6739657363297, 22.629904574036907], [98.66809536131194, 22.624179640977673], [98.6613141412347, 22.619314852798247], [98.65350099677363, 22.61503973659461], [98.64848879082507, 22.615776826339527], [98.64156015387806, 22.617840675107118], [98.63757987231334, 22.62373738767036], [98.63327861191846, 22.62754599585104], [98.63371153475958, 22.628987702620407], [98.63530832961578, 22.631471604930653], [98.6428336469553, 22.63398004434361], [98.65593327440115, 22.634816189915284], [98.66179960067109, 22.63444689231028]]]}}]}