{"type": "FeatureCollection", "features": [{"type": "Feature", "properties": {"source_pcode": "MMR015005013", "entity_type": "village_tract", "name_en": "Nar Hnyi", "name_my": "နားညှိ"}, "geometry": {"type": "Polygon", "coordinates": [[[98.61036036174136, 22.690949065247192], [98.60743678268142, 22.68805084437105], [98.60662057597887, 22.691505559434063], [98.59973397244494, 22.691161228807676], [98.59532654528391, 22.690403702868654], [98.59399513496754, 22.6909775863466], [98.59424764391372, 22.69272219287495], [98.59337534019983, 22.694076558386477], [98.59119458226422, 22.693847004635586], [98.5921127963685, 22.687993391182083], [98.59303767624783, 22.685868168181454], [98.59015642467932, 22.684427543296522], [98.55606725110283, 22.671353476381846], [98.55590292877719, 22.672430683429347], [98.55143520027434, 22.680494135296154], [98.54816236410187, 22.68464837542222], [98.54353835141387, 22.68921421096712], [98.54122374018351, 22.692956430295055], [98.54054112867021, 22.696758292661116], [98.5401413791214, 22.702354785445028], [98.54082666431918, 22.705324352237138], [98.5424223026472, 22.70978174663036], [98.54465283715878, 22.71074952327194], [98.5496782586448, 22.711663236269363], [98.5520767559376, 22.71309091271547], [98.55294076700284, 22.715520948333168], [98.56702304138031, 22.71452881265463], [98.57845037498487, 22.717315967258116], [98.59935403496081, 22.732924033217614], [98.60141652934942, 22.736533399296995], [98.59935403496081, 22.72484128459763], [98.6035347673157, 22.71843082891968], [98.60938779171329, 22.711462942860567], [98.61189623112625, 22.702822762960178], [98.61217494631677, 22.69613359209165], [98.61036036174136, 22.690949065247192]]]}}]}