{"type": "FeatureCollection", "features": [{"type": "Feature", "properties": {"source_pcode": "MMR015005074", "entity_type": "village_tract", "name_en": "Yawng Tein", "name_my": "ယောင်တိမ်း"}, "geometry": {"type": "Polygon", "coordinates": [[[98.8805675349638, 22.553418545229704], [98.88921288866398, 22.549488837939585], [98.88810569642084, 22.53957240314395], [98.88502110903698, 22.527721095851916], [98.88371022124977, 22.52588585205046], [98.88144948300732, 22.527234056306725], [98.87463092217939, 22.523987122407846], [98.86894878875563, 22.52577293587234], [98.86737078613295, 22.52507244583677], [98.86911113617003, 22.53324088276059], [98.87024756177561, 22.540546483133767], [98.87284510871484, 22.546553309587633], [98.87346335395068, 22.552612115057112], [98.87576734868424, 22.552397790425736], [98.8805675349638, 22.553418545229704]]]}}]}