{"type": "FeatureCollection", "features": [{"type": "Feature", "properties": {"source_pcode": "MMR015005030", "entity_type": "village_tract", "name_en": "Nar Hkar Hseng", "name_my": "နားခါးဆိုင်"}, "geometry": {"type": "Polygon", "coordinates": [[[98.66103260127358, 22.568009450076087], [98.67192822420822, 22.569340212880547], [98.68843901974505, 22.572141151393048], [98.69079770495017, 22.565507349984262], [98.69588684430249, 22.565026480687607], [98.69020803387372, 22.5575467868548], [98.68312301201746, 22.545834814225376], [98.67694043015678, 22.54958622462459], [98.66352540777143, 22.550912986345278], [98.65272599340994, 22.54991097790935], [98.66103260127358, 22.568009450076087]]]}}]}