{"type": "FeatureCollection", "features": [{"type": "Feature", "properties": {"source_pcode": "MMR015005080", "entity_type": "village_tract", "name_en": "Pang Hpein", "name_my": "ပန်ဖိန်း"}, "geometry": {"type": "Polygon", "coordinates": [[[98.87237871400652, 22.474086822249095], [98.8801260128053, 22.475649564276008], [98.88539530075258, 22.473893135260024], [98.89041873113956, 22.460210487224227], [98.8973465218246, 22.457043495860706], [98.90765345214515, 22.457246854159045], [98.90761333698595, 22.455602147021523], [98.90594104404403, 22.44724068411033], [98.89674343376254, 22.442781237464196], [98.89092765568682, 22.439414207199945], [98.8838282680602, 22.440893144103377], [98.87640630081017, 22.438939736579634], [98.87339131915411, 22.436388370726775], [98.8669581942653, 22.445998411897218], [98.8648848729386, 22.45407444258149], [98.8672601146626, 22.462387791763195], [98.87237871400652, 22.474086822249095]]]}}]}