{"type": "FeatureCollection", "features": [{"type": "Feature", "properties": {"source_pcode": "MMR015005037", "entity_type": "village_tract", "name_en": "Mut Sa Moet", "name_my": "မွတ်စမို့"}, "geometry": {"type": "Polygon", "coordinates": [[[98.78565861885022, 22.669989210233894], [98.78584682357211, 22.662721579237544], [98.77821647081356, 22.661181513615983], [98.75113991287674, 22.652540060275612], [98.74224652255901, 22.654252875769664], [98.73236529262421, 22.65779648881693], [98.72912633840986, 22.66206602113004], [98.72329501285463, 22.66807415879544], [98.7275631476212, 22.68860827475214], [98.731431245056, 22.70220848913049], [98.73794075835934, 22.705943750403826], [98.74540093780308, 22.699199461885705], [98.78565861885022, 22.669989210233894]]]}}]}