{"type": "FeatureCollection", "features": [{"type": "Feature", "properties": {"source_pcode": "MMR015005040", "entity_type": "village_tract", "name_en": "Maw Pa Long", "name_my": "မော်ပလုံ"}, "geometry": {"type": "Polygon", "coordinates": [[[98.75113991287674, 22.652540060275612], [98.77821647081356, 22.661181513615983], [98.78584682357211, 22.662721579237544], [98.78470285445326, 22.641869780466035], [98.78573477973634, 22.62580123733727], [98.78891542550656, 22.619043756664087], [98.77422811963208, 22.607576813319326], [98.76745497007084, 22.62137870336454], [98.76155825840698, 22.63700499228662], [98.75477703832973, 22.650714849310873], [98.75113991287674, 22.652540060275612]]]}}]}