{"type": "FeatureCollection", "features": [{"type": "Feature", "properties": {"source_pcode": "MMR015005041", "entity_type": "village_tract", "name_en": "Maw Hpyaik (Nawng Chan)", "name_my": "မော်ဖြိုက် (နောင်ချမ်)"}, "geometry": {"type": "Polygon", "coordinates": [[[98.71257390875894, 22.553948310666044], [98.71453197387154, 22.556957115778346], [98.72544089238336, 22.569929883957], [98.73369629015173, 22.580543966930577], [98.7406701477092, 22.585925727690217], [98.74233506800903, 22.582138969437942], [98.75181139258177, 22.575449798569423], [98.75264753995208, 22.569875488463083], [98.75487726237583, 22.563186317594557], [98.75487726237583, 22.557054576207797], [98.75125396220068, 22.5520376982812], [98.74484350652267, 22.54757825163506], [98.74224169679695, 22.54492855930561], [98.73590755668847, 22.530127072806238], [98.73207469379213, 22.53631862180702], [98.71969159668987, 22.549881061062194], [98.71257390875894, 22.553948310666044]]]}}]}