{"type": "FeatureCollection", "features": [{"type": "Feature", "properties": {"source_pcode": "MMR015005072", "entity_type": "village_tract", "name_en": "Ka Long", "name_my": "ကလုံ"}, "geometry": {"type": "Polygon", "coordinates": [[[98.84647189256384, 22.539661694131944], [98.8551493223834, 22.548663816981612], [98.86180604930979, 22.554715385606578], [98.86716297529114, 22.563112670313565], [98.87043362790968, 22.56909168972975], [98.87430622914923, 22.56700899027271], [98.87706612170422, 22.558729309909776], [98.8805675349638, 22.553418545229704], [98.87576734868424, 22.552397790425736], [98.87346335395068, 22.552612115057112], [98.87284510871484, 22.546553309587633], [98.87024756177561, 22.540546483133767], [98.86911113617003, 22.53324088276059], [98.86626421981794, 22.52000549365863], [98.86277961488737, 22.521389576367877], [98.85283333159305, 22.520429574365437], [98.85141534803995, 22.52674701586215], [98.84833076155547, 22.53210445625569], [98.84647189256384, 22.539661694131944]]]}}]}