{"type": "FeatureCollection", "features": [{"type": "Feature", "properties": {"source_pcode": "MMR015005018", "entity_type": "village_tract", "name_en": "Man Mann Hseng", "name_my": "မန်မန်းဆိုင်"}, "geometry": {"type": "Polygon", "coordinates": [[[98.68873385528326, 22.646587149977055], [98.7036230553598, 22.663097944614492], [98.71600615156268, 22.666930809309456], [98.72329501285463, 22.66807415879544], [98.72912633840986, 22.66206602113004], [98.73236529262421, 22.65779648881693], [98.73001084412522, 22.654842547745428], [98.72376132842265, 22.645220441270396], [98.71615357023114, 22.637594663363075], [98.70509723305094, 22.631550532131428], [98.69418831543845, 22.629339264695368], [98.68460615594938, 22.628159921643146], [98.6739657363297, 22.629904574036907], [98.67469778537458, 22.63132597591311], [98.68151038189865, 22.640543018745344], [98.68873385528326, 22.646587149977055]]]}}]}