{"type": "FeatureCollection", "features": [{"type": "Feature", "properties": {"source_pcode": "MMR015005003", "entity_type": "village_tract", "name_en": "Yay Hson", "name_my": "ယေးဆုံ"}, "geometry": {"type": "Polygon", "coordinates": [[[98.67120135705704, 22.833406527389386], [98.67443976898022, 22.815518158436305], [98.68138552632104, 22.80538110645296], [98.68590271663714, 22.802592716180975], [98.67950829497188, 22.79674583775028], [98.67481521525002, 22.794117712962134], [98.66768173432462, 22.787735124576383], [98.66523924129802, 22.78493716641713], [98.65481841184027, 22.785601256392912], [98.64251758831608, 22.788813409011652], [98.65191298559586, 22.80763378317261], [98.66730628805482, 22.83034828924217], [98.67120135705704, 22.833406527389386]]]}}]}