{"type": "FeatureCollection", "features": [{"type": "Feature", "properties": {"source_pcode": "MMR015005052", "entity_type": "village_tract", "name_en": "Nam Kit", "name_my": "နမ့်ကစ်"}, "geometry": {"type": "Polygon", "coordinates": [[[98.71786074967395, 22.399564444243765], [98.71234177934969, 22.395964785446548], [98.70648232300086, 22.394792710715077], [98.70023220475252, 22.39479257491745], [98.69202894428042, 22.394011099132957], [98.67679440004162, 22.38932298187018], [98.67171620903588, 22.38815092602448], [98.67487657959055, 22.393470755870734], [98.67592917399224, 22.399252032355438], [98.67708784792592, 22.40143131810089], [98.68224747074424, 22.408654790586187], [98.6871201621658, 22.410771554563667], [98.69492540428405, 22.41602568173988], [98.70583432189648, 22.41720502389279], [98.71605010322975, 22.41753349587418], [98.71765340917756, 22.414528985024678], [98.71827440993616, 22.40987147708704], [98.71786074967395, 22.399564444243765]]]}}]}