{"type": "FeatureCollection", "features": [{"type": "Feature", "properties": {"source_pcode": "MMR015005017", "entity_type": "village_tract", "name_en": "Mar Teit", "name_my": "မာတဲ့"}, "geometry": {"type": "Polygon", "coordinates": [[[98.74688833912563, 22.79941987562682], [98.74995789883803, 22.786287419328964], [98.73759690437367, 22.769993190433468], [98.72589085467928, 22.750204392119024], [98.72747314167219, 22.746050889437065], [98.72338241616563, 22.74379393644107], [98.7108402200002, 22.73989192017603], [98.70610205726422, 22.740728065747692], [98.69885545511522, 22.743515221250497], [98.68910041355332, 22.748532099177115], [98.68408353562671, 22.75271283063268], [98.67858810865437, 22.750714493878828], [98.66457345340223, 22.760795580151978], [98.66317987565083, 22.774452637079605], [98.66523924129802, 22.78493716641713], [98.66768173432462, 22.787735124576383], [98.67481521525002, 22.794117712962134], [98.67950829497188, 22.79674583775028], [98.68590271663714, 22.802592716180975], [98.69659110519541, 22.795994945210616], [98.71386163810416, 22.79468088461516], [98.73845337552291, 22.79881079448262], [98.74688833912563, 22.79941987562682]]]}}]}