{"type": "FeatureCollection", "features": [{"type": "Feature", "properties": {"source_pcode": "MMR015005081", "entity_type": "village_tract", "name_en": "Huong Kut", "name_my": "ဟုန်းကွတ်"}, "geometry": {"type": "Polygon", "coordinates": [[[98.87043362790968, 22.56909168972975], [98.86716297529114, 22.563112670313565], [98.86180604930979, 22.554715385606578], [98.8551493223834, 22.548663816981612], [98.84647189256384, 22.539661694131944], [98.84427209508118, 22.539734749659033], [98.83794057469783, 22.533727923205163], [98.8295707876618, 22.52960556134763], [98.82527753393111, 22.529669255831546], [98.81964082166667, 22.531391959371494], [98.82386803907877, 22.544286106118932], [98.82734328386552, 22.545627241703873], [98.83319630916242, 22.55120155091089], [98.83433474115543, 22.55275410182037], [98.84044291131136, 22.556218430636132], [98.85596507762631, 22.572408216765837], [98.85742217539314, 22.57074296371684], [98.86375369487718, 22.568794803737262], [98.87043362790968, 22.56909168972975]]]}}]}