{"type": "FeatureCollection", "features": [{"type": "Feature", "properties": {"source_pcode": "MMR015005019", "entity_type": "village_tract", "name_en": "Mong Pat", "name_my": "မိုင်းပတ်"}, "geometry": {"type": "Polygon", "coordinates": [[[98.70042492856766, 22.659340147230058], [98.68873385528326, 22.646587149977055], [98.68151038189865, 22.640543018745344], [98.67469778537458, 22.63132597591311], [98.67070519388966, 22.631192888840808], [98.66596703115363, 22.631750320121228], [98.66179960067109, 22.63444689231028], [98.66345859084134, 22.63620976766668], [98.66568831506373, 22.66073672781778], [98.67209877074174, 22.676623509867106], [98.67020676083342, 22.68532675562534], [98.67823051122917, 22.687214697000737], [98.68787994900049, 22.693598172118012], [98.68883870274402, 22.68784564965705], [98.69677182575919, 22.68249540383988], [98.69880122869381, 22.674931263666956], [98.69917021243543, 22.66201687767682], [98.70042492856766, 22.659340147230058]]]}}]}