{"type": "FeatureCollection", "features": [{"type": "Feature", "properties": {"source_pcode": "MMR015005029", "entity_type": "village_tract", "name_en": "Nar Aw", "name_my": "နားအော်"}, "geometry": {"type": "Polygon", "coordinates": [[[98.63315733834054, 22.56491767800849], [98.66103260127358, 22.568009450076087], [98.65173198264495, 22.54781721139522], [98.6449507625677, 22.53690829288348], [98.63167395159167, 22.524384287305047], [98.61871039157137, 22.524525195781216], [98.61698697037247, 22.52500392379209], [98.61604204190678, 22.524701469197502], [98.61424874518349, 22.530256900735424], [98.61444775885707, 22.53404213643552], [98.61387668755913, 22.537125917127405], [98.61461907970681, 22.541466054314984], [98.61473329360668, 22.545931825893092], [98.61370536670938, 22.548958501433734], [98.61113554856678, 22.552327817774596], [98.60725226877724, 22.559523307854413], [98.6038258445871, 22.56254998159642], [98.60068495604594, 22.565919298836604], [98.59894365992204, 22.56871091137953], [98.60014812103901, 22.568987809040205], [98.6197423159552, 22.569782466187917], [98.63315733834054, 22.56491767800849]]]}}]}