{"type": "FeatureCollection", "features": [{"type": "Feature", "properties": {"source_pcode": "MMR015005031", "entity_type": "village_tract", "name_en": "Nam Hint", "name_my": "နမ့်ဟင့်"}, "geometry": {"type": "Polygon", "coordinates": [[[98.69487958922173, 22.510074322571985], [98.68976577966708, 22.509635996604], [98.68489502268721, 22.51410085806821], [98.66955846475139, 22.522693476422823], [98.67620334131125, 22.53469702634676], [98.69020803387372, 22.5575467868548], [98.69588684430249, 22.565026480687607], [98.70155920569283, 22.56300124700999], [98.70878267907744, 22.556957115778346], [98.71101742781212, 22.552754272691576], [98.69684183528256, 22.539561813626843], [98.69698925305164, 22.525557121064306], [98.69610474643696, 22.5131740239621], [98.69487958922173, 22.510074322571985]]]}}]}