{"type": "FeatureCollection", "features": [{"type": "Feature", "properties": {"source_pcode": "MMR015005082", "entity_type": "village_tract", "name_en": "Hsa Lar", "name_my": "ဆလား"}, "geometry": {"type": "Polygon", "coordinates": [[[98.8805675349638, 22.553418545229704], [98.87706612170422, 22.558729309909776], [98.87430622914923, 22.56700899027271], [98.87043362790968, 22.56909168972975], [98.86375369487718, 22.568794803737262], [98.85742217539314, 22.57074296371684], [98.85596507762631, 22.572408216765837], [98.86636344921385, 22.58325383020013], [98.87862692839008, 22.588828139407152], [98.8933988487779, 22.596632171937244], [98.9101217754996, 22.599419327440046], [98.92266397166503, 22.603042628514572], [98.92720583757938, 22.605427107175327], [98.92694671501893, 22.601216362645054], [98.92377883422586, 22.59997675692182], [98.91263021581187, 22.593287586053293], [98.90984306120839, 22.58548355262387], [98.90853486239405, 22.575802873303985], [98.90482740276246, 22.573340510656067], [98.90076873628823, 22.56976888372708], [98.89541129589463, 22.55872930990978], [98.88921288866398, 22.549488837939585], [98.8805675349638, 22.553418545229704]]]}}]}