{"type": "FeatureCollection", "features": [{"type": "Feature", "properties": {"source_pcode": "MMR015314004", "entity_type": "village_tract", "name_en": "Sa Lu", "name_my": "စ လူ"}, "geometry": {"type": "Polygon", "coordinates": [[[99.00854999508624, 22.305560946680373], [98.93911802807457, 22.345094565561798], [98.93911802807457, 22.4096969312684], [99.01591638513315, 22.447298827079237], [99.01759424397926, 22.446862928381506], [99.02646008716336, 22.437593177183423], [99.02686406172711, 22.42993650576517], [99.0300877922179, 22.42429182191011], [99.03895359493254, 22.419858936740575], [99.04370968655286, 22.416089944595342], [99.04540358930427, 22.409783874126543], [99.04943261682189, 22.402528603412346], [99.05104576944677, 22.39769174907502], [99.05185108985597, 22.393258808147547], [99.0490313582107, 22.388421923233246], [99.04016311563532, 22.37955597123113], [99.03814865583587, 22.37632968396781], [99.04338945326072, 22.3658506935547], [99.0454040596497, 22.35053735611415], [99.05024091938299, 22.342878170191447], [99.050240969745, 22.336430711008564], [99.05066143157985, 22.336349322363382], [99.03464064694833, 22.329498247446224], [99.02678842604507, 22.31617326428477], [99.00854999508624, 22.305560946680373]]]}}]}