{"type": "FeatureCollection", "features": [{"type": "Feature", "properties": {"source_pcode": "MMR015005050", "entity_type": "village_tract", "name_en": "To Lar", "name_my": "တိုလာ"}, "geometry": {"type": "Polygon", "coordinates": [[[98.78890814999119, 22.520284155789227], [98.79207374560696, 22.520839750654034], [98.79959205542906, 22.51700688685838], [98.80121365088934, 22.511110175194453], [98.80150848642757, 22.50329702983413], [98.80003430783711, 22.494746797426775], [98.79575919073415, 22.488555249325362], [98.78426060204521, 22.47735149437603], [98.77939581386579, 22.467474500248038], [98.7771608196162, 22.465370976989043], [98.77644745668482, 22.469243514376718], [98.7712878338665, 22.47572989801643], [98.76566126415605, 22.480832504716375], [98.76804464204668, 22.495631304041524], [98.76198047122182, 22.501197147930103], [98.7650962848657, 22.505803132808406], [98.76951881973781, 22.50934116106577], [98.77526811543123, 22.512436935116515], [98.78293384122384, 22.51833364767975], [98.78890814999119, 22.520284155789227]]]}}]}