{"type": "FeatureCollection", "features": [{"type": "Feature", "properties": {"source_pcode": "MMR015005083", "entity_type": "village_tract", "name_en": "Ta Aw Aun", "name_my": "တအော်အွန်"}, "geometry": {"type": "Polygon", "coordinates": [[[98.84367473390193, 22.49626505988464], [98.84410974766678, 22.498336347844198], [98.84686964202041, 22.505804294732457], [98.85076596197962, 22.514571016439326], [98.85283333159305, 22.520429574365437], [98.86277961488737, 22.521389576367877], [98.86626421981794, 22.52000549365863], [98.86878644224055, 22.516194481590105], [98.86911113617003, 22.50986296210607], [98.86748766922062, 22.503206748692545], [98.86732532180622, 22.498011654814096], [98.86783406289175, 22.493856939845955], [98.8602317078271, 22.48849057188244], [98.85773751277605, 22.483252761106073], [98.85615008076167, 22.482841938204963], [98.85214896010649, 22.483473693955883], [98.84367473390193, 22.49626505988464]]]}}]}