{"type": "FeatureCollection", "features": [{"type": "Feature", "properties": {"source_pcode": "MMR015317001", "entity_type": "village_tract", "name_en": "Nar Lawt", "name_my": "နာ လော့"}, "geometry": {"type": "Polygon", "coordinates": [[[99.15962726658512, 22.16670846282534], [99.15571632364947, 22.162689066147543], [99.14612377878946, 22.16050138972741], [99.13754057633656, 22.156312399797464], [99.12940391875588, 22.154843740346394], [99.12512766311124, 22.149812492152815], [99.12083489411515, 22.14793051328263], [99.12116281211416, 22.151095065684785], [99.11768510408434, 22.15350544571981], [99.10917210540839, 22.148982497044635], [99.10172314230925, 22.148982344159887], [99.09533834428919, 22.14765198605039], [99.09108174962313, 22.14951421940577], [99.08177063680552, 22.14552334292796], [99.07565175392534, 22.149247856403516], [99.06634060873216, 22.146587210331525], [99.063946360736, 22.14392670815113], [99.05809356116896, 22.145788904634273], [99.05783819957333, 22.14565298739551], [99.05697669581792, 22.156625428620647], [99.05959410338522, 22.17137808732889], [99.07220524697465, 22.183037446021387], [99.08719585100778, 22.19350707359262], [99.10218645504091, 22.206213396031433], [99.11860778602056, 22.2100357809266], [99.14634718207685, 22.184330933725672], [99.15181533800751, 22.185773407616693], [99.15633631357008, 22.181252431154796], [99.15483972657216, 22.17380265057193], [99.15791918871963, 22.168775795566546], [99.15962726658512, 22.16670846282534]]]}}]}