{"type": "FeatureCollection", "features": [{"type": "Feature", "properties": {"source_pcode": "MMR015005075", "entity_type": "village_tract", "name_en": "Ta Aw Long", "name_my": "တအော်လုံ"}, "geometry": {"type": "Polygon", "coordinates": [[[98.95170329816875, 22.563191221597656], [98.9430102003605, 22.55984173260992], [98.93687846077239, 22.55231641347177], [98.9341995368792, 22.546996812952614], [98.93018928990386, 22.551758982191302], [98.9114470209633, 22.54725214936724], [98.91263021581187, 22.55566099935567], [98.91207278543078, 22.567924479431213], [98.90853486239405, 22.575802873303985], [98.90984306120839, 22.58548355262387], [98.91263021581187, 22.593287586053293], [98.92377883422586, 22.59997675692182], [98.92694671501893, 22.601216362645054], [98.9262872727395, 22.590500432349124], [98.92991057381397, 22.57684337362286], [98.93743589205286, 22.567367048150793], [98.95170329816875, 22.563191221597656]]]}}]}