{"type": "FeatureCollection", "features": [{"type": "Feature", "properties": {"source_pcode": "MMR015005024", "entity_type": "village_tract", "name_en": "Man San (Mut Ngar)", "name_my": "မန်စန် (မွတ်ငါး)"}, "geometry": {"type": "Polygon", "coordinates": [[[98.59894365992204, 22.56871091137953], [98.59456307842339, 22.576866722721146], [98.5910224403334, 22.5852043535981], [98.58405537895266, 22.59811055036164], [98.58194241730877, 22.60034914729539], [98.58120002606042, 22.60257632283907], [98.58072793414692, 22.606117032874803], [98.58091814795421, 22.6058142068602], [98.60555821224176, 22.616843568875645], [98.62445968726479, 22.60796368097914], [98.6300615642898, 22.60943785956959], [98.63713761900597, 22.609880112876965], [98.65143714710672, 22.605457578004863], [98.65851320272219, 22.60280405816081], [98.67487657959055, 22.609585277338738], [98.68785819979615, 22.619742468740007], [98.6894709441288, 22.61091203816011], [98.68913583515075, 22.605438580725945], [98.68549066256406, 22.60339372923726], [98.67413949074496, 22.590715796596786], [98.66588409387589, 22.579217207008515], [98.66116672256624, 22.569929883957002], [98.65938957766696, 22.567808775354763], [98.63315733834054, 22.56491767800849], [98.6197423159552, 22.569782466187917], [98.60014812103901, 22.568987809040205], [98.59894365992204, 22.56871091137953]]]}}]}