{"type": "FeatureCollection", "features": [{"type": "Feature", "properties": {"source_pcode": "MMR015005016", "entity_type": "village_tract", "name_en": "Nawng Hkam", "name_my": "နောင်ခမ်း"}, "geometry": {"type": "Polygon", "coordinates": [[[98.66523924129802, 22.78493716641713], [98.66317987565083, 22.774452637079605], [98.66457345340223, 22.760795580151978], [98.67858810865437, 22.750714493878828], [98.66624574634422, 22.736547334292094], [98.65676618601071, 22.72459128026344], [98.65442210219835, 22.74521782314406], [98.64840795616232, 22.741285497028116], [98.6428336469553, 22.740170635366553], [98.6350296144252, 22.74240035868968], [98.62805304271382, 22.74543483135244], [98.63586576089621, 22.772780344137622], [98.64251758831608, 22.788813409011652], [98.65481841184027, 22.785601256392912], [98.66523924129802, 22.78493716641713]]]}}]}