{"type": "FeatureCollection", "features": [{"type": "Feature", "properties": {"source_pcode": "MMR015005085", "entity_type": "village_tract", "name_en": "Nam Tawng", "name_my": "နမ့်တောင်း"}, "geometry": {"type": "Polygon", "coordinates": [[[98.9262872727395, 22.590500432349124], [98.92720583757938, 22.605427107175327], [98.94089360365695, 22.612617395576414], [98.94320015876036, 22.602623067800376], [98.94827865103895, 22.592075665059955], [98.94632579030304, 22.580356158809707], [98.95257626018633, 22.56668359217412], [98.95170329816875, 22.563191221597656], [98.93743589205286, 22.567367048150793], [98.92991057381397, 22.57684337362286], [98.9262872727395, 22.590500432349124]]]}}]}