{"type": "FeatureCollection", "features": [{"type": "Feature", "properties": {"source_pcode": "MMR015316001", "entity_type": "village_tract", "name_en": "Nar Kawng", "name_my": "နား ကောင်း"}, "geometry": {"type": "Polygon", "coordinates": [[[98.59200956588882, 22.34914100935015], [98.5922216889798, 22.354714533448995], [98.59142218988222, 22.357855421990152], [98.59153640468139, 22.36065366793246], [98.59330672372636, 22.363794555574305], [98.5954196835716, 22.36670701631578], [98.59930296515978, 22.3695052631574], [98.60221542500193, 22.371161367403253], [98.60952512988092, 22.376472325437533], [98.61443633656773, 22.383096744219408], [98.61466476526675, 22.38475284756589], [98.61441791215697, 22.385696697744425], [98.61573586321958, 22.387830939146568], [98.62991859007093, 22.385415484237285], [98.64554377192758, 22.390884898319428], [98.65257506558687, 22.394400889589413], [98.65843463974687, 22.3908851780086], [98.6642941941218, 22.38815076414647], [98.67171620903588, 22.38815092602448], [98.67679440004162, 22.38932298187018], [98.69202894428042, 22.394011099132957], [98.70023220475252, 22.39479257491745], [98.70648232300086, 22.394792710715077], [98.71234177934969, 22.395964785446548], [98.72132617566251, 22.401824712140805], [98.72718563201136, 22.402996785972952], [98.73656085839696, 22.40104374627191], [98.7568739893432, 22.391277970402086], [98.75903326157584, 22.39083125465873], [98.76413399858524, 22.37331360783678], [98.77127238171512, 22.358441976915742], [98.76651345992832, 22.342380614873544], [98.76511181076154, 22.31043321542063], [98.72044333099501, 22.327225861184612], [98.67464346542363, 22.33876148755263], [98.61163533780064, 22.34877426042384], [98.5923876588634, 22.349806564321508], [98.59235370226162, 22.348915900048773], [98.59200956588882, 22.34914100935015]]]}}]}