{"type": "FeatureCollection", "features": [{"type": "Feature", "properties": {"source_pcode": "MMR015005014", "entity_type": "village_tract", "name_en": "Man Nwet", "name_my": "မန်နွဲ့"}, "geometry": {"type": "Polygon", "coordinates": [[[98.60465431714306, 22.791036080750587], [98.58653312360487, 22.79229042726143], [98.57733551332336, 22.805668768998544], [98.57036762726426, 22.8087346387926], [98.54777980599329, 22.807913196237052], [98.5483647960985, 22.809521900815124], [98.54826627356971, 22.81150350298435], [98.55376295329773, 22.81844818383666], [98.55391560332248, 22.819058781237796], [98.55540038671853, 22.820372243784057], [98.5585412752597, 22.82077199243355], [98.56476594539214, 22.8190016742879], [98.56687890613665, 22.819287209037494], [98.57041954422664, 22.82020092203499], [98.57458836056446, 22.821742813280245], [98.57761503430646, 22.822313883678817], [98.5901443243012, 22.82259941932778], [98.59636899443359, 22.82117174198237], [98.60583852462827, 22.81999844956886], [98.60465431714306, 22.791036080750587]]]}}]}