{"type": "FeatureCollection", "features": [{"type": "Feature", "properties": {"source_pcode": "MMR015005028", "entity_type": "village_tract", "name_en": "Nar Kawng", "name_my": "နားကောင်"}, "geometry": {"type": "Polygon", "coordinates": [[[98.63489848068042, 22.495656262926218], [98.63523472999884, 22.498738548944907], [98.63456114677956, 22.50029659291346], [98.63551602264641, 22.508898906859088], [98.63389442718614, 22.51995524403935], [98.63167395159167, 22.524384287305047], [98.6449507625677, 22.53690829288348], [98.65173198264495, 22.54781721139522], [98.65272599340994, 22.54991097790935], [98.66352540777143, 22.550912986345278], [98.67694043015678, 22.54958622462459], [98.68312301201746, 22.545834814225376], [98.67620334131125, 22.53469702634676], [98.66955846475139, 22.522693476422823], [98.64318175023766, 22.500938344628935], [98.63489848068042, 22.495656262926218]]]}}]}