{"type": "FeatureCollection", "features": [{"type": "Feature", "properties": {"source_pcode": "MMR015005038", "entity_type": "village_tract", "name_en": "Long Lat Hsin", "name_my": "လုံလတ်ဆင်"}, "geometry": {"type": "Polygon", "coordinates": [[[98.73794075835934, 22.705943750403826], [98.74512222171325, 22.71202037414099], [98.74839936743689, 22.721237342329513], [98.75348368552375, 22.7170372520676], [98.77522349197062, 22.716758535977704], [98.78497853263326, 22.700593041435752], [98.78565861885022, 22.669989210233894], [98.74540093780308, 22.699199461885705], [98.73794075835934, 22.705943750403826]]]}}]}