{"type": "FeatureCollection", "features": [{"type": "Feature", "properties": {"source_pcode": "MMR015005023", "entity_type": "village_tract", "name_en": "Man An", "name_my": "မန်အန်"}, "geometry": {"type": "Polygon", "coordinates": [[[98.6739657363297, 22.629904574036907], [98.68460615594938, 22.628159921643146], [98.69028356613376, 22.62873886290822], [98.6881441842068, 22.624032224107896], [98.68785819979615, 22.619742468740007], [98.67487657959055, 22.609585277338738], [98.65851320272219, 22.60280405816081], [98.65143714710672, 22.605457578004863], [98.63713761900597, 22.609880112876965], [98.6300615642898, 22.60943785956959], [98.62445968726479, 22.60796368097914], [98.60555821224176, 22.616843568875645], [98.61074982934122, 22.619167435928485], [98.61988973372428, 22.62786508700424], [98.62431226859638, 22.629339264695368], [98.63327861191846, 22.62754599585104], [98.63757987231334, 22.62373738767036], [98.64156015387806, 22.617840675107118], [98.64848879082507, 22.615776826339527], [98.65350099677363, 22.61503973659461], [98.6613141412347, 22.619314852798247], [98.66809536131194, 22.624179640977673], [98.6739657363297, 22.629904574036907]]]}}]}