{"type": "FeatureCollection", "features": [{"type": "Feature", "properties": {"source_pcode": "MMR015005033", "entity_type": "village_tract", "name_en": "Ho Kyet", "name_my": "ဟိုကျက်"}, "geometry": {"type": "Polygon", "coordinates": [[[98.67803643123636, 22.458762360194832], [98.65925029156779, 22.467179664709807], [98.63563357033308, 22.472500965846955], [98.63549889325935, 22.473872598341814], [98.63643397774594, 22.476009937009056], [98.63694794209391, 22.479265038550743], [98.63694794209391, 22.482063286291687], [98.63397837440249, 22.491999915363863], [98.63465820341344, 22.49467675462859], [98.63485863531781, 22.493247908164495], [98.6442136737221, 22.487081069835543], [98.6670634360288, 22.47646698686202], [98.67123528128326, 22.473746126682432], [98.67803643123636, 22.458762360194832]]]}}]}