{"type": "FeatureCollection", "features": [{"type": "Feature", "properties": {"source_pcode": "MMR015005009", "entity_type": "village_tract", "name_en": "Kawng Ta", "name_my": "ကောင်းတ"}, "geometry": {"type": "Polygon", "coordinates": [[[98.65676618601071, 22.72459128026344], [98.65175254204621, 22.707282211404955], [98.65121071939922, 22.701502766839262], [98.63781676902875, 22.698084600224142], [98.6336360366738, 22.698363316314044], [98.62337556443083, 22.693749950699726], [98.62889787393777, 22.70700349531512], [98.62917659002767, 22.717594683348], [98.62583200414372, 22.724562569407112], [98.62443842729164, 22.732366601937194], [98.62805304271382, 22.74543483135244], [98.6350296144252, 22.74240035868968], [98.6428336469553, 22.740170635366553], [98.64840795616232, 22.741285497028116], [98.65442210219835, 22.74521782314406], [98.65676618601071, 22.72459128026344]]]}}]}