{"type": "FeatureCollection", "features": [{"type": "Feature", "properties": {"source_pcode": "MMR015005004", "entity_type": "village_tract", "name_en": "Nawng Hsaw", "name_my": "နောင်ဆော်"}, "geometry": {"type": "Polygon", "coordinates": [[[98.6365227714088, 22.823855776722784], [98.63652550894517, 22.822377245413566], [98.63426700641725, 22.817583111571363], [98.63051254192033, 22.80500565838446], [98.6285341080627, 22.79158056808881], [98.60465431714306, 22.791036080750587], [98.60583852462827, 22.81999844956886], [98.60990336944502, 22.81985827943612], [98.6205252828156, 22.8217999202302], [98.63063323273758, 22.822370990628773], [98.63417387082751, 22.823056275826502], [98.6357386048528, 22.82385577402481], [98.6365227714088, 22.823855776722784]]]}}]}