{"type": "FeatureCollection", "features": [{"type": "Feature", "properties": {"source_pcode": "MMR015005035", "entity_type": "village_tract", "name_en": "Ong Long", "name_my": "အုံလုံ"}, "geometry": {"type": "Polygon", "coordinates": [[[98.72396671379289, 22.48162661057967], [98.72735732428117, 22.47012802099141], [98.72607004999287, 22.46379892697893], [98.72131319304947, 22.462609712068623], [98.7123207064355, 22.451258540249455], [98.68969246063858, 22.456126574082187], [98.69241930130977, 22.47926792627384], [98.69659801019009, 22.492979313044884], [98.69743150725833, 22.491356186938493], [98.70730849958767, 22.48958717280982], [98.71600615156268, 22.48737590627308], [98.72396671379289, 22.48162661057967]]]}}]}