{"type": "FeatureCollection", "features": [{"type": "Feature", "properties": {"source_pcode": "MMR015005056", "entity_type": "village_tract", "name_en": "Pang Win", "name_my": "ပန်ဝင်း"}, "geometry": {"type": "Polygon", "coordinates": [[[98.71786074967395, 22.399564444243765], [98.71827440993616, 22.40987147708704], [98.71765340917756, 22.414528985024678], [98.71605010322975, 22.41753349587418], [98.7304530983319, 22.428556195711895], [98.73231282977332, 22.430702041965734], [98.73944558494583, 22.43179938843109], [98.74814323602158, 22.43003037520168], [98.75890473676424, 22.409981551407494], [98.75903326157584, 22.39083125465873], [98.7568739893432, 22.391277970402086], [98.73656085839696, 22.40104374627191], [98.72718563201136, 22.402996785972952], [98.72132617566251, 22.401824712140805], [98.71786074967395, 22.399564444243765]]]}}]}