{"type": "FeatureCollection", "features": [{"type": "Feature", "properties": {"source_pcode": "MMR015005020", "entity_type": "village_tract", "name_en": "Pang Hpein", "name_my": "ပန်ဖိန်း"}, "geometry": {"type": "Polygon", "coordinates": [[[98.63371153475958, 22.628987702620407], [98.63921034588083, 22.64930939421322], [98.64199750138363, 22.67132791585067], [98.64812924097174, 22.68303396464579], [98.65646017010084, 22.68703677782509], [98.66875418485779, 22.684984973677675], [98.67020676083342, 22.68532675562534], [98.67209877074174, 22.676623509867106], [98.66568831506373, 22.66073672781778], [98.66345859084134, 22.63620976766668], [98.66179960067109, 22.63444689231028], [98.65593327440115, 22.634816189915284], [98.6428336469553, 22.63398004434361], [98.63530832961578, 22.631471604930653], [98.63371153475958, 22.628987702620407]]]}}]}