{"type": "FeatureCollection", "features": [{"type": "Feature", "properties": {"source_pcode": "MMR015005078", "entity_type": "village_tract", "name_en": "Mong Hto", "name_my": "မိုင်းထို"}, "geometry": {"type": "Polygon", "coordinates": [[[98.82206434079677, 22.493264140028078], [98.82483484535192, 22.490999011295393], [98.83124555104143, 22.49180035040592], [98.82648511659494, 22.484358786928503], [98.82688099006572, 22.477233059058506], [98.82591561101668, 22.470450633889694], [98.82054701003653, 22.463971288344336], [98.80946254386134, 22.444177598617337], [98.80471205861465, 22.433686943997305], [98.80436743840664, 22.430585351332923], [98.79758633074465, 22.42774883743897], [98.78848891393227, 22.42072933209306], [98.78630392918302, 22.428936458750623], [98.78056375891043, 22.44219823036411], [98.77581327276437, 22.450511578646513], [98.77601120994944, 22.45605381173408], [98.77742657467672, 22.463737837830983], [98.79059956791576, 22.474697973632598], [98.79782304130038, 22.47808858322156], [98.80386717073338, 22.478088583221563], [98.81625026783564, 22.48265853586281], [98.82008313073197, 22.488112995118673], [98.82206434079677, 22.493264140028078]]]}}]}