{"type": "FeatureCollection", "features": [{"type": "Feature", "properties": {"source_pcode": "MMR015316002", "entity_type": "village_tract", "name_en": "Ong Long", "name_my": "အုံး လုံ"}, "geometry": {"type": "Polygon", "coordinates": [[[98.85560676434073, 22.239985902127717], [98.85479896629931, 22.232713877943187], [98.8495473518289, 22.225441762027735], [98.84923768197348, 22.221394537627873], [98.84469971641886, 22.21816965420623], [98.84686854664619, 22.206808939680855], [98.8366202853979, 22.207665477379912], [98.8220768260847, 22.209685182924893], [98.8111691459394, 22.21493697006514], [98.80106958939012, 22.21332076244329], [98.79924749907286, 22.2134433706151], [98.78307074411958, 22.276476716127604], [98.7649969115783, 22.310650463747947], [98.76651345992832, 22.342380614873544], [98.77127238171512, 22.358441976915742], [98.76413399858524, 22.37331360783678], [98.75903326157584, 22.39083125465873], [98.76820238673082, 22.388934324559493], [98.776015014981, 22.38971579314938], [98.78304634011658, 22.39205983919027], [98.79124945220053, 22.398701047415443], [98.79710878084565, 22.404951555969596], [98.79755529963745, 22.413227317087085], [98.80023354364317, 22.416671088300127], [98.80687429501279, 22.416671233090995], [98.81273367222127, 22.420968497797958], [98.82288996609913, 22.426828450572597], [98.83382768360076, 22.426438042281855], [98.83539008478466, 22.431516511178078], [98.8392962703067, 22.436985678846035], [98.84593702077694, 22.436985825435546], [98.8553122588537, 22.43464213822415], [98.8713281889448, 22.43464248895975], [98.87733685631093, 22.380689937190883], [98.87257793542346, 22.359572220581587], [98.8517576506951, 22.286998659960254], [98.84937818935202, 22.256957965337897], [98.85560676434073, 22.239985902127717]]]}}]}