{"type": "FeatureCollection", "features": [{"type": "Feature", "properties": {"source_pcode": "MMR015005059", "entity_type": "village_tract", "name_en": "Nam Kat", "name_my": "နမ့်ကတ်"}, "geometry": {"type": "Polygon", "coordinates": [[[98.82386803907877, 22.544286106118932], [98.81964082166667, 22.531391959371494], [98.81669252204233, 22.530274490575323], [98.80534135022322, 22.5279158062695], [98.80283524724894, 22.52496744998785], [98.80180332196579, 22.52025007867826], [98.80150848642757, 22.515532709167243], [98.80044418195348, 22.51390824397032], [98.79959205542906, 22.51700688685838], [98.79207374560696, 22.520839750654034], [98.78890814999119, 22.520284155789227], [98.79059956791576, 22.525262284626763], [98.78971506130108, 22.53174866916578], [98.78764410699, 22.53899700790566], [98.78971506130108, 22.539561813626857], [98.79428501304295, 22.54472143734448], [98.80121365088934, 22.55371392395847], [98.81020613840263, 22.55828387659966], [98.81566059675919, 22.55504068477984], [98.82386803907877, 22.544286106118932]]]}}]}