{"type": "FeatureCollection", "features": [{"type": "Feature", "properties": {"source_pcode": "MMR015317005", "entity_type": "village_tract", "name_en": "Kawng Huong", "name_my": "ကောင်းဟုန်း"}, "geometry": {"type": "Polygon", "coordinates": [[[99.11860778602056, 22.2100357809266], [99.1212221430875, 22.223107568959154], [99.14496232055473, 22.23138512062683], [99.15961980041351, 22.236029829413145], [99.16095642230113, 22.246395240847722], [99.15650767039273, 22.25561899082379], [99.17606388603957, 22.264589732730034], [99.20134565977446, 22.2657794629519], [99.22963897975518, 22.26274219339757], [99.2296826220554, 22.261676949131928], [99.23418100395025, 22.255177142211377], [99.23352443770267, 22.249487931123152], [99.22841315164567, 22.243222622426117], [99.22306851579941, 22.237418710904823], [99.21780235659357, 22.23435125290802], [99.21399190480265, 22.23568614270135], [99.20954356838104, 22.235337639220738], [99.2060549021121, 22.234052453158263], [99.20519210063497, 22.22973524058893], [99.203590324434, 22.225436346310396], [99.20056254812317, 22.222998750991618], [99.19621255886256, 22.217397540364228], [99.1943522887272, 22.212649274644377], [99.19423582112631, 22.20854364017691], [99.19061218010808, 22.211142422784636], [99.18804569485297, 22.20755287596449], [99.18663350203457, 22.201196715056433], [99.17653729635919, 22.192769591743343], [99.17490197904317, 22.18893295619102], [99.17094092498378, 22.188937161420938], [99.1657730230067, 22.187929504343174], [99.16141967657688, 22.18578125689953], [99.15869771202983, 22.18337806244767], [99.15604013084743, 22.181548621971384], [99.15181533800751, 22.185773407616693], [99.14634718207685, 22.184330933725672], [99.11860778602056, 22.2100357809266]]]}}]}