{"type": "FeatureCollection", "features": [{"type": "Feature", "properties": {"source_pcode": "MMR015314002", "entity_type": "village_tract", "name_en": "Nawng Hkit", "name_my": "နောင် ခေတ်"}, "geometry": {"type": "Polygon", "coordinates": [[[98.8713281889448, 22.43464248895975], [98.87640630081017, 22.438939736579634], [98.8838282680602, 22.440893144103377], [98.89320349534512, 22.43894010620102], [98.91429794559377, 22.427221105369767], [98.92328237248358, 22.431909089532887], [98.93109475342021, 22.442456778257736], [98.93890719371205, 22.45066057652445], [98.94671965378905, 22.458083074374425], [98.96586050495841, 22.463552579288145], [98.97328229234398, 22.47253766538102], [98.98461078865705, 22.462381073827547], [98.99398607799515, 22.458084144567692], [99.00297081515106, 22.450662015439725], [99.01591638513315, 22.447298827079237], [98.93911802807457, 22.4096969312684], [98.93911802807457, 22.345094565561798], [98.91409952907009, 22.338811423308584], [98.89293351437027, 22.34511108880576], [98.86901547708266, 22.347103620435796], [98.87257793542346, 22.359572220581587], [98.87733685631093, 22.380689937190883], [98.8713281889448, 22.43464248895975]]]}}]}