{"type": "FeatureCollection", "features": [{"type": "Feature", "properties": {"source_pcode": "MMR015005022", "entity_type": "village_tract", "name_en": "Nyet Kar", "name_my": "ညက်ကာ"}, "geometry": {"type": "Polygon", "coordinates": [[[98.61074982934122, 22.619167435928485], [98.58091814795421, 22.6058142068602], [98.580000777414, 22.61154213196386], [98.57777360187026, 22.61810944469515], [98.57731674537155, 22.626618397321245], [98.5761746036751, 22.629759285862402], [98.57503246287791, 22.63073010580979], [98.5732263049501, 22.630950651051762], [98.57026194882991, 22.629517880845576], [98.56586335301137, 22.62865074193825], [98.56333517527817, 22.62862099866021], [98.56071776861017, 22.629215864220782], [98.55661474757261, 22.635686945895877], [98.55607545381918, 22.638100074259043], [98.59823917329925, 22.649309394213223], [98.60632192191923, 22.654604988229657], [98.61607696258181, 22.662130305569175], [98.62415971120174, 22.66519617626255], [98.63670190736718, 22.671327915850657], [98.64199750138363, 22.67132791585067], [98.63921034588083, 22.64930939421322], [98.63327861191846, 22.62754599585104], [98.62431226859638, 22.629339264695368], [98.61988973372428, 22.62786508700424], [98.61074982934122, 22.619167435928485]]]}}]}