{"type": "FeatureCollection", "features": [{"type": "Feature", "properties": {"source_pcode": "MMR015005046", "entity_type": "village_tract", "name_en": "Kun Yay", "name_my": "ကွန်ရေး"}, "geometry": {"type": "Polygon", "coordinates": [[[98.61682735329975, 22.4130081154322], [98.62165874785302, 22.410718640253084], [98.62578644718684, 22.411897983305312], [98.63468315870085, 22.42140877979142], [98.64229724272366, 22.40364258463763], [98.64916947059464, 22.3926979252691], [98.64554377192758, 22.390884898319428], [98.62991859007093, 22.385415484237285], [98.61573586321958, 22.387830939146568], [98.61441791215697, 22.385696697744425], [98.61209494712416, 22.39531765578522], [98.61517872871542, 22.400303102406326], [98.61654929821162, 22.401559458002627], [98.61740590425916, 22.407327271636333], [98.61682735329975, 22.4130081154322]]]}}]}