{"type": "FeatureCollection", "features": [{"type": "Feature", "properties": {"source_pcode": "MMR015005051", "entity_type": "village_tract", "name_en": "Hway Waun", "name_my": "ဟွေဝိုင်း"}, "geometry": {"type": "Polygon", "coordinates": [[[98.76198047122182, 22.501197147930103], [98.75684088709733, 22.504181537348124], [98.74946999684295, 22.50919374329669], [98.73679206420246, 22.511110175194453], [98.73014232320969, 22.510565200423677], [98.73443337899732, 22.5270312987555], [98.73515259921317, 22.531346620949876], [98.73590755668847, 22.530127072806238], [98.74224169679695, 22.54492855930561], [98.74401553668775, 22.543984347599633], [98.74961741371271, 22.53558153296143], [98.753008024201, 22.53322284775628], [98.75802023014955, 22.534402189909194], [98.76221008702595, 22.54243477434539], [98.76701271676353, 22.53779280039748], [98.77777421840551, 22.534697026346755], [98.78485027312166, 22.538235052805476], [98.78764410699, 22.53899700790566], [98.78971506130108, 22.53174866916578], [98.79059956791576, 22.525262284626763], [98.78890814999119, 22.520284155789227], [98.78293384122384, 22.51833364767975], [98.77526811543123, 22.512436935116515], [98.76951881973781, 22.50934116106577], [98.7650962848657, 22.505803132808406], [98.76198047122182, 22.501197147930103]]]}}]}