{"type": "FeatureCollection", "features": [{"type": "Feature", "properties": {"source_pcode": "MMR015005053", "entity_type": "village_tract", "name_en": "Pang Yawng", "name_my": "ပန်ယောင်း"}, "geometry": {"type": "Polygon", "coordinates": [[[98.73944558494583, 22.43179938843109], [98.7298634272554, 22.43032520984058], [98.72779957668916, 22.43813835520097], [98.72647281676711, 22.45066886917299], [98.73090386731968, 22.464456581406186], [98.73354887238264, 22.465852903888447], [98.73811882412451, 22.46762191801712], [98.74888032486717, 22.47587731578557], [98.76170567527674, 22.48236370032459], [98.76566126415605, 22.480832504716375], [98.7712878338665, 22.47572989801643], [98.77644745668482, 22.469243514376718], [98.77742657467672, 22.463737837830983], [98.77601120994944, 22.45605381173408], [98.77581327276437, 22.450511578646513], [98.78056375891043, 22.44219823036411], [98.78630392918302, 22.428936458750623], [98.78848891393227, 22.42072933209306], [98.78293900063443, 22.418643740416314], [98.77957407388448, 22.410726264705378], [98.78056375891043, 22.40795514771196], [98.78768948678044, 22.4103303912346], [98.79441934117972, 22.413299443614502], [98.79755529963745, 22.413227317087085], [98.79710878084565, 22.404951555969596], [98.79124945220053, 22.398701047415443], [98.78304634011658, 22.39205983919027], [98.776015014981, 22.38971579314938], [98.76820238673082, 22.388934324559493], [98.75903326157584, 22.39083125465873], [98.75890473676424, 22.409981551407494], [98.74814323602158, 22.43003037520168], [98.73944558494583, 22.43179938843109]]]}}]}