{"type": "FeatureCollection", "features": [{"type": "Feature", "properties": {"source_pcode": "MMR015005042", "entity_type": "village_tract", "name_en": "Man Htan", "name_my": "မန်ထန်"}, "geometry": {"type": "Polygon", "coordinates": [[[98.6450679451296, 22.43962056203935], [98.6455404354428, 22.433420983891324], [98.64545763755996, 22.429727461053517], [98.6383169620582, 22.425607840329633], [98.63168315975008, 22.417942113637697], [98.62578644718684, 22.411897983305312], [98.62165874785302, 22.410718640253084], [98.61682735329975, 22.4130081154322], [98.61649219126167, 22.418234720655892], [98.61911911635417, 22.425715744586], [98.62008993630155, 22.43182620171791], [98.62180314839664, 22.432625700815493], [98.6291813807162, 22.434413151945474], [98.63232226925737, 22.436183470990432], [98.63329309010408, 22.43755403958732], [98.635120516099, 22.438639074333878], [98.63814718984099, 22.440123857729873], [98.64128807838216, 22.440809142927662], [98.64205901231361, 22.442956744658083], [98.6450679451296, 22.43962056203935]]]}}]}