{"type": "FeatureCollection", "features": [{"type": "Feature", "properties": {"source_pcode": "MMR015317004", "entity_type": "village_tract", "name_en": "Man Maw", "name_my": "မန်း မော"}, "geometry": {"type": "Polygon", "coordinates": [[[99.02767068255599, 22.249765220888264], [99.03010583621545, 22.261689596297856], [99.01869020458935, 22.276967799924083], [99.01750047526679, 22.290054835961936], [99.00854999508624, 22.305560946680373], [99.02678842604507, 22.31617326428477], [99.03464064694833, 22.329498247446224], [99.05066143157985, 22.336349322363382], [99.06273435700501, 22.33401236387954], [99.07522768131253, 22.339654612370513], [99.0853938731288, 22.35112188936375], [99.09333126432642, 22.349053508013007], [99.10911777556493, 22.33620832575366], [99.08301276063048, 22.312871053556297], [99.07220524697465, 22.272647946945252], [99.0607757810775, 22.267897078587332], [99.0508296335808, 22.25523834557322], [99.0410818963125, 22.249757532584105], [99.02767068255599, 22.249765220888264]]]}}]}