{"type": "FeatureCollection", "features": [{"type": "Feature", "properties": {"source_pcode": "MMR015005063", "entity_type": "village_tract", "name_en": "Pang Lawng", "name_my": "ပန်လောင်း"}, "geometry": {"type": "Polygon", "coordinates": [[[98.66623270707385, 22.46390699671059], [98.65527001090231, 22.455533657352476], [98.6462775242884, 22.449931780327468], [98.6450679451296, 22.43962056203935], [98.64205901231361, 22.442956744658083], [98.64105965058246, 22.445834564413644], [98.6407170079836, 22.449946272902196], [98.63963197413636, 22.4520592354454], [98.6379187620413, 22.454057981390807], [98.63774744029217, 22.455942515234938], [98.63888958198868, 22.45834101162842], [98.63888958198868, 22.461596114069433], [98.63814718984099, 22.46388039656312], [98.63820429679095, 22.467021285104295], [98.63740479859263, 22.468620283299455], [98.63540605084864, 22.470333495394527], [98.63523472999884, 22.47326879801664], [98.63549889325935, 22.473872598341814], [98.63563357033308, 22.472500965846955], [98.65925029156779, 22.467179664709807], [98.66623270707385, 22.46390699671059]]]}}]}