{"type": "FeatureCollection", "features": [{"type": "Feature", "properties": {"source_pcode": "MMR015005001", "entity_type": "village_tract", "name_en": "Man Hpant", "name_my": "မန်ဖန့်"}, "geometry": {"type": "Polygon", "coordinates": [[[98.60914045476824, 22.745668652386428], [98.60687935230033, 22.743515221250505], [98.60141652934942, 22.736533399296995], [98.59935403496081, 22.732924033217614], [98.57845037498487, 22.717315967258116], [98.56702304138031, 22.71452881265463], [98.55294076700284, 22.715520948333168], [98.55201964808833, 22.71857319070022], [98.55107460361012, 22.719590931876045], [98.55036692079682, 22.721445403182877], [98.54729308840535, 22.725690968563406], [98.54539522930645, 22.727767429423338], [98.54208301901616, 22.732678636110215], [98.53968452262268, 22.738160914094973], [98.5366007410314, 22.741530230435846], [98.53452467407453, 22.742836710645747], [98.5340975851355, 22.743488583331494], [98.53306010294148, 22.74392872772864], [98.53191796214429, 22.748897042264723], [98.53003342919948, 22.751866609056826], [98.52515954257888, 22.757844098726256], [98.52612892720828, 22.75815342414125], [98.57008891117437, 22.76051686406208], [98.57872909107476, 22.758565855929536], [98.58820541564745, 22.758008424649113], [98.59573073388634, 22.759123287210006], [98.59672735268526, 22.76161483375762], [98.60074761181289, 22.757450994268023], [98.60914045476824, 22.745668652386428]]]}}]}