{"type": "FeatureCollection", "features": [{"type": "Feature", "properties": {"source_pcode": "MMR015005027", "entity_type": "village_tract", "name_en": "Yawng Au (Pang Leik)", "name_my": "ယောင်အူ (ပန်လိပ်)"}, "geometry": {"type": "Polygon", "coordinates": [[[98.72724216699248, 22.604977418273283], [98.70789817156344, 22.597054763366714], [98.70170662256265, 22.596612509160014], [98.68902869082149, 22.60368856477549], [98.6894709441288, 22.61091203816011], [98.68785819979615, 22.619742468740007], [98.6881441842068, 22.624032224107896], [98.69028356613376, 22.62873886290822], [98.70509723305094, 22.631550532131428], [98.71615357023114, 22.637594663363075], [98.72376132842265, 22.645220441270396], [98.72662023543559, 22.632287620976967], [98.72883150197231, 22.616071660978434], [98.72838924776562, 22.608258517416687], [98.72724216699248, 22.604977418273283]]]}}]}