{"type": "FeatureCollection", "features": [{"type": "Feature", "properties": {"source_pcode": "MMR015005032", "entity_type": "village_tract", "name_en": "Nam Kyet", "name_my": "နမ့်ကျက်"}, "geometry": {"type": "Polygon", "coordinates": [[[98.63456114677956, 22.50029659291346], [98.63392126655327, 22.501776644076923], [98.63123723541014, 22.505203068267065], [98.62598338522508, 22.50937188370551], [98.62227142628535, 22.514111770441893], [98.61981582294192, 22.518680335429163], [98.61724600479937, 22.521992544820137], [98.61604204190678, 22.524701469197502], [98.61698697037247, 22.52500392379209], [98.61871039157137, 22.524525195781216], [98.63167395159167, 22.524384287305047], [98.63389442718614, 22.51995524403935], [98.63551602264641, 22.508898906859088], [98.63456114677956, 22.50029659291346]]]}}]}