{"type": "FeatureCollection", "features": [{"type": "Feature", "properties": {"source_pcode": "MMR015005054", "entity_type": "village_tract", "name_en": "Hu Ngeit", "name_my": "ဟူးငဲ့"}, "geometry": {"type": "Polygon", "coordinates": [[[98.66623270707385, 22.46390699671059], [98.67803643123636, 22.458762360194832], [98.68969246063858, 22.456126574082187], [98.69035545074354, 22.45111112337968], [98.69038881379277, 22.44710765099734], [98.67988878643843, 22.438285772070795], [98.6649995872612, 22.432094223969326], [98.65895545602956, 22.42840877884214], [98.65350099677363, 22.428703614380364], [98.64545763755996, 22.429727461053517], [98.6455404354428, 22.433420983891324], [98.6450679451296, 22.43962056203935], [98.6462775242884, 22.449931780327468], [98.65527001090231, 22.455533657352476], [98.66623270707385, 22.46390699671059]]]}}]}