{"type": "FeatureCollection", "features": [{"type": "Feature", "properties": {"source_pcode": "MMR015005011", "entity_type": "village_tract", "name_en": "Man Hkar", "name_my": "မန်ခါး"}, "geometry": {"type": "Polygon", "coordinates": [[[98.62337556443083, 22.693749950699726], [98.6336360366738, 22.698363316314044], [98.63781676902875, 22.698084600224142], [98.65121071939922, 22.701502766839262], [98.65091639557528, 22.698363316314037], [98.65314611889835, 22.691674145445518], [98.65646017010084, 22.68703677782509], [98.64812924097174, 22.68303396464579], [98.64199750138363, 22.67132791585067], [98.63670190736718, 22.671327915850657], [98.62415971120174, 22.66519617626255], [98.61607696258181, 22.662130305569175], [98.60632192191923, 22.654604988229657], [98.59823917329925, 22.649309394213223], [98.55607545381918, 22.638100074259043], [98.55661474757261, 22.635686945895877], [98.55515577831659, 22.639120370408815], [98.55538896532852, 22.641455811736364], [98.55721639132344, 22.646195697573432], [98.55744481912319, 22.64853708791634], [98.55550317922842, 22.65649781202444], [98.55561739312827, 22.65901052321714], [98.55698796262442, 22.665120979449675], [98.55606725110283, 22.671353476381846], [98.59015642467932, 22.684427543296522], [98.59461587222478, 22.686657265720264], [98.597278568751, 22.687317154962784], [98.5995692616122, 22.68703829588071], [98.60743678268142, 22.68805084437105], [98.61036036174136, 22.690949065247192], [98.61858540199478, 22.693067722297602], [98.62337556443083, 22.693749950699726]]]}}]}