{"type": "FeatureCollection", "features": [{"type": "Feature", "properties": {"source_pcode": "MMR015005058", "entity_type": "village_tract", "name_en": "Aum Long", "name_my": "အွမ်လုံ"}, "geometry": {"type": "Polygon", "coordinates": [[[98.73515259921317, 22.531346620949876], [98.73443337899732, 22.5270312987555], [98.73014232320969, 22.510565200423677], [98.72883150197231, 22.502117687681164], [98.72971600858699, 22.48752332404223], [98.72971600858699, 22.48162661057967], [98.72794699535763, 22.47808858322156], [98.72556244295242, 22.47621500671721], [98.72396671379289, 22.48162661057967], [98.71600615156268, 22.48737590627308], [98.70730849958767, 22.48958717280982], [98.69743150725833, 22.491356186938493], [98.6946305678465, 22.49681064619443], [98.69487958922173, 22.510074322571985], [98.69610474643696, 22.5131740239621], [98.69698925305164, 22.525557121064306], [98.69684183528256, 22.539561813626843], [98.71257390875894, 22.553948310666044], [98.71969159668987, 22.549881061062194], [98.73207469379213, 22.53631862180702], [98.73515259921317, 22.531346620949876]]]}}]}