{"type": "FeatureCollection", "features": [{"type": "Feature", "properties": {"source_pcode": "MMR015005084", "entity_type": "village_tract", "name_en": "Hson Hpoet", "name_my": "ဆုံဖို့"}, "geometry": {"type": "Polygon", "coordinates": [[[98.9348863734075, 22.52755849033212], [98.9258078963174, 22.52471299670748], [98.92005572998801, 22.524190073313264], [98.91545399710435, 22.524190073313257], [98.90252024871059, 22.52999123920438], [98.90872819864751, 22.544233664851784], [98.9114470209633, 22.54725214936724], [98.93018928990386, 22.551758982191302], [98.9341995368792, 22.546996812952614], [98.9348863734075, 22.52755849033212]]]}}]}