{"type": "FeatureCollection", "features": [{"type": "Feature", "properties": {"source_pcode": "MMR015316003", "entity_type": "village_tract", "name_en": "Wein Hki", "name_my": "ဝိန် ခီး"}, "geometry": {"type": "Polygon", "coordinates": [[[98.79924749907286, 22.2134433706151], [98.75905522212088, 22.216147912596114], [98.75057161958466, 22.21372373965891], [98.73885621963888, 22.208471496562368], [98.73400841695496, 22.20847139943561], [98.73118043402985, 22.2125113483201], [98.72633258368182, 22.214531251715925], [98.71784900272934, 22.211299076591153], [98.70774939042207, 22.21210687463258], [98.6976498392687, 22.210490666111397], [98.69118606458528, 22.21210653828614], [98.68391442261259, 22.20927838628853], [98.67300692143232, 22.206854164787888], [98.66533128870805, 22.204430008038507], [98.65725160497766, 22.204833844106645], [98.65096719557965, 22.201309043077906], [98.63543665837517, 22.19756139814006], [98.62129714844468, 22.201197117952688], [98.60917743489074, 22.210084883011007], [98.59754955336928, 22.20713591159306], [98.59475392355478, 22.206910438066302], [98.59132432475786, 22.21132929471121], [98.58924020257336, 22.215563605076337], [98.58793865964151, 22.219267998919054], [98.58691073184485, 22.225035812552733], [98.58525462759906, 22.229490163640204], [98.58005788436395, 22.23447561026125], [98.57588906892545, 22.2401863160457], [98.57234843083546, 22.246125451428497], [98.5693788631441, 22.252921191959505], [98.56926464924425, 22.258746113442434], [98.57023546919163, 22.265370531325], [98.57046389789065, 22.276460722584318], [98.57120628913903, 22.279144756425403], [98.57092075438936, 22.28314225011478], [98.56960729184311, 22.28725395860334], [98.5698928265927, 22.290052205444958], [98.56840804319673, 22.294449448683157], [98.56846515014661, 22.297019266825767], [98.56930677258954, 22.30254632385379], [98.57137761088808, 22.303301043908107], [98.58148556081005, 22.30455739860508], [98.58399827200272, 22.30518557685292], [98.58479777110034, 22.306898788947997], [98.57937260006548, 22.318445836706076], [98.57920127831642, 22.31981640620221], [98.58611123364659, 22.339347022647015], [98.58748180314274, 22.34117444864194], [98.58999451343612, 22.34225948158985], [98.59142218988222, 22.34757043962412], [98.59200956588882, 22.34914100935015], [98.59235370226162, 22.348915900048773], [98.5923876588634, 22.349806564321508], [98.61163533780064, 22.34877426042384], [98.67464346542363, 22.33876148755263], [98.72044333099501, 22.327225861184612], [98.76511181076154, 22.31043321542063], [98.78307074411958, 22.276476716127604], [98.79924749907286, 22.2134433706151]]]}}]}