{"type": "FeatureCollection", "features": [{"type": "Feature", "properties": {"source_pcode": "MMR015317002", "entity_type": "village_tract", "name_en": "Yawng Tin", "name_my": "ယောင် တင်း"}, "geometry": {"type": "Polygon", "coordinates": [[[99.1212221430875, 22.223107568959154], [99.10171056259247, 22.24309504190273], [99.09028915012425, 22.25879948460857], [99.07220524697465, 22.272647946945252], [99.08301276063048, 22.312871053556297], [99.10911777556493, 22.33620832575366], [99.09333126432642, 22.349053508013007], [99.09399062836485, 22.358080218327473], [99.09359983606362, 22.364330591083952], [99.09711549008786, 22.365893264762413], [99.10805321118681, 22.365502857371027], [99.12172535064445, 22.36550316044253], [99.1322724503134, 22.364722093849586], [99.13383482991355, 22.37058186226317], [99.13461591629158, 22.377613559718032], [99.14086597698332, 22.379957591369816], [99.15102240396084, 22.380739113919052], [99.16391327897469, 22.380739399004085], [99.17172595039234, 22.379958273955253], [99.17485119072995, 22.372926661935935], [99.17953901121643, 22.3639418402438], [99.1885238104256, 22.354175815261723], [99.17915654573807, 22.348733808918215], [99.16773513237052, 22.3182767084034], [99.15479086460675, 22.29855573515908], [99.14736694672729, 22.27457076942551], [99.16095642230113, 22.246395240847722], [99.15961980041351, 22.236029829413145], [99.14496232055473, 22.23138512062683], [99.1212221430875, 22.223107568959154]]]}}]}