{"type": "FeatureCollection", "features": [{"type": "Feature", "properties": {"source_pcode": "MMR015005045", "entity_type": "village_tract", "name_en": "Nam Put", "name_my": "နမ့်ပွတ်"}, "geometry": {"type": "Polygon", "coordinates": [[[98.66108880800215, 22.42970960321565], [98.6649995872612, 22.432094223969326], [98.67988878643843, 22.438285772070795], [98.69038881379277, 22.44710765099734], [98.69050286941194, 22.433420983891324], [98.6871201621658, 22.410771554563667], [98.68224747074424, 22.408654790586187], [98.67708784792592, 22.40143131810089], [98.67592917399224, 22.399252032355438], [98.6707488820553, 22.408212538178123], [98.66108880800215, 22.42970960321565]]]}}]}