{"type": "FeatureCollection", "features": [{"type": "Feature", "properties": {"source_pcode": "MMR015317006", "entity_type": "village_tract", "name_en": "Nam Hpat", "name_my": "နမ့် ဖတ်"}, "geometry": {"type": "Polygon", "coordinates": [[[99.07220524697465, 22.272647946945252], [99.09028915012425, 22.25879948460857], [99.10171056259247, 22.24309504190273], [99.1212221430875, 22.223107568959154], [99.11860778602056, 22.2100357809266], [99.10218645504091, 22.206213396031433], [99.08719585100778, 22.19350707359262], [99.07220524697465, 22.183037446021387], [99.05959410338522, 22.17137808732889], [99.05697669581792, 22.156625428620647], [99.05783819957333, 22.14565298739551], [99.04921491613555, 22.141063191213334], [99.04272801358701, 22.14300557214949], [99.03635148663187, 22.141850517987045], [99.03173185544085, 22.140385732815385], [99.02637571186966, 22.14473814035295], [99.01823765674254, 22.14368785630955], [99.00274917273617, 22.138962008889614], [98.99336744874881, 22.145524470677852], [98.98811558966281, 22.14835237086527], [98.98326760621512, 22.156028282379395], [98.97437972694291, 22.166128115919882], [98.97397556172285, 22.173804119164796], [98.96993555528172, 22.181076046222586], [98.96831944568595, 22.18834802544108], [98.96347150090912, 22.19440792988211], [98.95377576513948, 22.199659742203373], [98.94408011660414, 22.201275545130336], [98.94165606597471, 22.207739504174803], [98.9403671953898, 22.215149781137544], [98.94875880987126, 22.22120400006457], [98.95494540810415, 22.23286335875706], [98.96779449791781, 22.24428477212455], [98.98326099439942, 22.243808879676124], [98.99325473042154, 22.250471370357502], [99.00182078999751, 22.251899046803597], [99.01419398736266, 22.24404682590034], [99.02767068255599, 22.249765220888264], [99.0410818963125, 22.249757532584105], [99.0508296335808, 22.25523834557322], [99.0607757810775, 22.267897078587332], [99.07220524697465, 22.272647946945252]]]}}]}