{"type": "FeatureCollection", "features": [{"type": "Feature", "properties": {"source_pcode": "MMR015005021", "entity_type": "village_tract", "name_en": "Pang Kaw (Lower)", "name_my": "ပန်ကော် (အောက်)"}, "geometry": {"type": "Polygon", "coordinates": [[[98.73236529262421, 22.65779648881693], [98.74224652255901, 22.654252875769664], [98.75113991287674, 22.652540060275612], [98.75477703832973, 22.650714849310873], [98.76155825840698, 22.63700499228662], [98.76745497007084, 22.62137870336454], [98.77422811963208, 22.607576813319326], [98.75389253081568, 22.589978708650563], [98.74740614717604, 22.58526133734091], [98.7406701477092, 22.585925727690217], [98.73310661907527, 22.59808668685116], [98.72724216699248, 22.604977418273283], [98.72838924776562, 22.608258517416687], [98.72883150197231, 22.616071660978434], [98.72662023543559, 22.632287620976967], [98.72376132842265, 22.645220441270396], [98.73001084412522, 22.654842547745428], [98.73236529262421, 22.65779648881693]]]}}]}