{"type": "FeatureCollection", "features": [{"type": "Feature", "properties": {"source_pcode": "MMR015005057", "entity_type": "village_tract", "name_en": "Yon Kat", "name_my": "ယုံကတ်"}, "geometry": {"type": "Polygon", "coordinates": [[[98.77742657467672, 22.463737837830983], [98.7771608196162, 22.465370976989043], [98.77939581386579, 22.467474500248038], [98.78426060204521, 22.47735149437603], [98.79575919073415, 22.488555249325362], [98.80003430783711, 22.494746797426775], [98.80150848642757, 22.50329702983413], [98.80121365088934, 22.511110175194453], [98.80044418195348, 22.51390824397032], [98.80150848642757, 22.515532709167243], [98.80180332196579, 22.52025007867826], [98.80283524724894, 22.52496744998785], [98.80534135022322, 22.5279158062695], [98.81669252204233, 22.530274490575323], [98.81964082166667, 22.531391959371494], [98.81978829609307, 22.527620969831958], [98.82480050204157, 22.509341161065773], [98.82450566560402, 22.504623790655447], [98.82244181683643, 22.501085763297404], [98.82206434079677, 22.493264140028078], [98.82008313073197, 22.488112995118673], [98.81625026783564, 22.48265853586281], [98.80386717073338, 22.478088583221563], [98.79782304130038, 22.47808858322156], [98.79059956791576, 22.474697973632598], [98.77742657467672, 22.463737837830983]]]}}]}