{"type": "FeatureCollection", "features": [{"type": "Feature", "properties": {"source_pcode": "MMR015005010", "entity_type": "village_tract", "name_en": "Ka Hsint", "name_my": "ကဆင့်"}, "geometry": {"type": "Polygon", "coordinates": [[[98.72747314167219, 22.746050889437065], [98.72812057890167, 22.744351367721492], [98.74344992877127, 22.735432472630578], [98.74707322984574, 22.72233284608404], [98.74839936743689, 22.721237342329513], [98.74512222171325, 22.71202037414099], [98.73794075835934, 22.705943750403826], [98.731431245056, 22.70220848913049], [98.71948039990059, 22.700035609256012], [98.70582334207364, 22.701986617388517], [98.69634701570226, 22.699199461885705], [98.67823051122917, 22.687214697000737], [98.66875418485779, 22.684984973677675], [98.65646017010084, 22.68703677782509], [98.65314611889835, 22.691674145445518], [98.65091639557528, 22.698363316314037], [98.65175254204621, 22.707282211404955], [98.65676618601071, 22.72459128026344], [98.66624574634422, 22.736547334292094], [98.67858810865437, 22.750714493878828], [98.68408353562671, 22.75271283063268], [98.68910041355332, 22.748532099177115], [98.69885545511522, 22.743515221250497], [98.70610205726422, 22.740728065747692], [98.7108402200002, 22.73989192017603], [98.72338241616563, 22.74379393644107], [98.72747314167219, 22.746050889437065]]]}}]}