{"type": "FeatureCollection", "features": [{"type": "Feature", "properties": {"source_pcode": "MMR015005076", "entity_type": "village_tract", "name_en": "Man Mai", "name_my": "မန်မိုင်"}, "geometry": {"type": "Polygon", "coordinates": [[[98.84647189256384, 22.539661694131944], [98.84833076155547, 22.53210445625569], [98.85141534803995, 22.52674701586215], [98.85283333159305, 22.520429574365437], [98.85076596197962, 22.514571016439326], [98.84686964202041, 22.505804294732457], [98.84410974766678, 22.498336347844198], [98.84367473390193, 22.49626505988464], [98.83821318708897, 22.49267130423737], [98.82483484535192, 22.490999011295393], [98.82206434079677, 22.493264140028078], [98.82244181683643, 22.501085763297404], [98.82450566560402, 22.504623790655447], [98.82480050204157, 22.509341161065773], [98.81978829609307, 22.527620969831958], [98.81964082166667, 22.531391959371494], [98.82527753393111, 22.529669255831546], [98.8295707876618, 22.52960556134763], [98.83794057469783, 22.533727923205163], [98.84427209508118, 22.539734749659033], [98.84647189256384, 22.539661694131944]]]}}]}