{"type": "FeatureCollection", "features": [{"type": "Feature", "properties": {"source_pcode": "MMR015005079", "entity_type": "village_tract", "name_en": "Huong Put", "name_my": "ဟုန်းပွတ်"}, "geometry": {"type": "Polygon", "coordinates": [[[98.90252024871059, 22.52999123920438], [98.91545399710435, 22.524190073313257], [98.92005572998801, 22.524190073313264], [98.9258078963174, 22.52471299670748], [98.9348863734075, 22.52755849033212], [98.9349274526399, 22.52639587556927], [98.92823828087205, 22.505770931683173], [98.91987681796081, 22.49072029610482], [98.90789205307584, 22.46702948242471], [98.90765345214515, 22.457246854159045], [98.8973465218246, 22.457043495860706], [98.89041873113956, 22.460210487224227], [98.88539530075258, 22.473893135260024], [98.8801260128053, 22.475649564276008], [98.87237871400652, 22.474086822249095], [98.86132200900357, 22.479806238866892], [98.85773751277605, 22.483252761106073], [98.8602317078271, 22.48849057188244], [98.87444619693451, 22.498524328634907], [98.88475866887751, 22.502147629709377], [98.89005426289395, 22.506328362064323], [98.89797531790663, 22.518558415238722], [98.8981802913874, 22.520034405063768], [98.90252024871059, 22.52999123920438]]]}}]}