{"type": "FeatureCollection", "features": [{"type": "Feature", "properties": {"source_pcode": "MMR015005068", "entity_type": "village_tract", "name_en": "Pang Ku", "name_my": "ပန်ကူ"}, "geometry": {"type": "Polygon", "coordinates": [[[98.85773751277605, 22.483252761106073], [98.86132200900357, 22.479806238866892], [98.87237871400652, 22.474086822249095], [98.8672601146626, 22.462387791763195], [98.8648848729386, 22.45407444258149], [98.8669581942653, 22.445998411897218], [98.87339131915411, 22.436388370726775], [98.8713281889448, 22.43464248895975], [98.8553122588537, 22.43464213822415], [98.84593702077694, 22.436985825435546], [98.84300417869999, 22.436985760684365], [98.8424257842226, 22.441441345641632], [98.84014276167915, 22.44615696776992], [98.83618402427334, 22.457241433045734], [98.83163147621173, 22.46515890875667], [98.82591561101668, 22.470450633889694], [98.82688099006572, 22.477233059058506], [98.82648511659494, 22.484358786928503], [98.83124555104143, 22.49180035040592], [98.83821318708897, 22.49267130423737], [98.84367473390193, 22.49626505988464], [98.85214896010649, 22.483473693955883], [98.85615008076167, 22.482841938204963], [98.85773751277605, 22.483252761106073]]]}}]}