{"type": "FeatureCollection", "features": [{"type": "Feature", "properties": {"source_pcode": "MMR015005701", "entity_type": "village_tract", "name_en": "Urban", "name_my": ""}, "geometry": {"type": "Polygon", "coordinates": [[[99.15604013084743, 22.181548621971384], [99.15869771202983, 22.18337806244767], [99.16141967657688, 22.18578125689953], [99.1657730230067, 22.187929504343174], [99.17094092498378, 22.188937161420938], [99.17490197904317, 22.18893295619102], [99.17468636298531, 22.188427079446225], [99.17704036542057, 22.184488492250175], [99.1759396123233, 22.180405792293524], [99.1768220181217, 22.17673176675765], [99.18024416423685, 22.175735542761117], [99.18566857264659, 22.175832049909214], [99.18880551855989, 22.173473092209463], [99.1942426901481, 22.174025733700717], [99.19716546341544, 22.172813320778175], [99.19583704244559, 22.169421693156664], [99.18911080511964, 22.166846181406186], [99.18195039759286, 22.16633538986639], [99.17363571831379, 22.168591484909143], [99.16743438918576, 22.167144139390587], [99.15962726658512, 22.16670846282534], [99.15791918871963, 22.168775795566546], [99.15483972657216, 22.17380265057193], [99.15633631357008, 22.181252431154796], [99.15604013084743, 22.181548621971384]]]}}]}