{"type": "FeatureCollection", "features": [{"type": "Feature", "properties": {"source_pcode": "MMR015005061", "entity_type": "village_tract", "name_en": "Kun Ka", "name_my": "ကွန်က"}, "geometry": {"type": "Polygon", "coordinates": [[[98.78971506130108, 22.539561813626857], [98.78485027312166, 22.538235052805476], [98.77777421840551, 22.534697026346755], [98.76701271676353, 22.53779280039748], [98.76221008702595, 22.54243477434539], [98.76323872708565, 22.55092283751901], [98.77048532833527, 22.56318631759456], [98.77605963844161, 22.56959677237319], [98.79194641959162, 22.579351813035768], [98.80050559215942, 22.581277626661176], [98.80365246928608, 22.574613650299796], [98.80448861575707, 22.56179273894378], [98.8034051557234, 22.554827639883737], [98.80121365088934, 22.55371392395847], [98.79428501304295, 22.54472143734448], [98.78971506130108, 22.539561813626857]]]}}]}