{"type": "FeatureCollection", "features": [{"type": "Feature", "properties": {"source_pcode": "MMR015005005", "entity_type": "village_tract", "name_en": "Kawng Par", "name_my": "ကောင်ပါ"}, "geometry": {"type": "Polygon", "coordinates": [[[98.54174037731661, 22.788603583688477], [98.5443101945599, 22.794200075573084], [98.54453862325892, 22.79631303721691], [98.54363776067419, 22.79812775489205], [98.54488126585778, 22.802097982935607], [98.54777980599329, 22.807913196237052], [98.57036762726426, 22.8087346387926], [98.57733551332336, 22.805668768998544], [98.58653312360487, 22.79229042726143], [98.60465431714306, 22.791036080750587], [98.60186247437377, 22.78197795531844], [98.6001901814318, 22.770271904724666], [98.59573073388634, 22.759123287210006], [98.58820541564745, 22.758008424649113], [98.57872909107476, 22.758565855929536], [98.57008891117437, 22.76051686406208], [98.52612892720828, 22.75815342414125], [98.52515954257888, 22.757844098726256], [98.52083919137561, 22.762676976261503], [98.51884044543027, 22.76593207960184], [98.51832648018298, 22.767588183847632], [98.51838358803225, 22.770215108940192], [98.51924019407977, 22.77432681742874], [98.52146736872413, 22.77689663557134], [98.525579078112, 22.778552740716464], [98.53031896394907, 22.78106545100979], [98.53682916973048, 22.78512005344777], [98.53979734617064, 22.786434160807914], [98.54174037731661, 22.788603583688477]]]}}]}