{"type": "FeatureCollection", "features": [{"type": "Feature", "properties": {"source_pcode": "MMR015005002", "entity_type": "village_tract", "name_en": "Mut Hai", "name_my": "မွတ်ဟိုင်း"}, "geometry": {"type": "Polygon", "coordinates": [[[98.60914045476824, 22.745668652386428], [98.60074761181289, 22.757450994268023], [98.59672735268526, 22.76161483375762], [98.6001901814318, 22.770271904724666], [98.60186247437377, 22.78197795531844], [98.60465431714306, 22.791036080750587], [98.61942154756645, 22.79117556470061], [98.63196374373183, 22.79173299598101], [98.64251758831608, 22.788813409011652], [98.63586576089621, 22.772780344137622], [98.62805304271382, 22.74543483135244], [98.62471714158289, 22.746859806235147], [98.61914283327519, 22.749925676928516], [98.61273237669786, 22.74908952955821], [98.60914045476824, 22.745668652386428]]]}}]}