{"type": "FeatureCollection", "features": [{"type": "Feature", "properties": {"source_pcode": "MMR015005702", "entity_type": "village_tract", "name_en": "Urban", "name_my": ""}, "geometry": {"type": "Polygon", "coordinates": [[[98.60743678268142, 22.68805084437105], [98.5995692616122, 22.68703829588071], [98.59869674296039, 22.687338401446134], [98.59709266629358, 22.687290597083457], [98.59461587222478, 22.686657265720264], [98.59303767624783, 22.685868168181454], [98.5921127963685, 22.687993391182083], [98.59119458226422, 22.693847004635586], [98.59337534019983, 22.694076558386477], [98.59424764391372, 22.69272219287495], [98.59399513496754, 22.6909775863466], [98.59532654528391, 22.690403702868654], [98.59973397244494, 22.691161228807676], [98.60662057597887, 22.691505559434063], [98.60743678268142, 22.68805084437105]]]}}]}