{"type": "FeatureCollection", "features": [{"type": "Feature", "properties": {"source_pcode": "MMR015005015", "entity_type": "village_tract", "name_en": "Kun Pei", "name_my": "ကွမ်ပါယ်"}, "geometry": {"type": "Polygon", "coordinates": [[[98.9114470209633, 22.54725214936724], [98.90872819864751, 22.544233664851784], [98.8981802913874, 22.520034405063768], [98.88502110903698, 22.52431181633733], [98.88371022124977, 22.52588585205046], [98.88502110903698, 22.527721095851916], [98.88810569642084, 22.53957240314395], [98.88921288866398, 22.549488837939585], [98.89541129589463, 22.55872930990978], [98.90076873628823, 22.56976888372708], [98.90482740276246, 22.573340510656067], [98.90853486239405, 22.575802873303985], [98.91207278543078, 22.567924479431213], [98.91263021581187, 22.55566099935567], [98.9114470209633, 22.54725214936724]]]}}]}