{"type": "FeatureCollection", "features": [{"type": "Feature", "properties": {"source_pcode": "MMR015005025", "entity_type": "village_tract", "name_en": "Nam Noke", "name_my": "နမ့်နုတ်"}, "geometry": {"type": "Polygon", "coordinates": [[[98.71082961789261, 22.5982873031166], [98.70981460256189, 22.59351673510929], [98.70480239841203, 22.579512041647437], [98.70170662256265, 22.57317307577688], [98.69588684430249, 22.565026480687607], [98.69079770495017, 22.565507349984262], [98.68843901974505, 22.572141151393048], [98.67192822420822, 22.569340212880547], [98.65938957766696, 22.567808775354763], [98.66116672256624, 22.569929883957002], [98.66588409387589, 22.579217207008515], [98.67413949074496, 22.590715796596786], [98.68549066256406, 22.60339372923726], [98.68913583515075, 22.605438580725945], [98.68902869082149, 22.60368856477549], [98.70170662256265, 22.596612509160014], [98.70789817156344, 22.597054763366714], [98.71082961789261, 22.5982873031166]]]}}]}