{"type": "FeatureCollection", "features": [{"type": "Feature", "properties": {"source_pcode": "MMR015005034", "entity_type": "village_tract", "name_en": "Yawng Lan", "name_my": "ယောင်လန်း"}, "geometry": {"type": "Polygon", "coordinates": [[[98.6871201621658, 22.410771554563667], [98.69050286941194, 22.433420983891324], [98.69035545074354, 22.45111112337968], [98.68969246063858, 22.456126574082187], [98.7123207064355, 22.451258540249455], [98.72131319304947, 22.462609712068623], [98.72779957668916, 22.46423130842817], [98.73090386731968, 22.464456581406186], [98.72647281676711, 22.45066886917299], [98.72779957668916, 22.43813835520097], [98.7298634272554, 22.43032520984058], [98.73231282977332, 22.430702041965734], [98.7304530983319, 22.428556195711895], [98.71605010322975, 22.41753349587418], [98.70583432189648, 22.41720502389279], [98.69492540428405, 22.41602568173988], [98.6871201621658, 22.410771554563667]]]}}]}