{"type": "FeatureCollection", "features": [{"type": "Feature", "properties": {"source_pcode": "MMR015005067", "entity_type": "village_tract", "name_en": "Kone Hkar", "name_my": "ကုန်းခါး"}, "geometry": {"type": "Polygon", "coordinates": [[[98.80436743840664, 22.430585351332923], [98.8195573259099, 22.429134395036325], [98.82925623268903, 22.431113764188922], [98.83647679227022, 22.433038041772246], [98.83539008478466, 22.431516511178078], [98.83382768360076, 22.426438042281855], [98.82288996609913, 22.426828450572597], [98.81273367222127, 22.420968497797958], [98.80687429501279, 22.416671233090995], [98.80023354364317, 22.416671088300127], [98.79755529963745, 22.413227317087085], [98.79441934117972, 22.413299443614502], [98.78768948678044, 22.4103303912346], [98.78056375891043, 22.40795514771196], [98.77957407388448, 22.410726264705378], [98.78293900063443, 22.418643740416314], [98.78848891393227, 22.42072933209306], [98.79758633074465, 22.42774883743897], [98.80436743840664, 22.430585351332923]]]}}]}