{"type": "FeatureCollection", "features": [{"type": "Feature", "properties": {"source_pcode": "MMR015314001", "entity_type": "village_tract", "name_en": "Wein Kawng", "name_my": "ဝိန်း ကောင်"}, "geometry": {"type": "Polygon", "coordinates": [[[98.93911802807457, 22.345094565561798], [99.00854999508624, 22.305560946680373], [99.01750047526679, 22.290054835961936], [99.01869020458935, 22.276967799924083], [99.03010583621545, 22.261689596297856], [99.02767068255599, 22.249765220888264], [99.01419398736266, 22.24404682590034], [99.00182078999751, 22.251899046803597], [98.99325473042154, 22.250471370357502], [98.98326099439942, 22.243808879676124], [98.96779449791781, 22.24428477212455], [98.95494540810415, 22.23286335875706], [98.94875880987126, 22.22120400006457], [98.9403671953898, 22.215149781137544], [98.9400399096142, 22.217031486613855], [98.93640394158871, 22.221879417900883], [98.93438389969725, 22.227131383106894], [98.93034397599376, 22.23076730616629], [98.92877912775458, 22.23467933278505], [98.92978897737947, 22.24154478696238], [98.92751566571548, 22.24847137885109], [98.92064788409266, 22.250895242421564], [98.9125682201473, 22.250491077201495], [98.90570034409564, 22.25695494361582], [98.90004453382825, 22.258570832877687], [98.89196504255273, 22.2508946578622], [98.88146156809694, 22.246450435838987], [98.87095813680861, 22.240390213937243], [98.86573123301008, 22.240252553812354], [98.86085859105117, 22.23837000657062], [98.85560676434073, 22.239985902127717], [98.84937818935202, 22.256957965337897], [98.8517576506951, 22.286998659960254], [98.86901547708266, 22.347103620435796], [98.89293351437027, 22.34511108880576], [98.91409952907009, 22.338811423308584], [98.93911802807457, 22.345094565561798]]]}}]}