{"type": "FeatureCollection", "features": [{"type": "Feature", "properties": {"source_pcode": "MMR015005048", "entity_type": "village_tract", "name_en": "Ton Nauk", "name_my": "တုံနောက်"}, "geometry": {"type": "Polygon", "coordinates": [[[98.67171620903588, 22.38815092602448], [98.6642941941218, 22.38815076414647], [98.65843463974687, 22.3908851780086], [98.65257506558687, 22.394400889589413], [98.64916947059464, 22.3926979252691], [98.64229724272366, 22.40364258463763], [98.63468315870085, 22.42140877979142], [98.6383169620582, 22.425607840329633], [98.64545763755996, 22.429727461053517], [98.65350099677363, 22.428703614380364], [98.65895545602956, 22.42840877884214], [98.66108880800215, 22.42970960321565], [98.6707488820553, 22.408212538178123], [98.67592917399224, 22.399252032355438], [98.67487657959055, 22.393470755870734], [98.67171620903588, 22.38815092602448]]]}}]}