{"type": "FeatureCollection", "features": [{"type": "Feature", "properties": {"source_pcode": "MMR015005007", "entity_type": "village_tract", "name_en": "Mut Pa Lawt", "name_my": "မွတ်ပလော့"}, "geometry": {"type": "Polygon", "coordinates": [[[98.66126229621807, 22.867718007080434], [98.6674940107401, 22.858882215641813], [98.67120135705704, 22.833406527389386], [98.66730628805482, 22.83034828924217], [98.65191298559586, 22.80763378317261], [98.64251758831608, 22.788813409011652], [98.63196374373183, 22.79173299598101], [98.6285341080627, 22.79158056808881], [98.63051254192033, 22.80500565838446], [98.63426700641725, 22.817583111571363], [98.63652550894517, 22.822377245413566], [98.6365227714088, 22.823855776722784], [98.638593957745, 22.823855774024818], [98.64104956108844, 22.823170489726348], [98.64424755657956, 22.82431263142285], [98.64607498257442, 22.82671112781634], [98.64727423122088, 22.8298520163575], [98.64790240856934, 22.83270736924976], [98.6471628277024, 22.83621323685145], [98.64834035142616, 22.84008605572693], [98.65094847079537, 22.84278167823191], [98.65195701100731, 22.84471698510083], [98.65750710327025, 22.851537624261994], [98.65989489233544, 22.856081290619095], [98.6615509965813, 22.860478534756616], [98.66160810443051, 22.86447602934532], [98.66126229621807, 22.867718007080434]]]}}]}