{"type": "FeatureCollection", "features": [{"type": "Feature", "properties": {"source_pcode": "MMR015005012", "entity_type": "village_tract", "name_en": "Loi Hsin", "name_my": "လွယ်ဆင်(မ်)"}, "geometry": {"type": "Polygon", "coordinates": [[[98.62337556443083, 22.693749950699726], [98.61858540199478, 22.693067722297602], [98.61036036174136, 22.690949065247192], [98.61217494631677, 22.69613359209165], [98.61189623112625, 22.702822762960178], [98.60938779171329, 22.711462942860567], [98.6035347673157, 22.71843082891968], [98.59935403496081, 22.72484128459763], [98.60141652934942, 22.736533399296995], [98.60687935230033, 22.743515221250505], [98.61273237669786, 22.74908952955821], [98.61914283327519, 22.749925676928516], [98.62471714158289, 22.746859806235147], [98.62805304271382, 22.74543483135244], [98.62443842729164, 22.732366601937194], [98.62583200414372, 22.724562569407112], [98.62917659002767, 22.717594683348], [98.62889787393777, 22.70700349531512], [98.62337556443083, 22.693749950699726]]]}}]}