{"type": "FeatureCollection", "features": [{"type": "Feature", "properties": {"source_pcode": "MMR015005047", "entity_type": "village_tract", "name_en": "Man Htan", "name_my": "မန်ထန်"}, "geometry": {"type": "Polygon", "coordinates": [[[98.69487958922173, 22.510074322571985], [98.6946305678465, 22.49681064619443], [98.69659801019009, 22.492979313044884], [98.69241930130977, 22.47926792627384], [98.68969246063858, 22.456126574082187], [98.67803643123636, 22.458762360194832], [98.67123528128326, 22.473746126682432], [98.6670634360288, 22.47646698686202], [98.6442136737221, 22.487081069835543], [98.63485863531781, 22.493247908164495], [98.63465820341344, 22.49467675462859], [98.63489848068042, 22.495656262926218], [98.64318175023766, 22.500938344628935], [98.66955846475139, 22.522693476422823], [98.68489502268721, 22.51410085806821], [98.68976577966708, 22.509635996604], [98.69487958922173, 22.510074322571985]]]}}]}