{"type": "FeatureCollection", "features": [{"type": "Feature", "properties": {"source_pcode": "MMR015005026", "entity_type": "village_tract", "name_en": "Ho Nam Mar", "name_my": "ဟိုနမ့်မာ"}, "geometry": {"type": "Polygon", "coordinates": [[[98.71257390875894, 22.553948310666044], [98.71101742781212, 22.552754272691576], [98.70878267907744, 22.556957115778346], [98.70155920569283, 22.56300124700999], [98.69588684430249, 22.565026480687607], [98.70170662256265, 22.57317307577688], [98.70480239841203, 22.579512041647437], [98.70981460256189, 22.59351673510929], [98.71082961789261, 22.5982873031166], [98.72724216699248, 22.604977418273283], [98.73310661907527, 22.59808668685116], [98.7406701477092, 22.585925727690217], [98.73369629015173, 22.580543966930577], [98.72544089238336, 22.569929883957], [98.71453197387154, 22.556957115778346], [98.71257390875894, 22.553948310666044]]]}}]}