{"type": "FeatureCollection", "features": [{"type": "Feature", "properties": {"source_pcode": "MMR015005039", "entity_type": "village_tract", "name_en": "Hpan Htu", "name_my": "ဖန်ထူ"}, "geometry": {"type": "Polygon", "coordinates": [[[98.72329501285463, 22.66807415879544], [98.71600615156268, 22.666930809309456], [98.7036230553598, 22.663097944614492], [98.70042492856766, 22.659340147230058], [98.69917021243543, 22.66201687767682], [98.69880122869381, 22.674931263666956], [98.69677182575919, 22.68249540383988], [98.68883870274402, 22.68784564965705], [98.68787994900049, 22.693598172118012], [98.69634701570226, 22.699199461885705], [98.70582334207364, 22.701986617388517], [98.71948039990059, 22.700035609256012], [98.731431245056, 22.70220848913049], [98.7275631476212, 22.68860827475214], [98.72329501285463, 22.66807415879544]]]}}]}