{"type": "FeatureCollection", "features": [{"type": "Feature", "properties": {"source_pcode": "MMR015005064", "entity_type": "village_tract", "name_en": "Hsan Lu", "name_my": "ဆန်လု"}, "geometry": {"type": "Polygon", "coordinates": [[[98.83433474115543, 22.55275410182037], [98.83319630916242, 22.55120155091089], [98.82734328386552, 22.545627241703873], [98.82386803907877, 22.544286106118932], [98.81566059675919, 22.55504068477984], [98.81020613840263, 22.55828387659966], [98.8034051557234, 22.554827639883737], [98.80448861575707, 22.56179273894378], [98.80365246928608, 22.574613650299796], [98.80050559215942, 22.581277626661176], [98.80309503890498, 22.581860252448728], [98.81647338064204, 22.579073098744573], [98.82078356141227, 22.575512514590905], [98.82065411299698, 22.574056219019326], [98.83124530013055, 22.567088332960225], [98.83433474115543, 22.55275410182037]]]}}]}