{"type": "FeatureCollection", "features": [{"type": "Feature", "properties": {"source_pcode": "MMR015317003", "entity_type": "village_tract", "name_en": "Dein Aw", "name_my": "ဒိန်း အော"}, "geometry": {"type": "Polygon", "coordinates": [[[99.26080303193442, 22.376464719870974], [99.26594224823623, 22.37310894282347], [99.27219531086496, 22.36747626761569], [99.27646180167085, 22.361436509787165], [99.27729578527232, 22.3561666723541], [99.27736473539426, 22.34996190421856], [99.27603896922312, 22.346798375244873], [99.269561861191, 22.344675522857123], [99.26330538023916, 22.341634136206494], [99.25849579874216, 22.337415763626655], [99.25288144991902, 22.33093496927347], [99.25041350158187, 22.322322948944983], [99.24524110659183, 22.31400650699476], [99.23715083963958, 22.307131411185708], [99.23341286780965, 22.29718278695611], [99.23319082699516, 22.28942989437417], [99.23350076035189, 22.283033137169582], [99.22939251515254, 22.268758095809517], [99.22963897975518, 22.26274219339757], [99.20134565977446, 22.2657794629519], [99.17606388603957, 22.264589732730034], [99.15650767039273, 22.25561899082379], [99.14736694672729, 22.27457076942551], [99.15479086460675, 22.29855573515908], [99.16773513237052, 22.3182767084034], [99.17915654573807, 22.348733808918215], [99.1885238104256, 22.354175815261723], [99.19321147173207, 22.351441376218588], [99.20180520884338, 22.358473247242603], [99.20922714821438, 22.36159860359271], [99.22563372761448, 22.361208316710474], [99.23983351190714, 22.365528340560505], [99.25187015778164, 22.362600669585277], [99.26080303193442, 22.376464719870974]]]}}]}