{"type": "FeatureCollection", "features": [{"type": "Feature", "properties": {"source_pcode": "MMR015005060", "entity_type": "village_tract", "name_en": "Hta Mon", "name_my": "ထမုံ"}, "geometry": {"type": "Polygon", "coordinates": [[[98.73014232320969, 22.510565200423677], [98.73679206420246, 22.511110175194453], [98.74946999684295, 22.50919374329669], [98.75684088709733, 22.504181537348124], [98.76198047122182, 22.501197147930103], [98.76804464204668, 22.495631304041524], [98.76566126415605, 22.480832504716375], [98.76170567527674, 22.48236370032459], [98.74888032486717, 22.47587731578557], [98.73811882412451, 22.46762191801712], [98.73354887238264, 22.465852903888447], [98.73090386731968, 22.464456581406186], [98.72607004999287, 22.46379892697893], [98.72735732428117, 22.47012802099141], [98.72556244295242, 22.47621500671721], [98.72794699535763, 22.47808858322156], [98.72971600858699, 22.48162661057967], [98.72971600858699, 22.48752332404223], [98.72883150197231, 22.502117687681164], [98.73014232320969, 22.510565200423677]]]}}]}