{"type": "FeatureCollection", "features": [{"type": "Feature", "properties": {"source_pcode": "MMR015005073", "entity_type": "village_tract", "name_en": "Hlei Pawng", "name_my": "လှယ်ပေါင်း"}, "geometry": {"type": "Polygon", "coordinates": [[[98.8981802913874, 22.520034405063768], [98.89797531790663, 22.518558415238722], [98.89005426289395, 22.506328362064323], [98.88475866887751, 22.502147629709377], [98.87444619693451, 22.498524328634907], [98.86783406289175, 22.493856939845955], [98.86732532180622, 22.498011654814096], [98.86748766922062, 22.503206748692545], [98.86911113617003, 22.50986296210607], [98.86878644224055, 22.516194481590105], [98.86626421981794, 22.52000549365863], [98.86737078613295, 22.52507244583677], [98.86894878875563, 22.52577293587234], [98.87463092217939, 22.523987122407846], [98.88144948300732, 22.527234056306725], [98.88371022124977, 22.52588585205046], [98.88502110903698, 22.52431181633733], [98.8981802913874, 22.520034405063768]]]}}]}