{"type": "Feature", "properties": {"settlement_id": 167114, "public_id": "7d372f85-60c1-4f4c-893c-c6ebde8155ea", "canonical_name": "\u101d\u1031\u1038\u101c\u1036\u1000\u102d\u1004\u103a\u1016\u102f\u101b\u103d\u102c", "name_en": "Woilan Kingphu", "name_mm": "\u101d\u1031\u1038\u101c\u1036\u1000\u102d\u1004\u103a\u1016\u102f\u101b\u103d\u102c", "township_id": 6692, "township_name": "\u101c\u101f\u101a\u103a", "distance_m": 39.2}, "geometry": {"type": "Point", "coordinates": [95.1451274, 26.2787662]}}