{"type": "FeatureCollection", "features": [{"type": "Feature", "properties": {"source_pcode": "189128", "name_en": "Kone", "name_my": "\u1000\u102f\u1014\u103a\u1038", "vt_name": "Kone"}, "geometry": {"type": "Point", "coordinates": [94.49497986, 21.04855919]}}, {"type": "Feature", "properties": {"settlement_id": 169991, "public_id": "cdc7f68c-8207-4f0c-a32a-20da61086f43", "canonical_name": "\u1000\u102f\u1014\u103a\u1038\u101b\u103d\u102c", "name_en": "Kon Yw\u0101", "name_mm": "\u1000\u102f\u1014\u103a\u1038\u101b\u103d\u102c", "township_id": 6916, "township_name": "\u1006\u102d\u1015\u103a\u1016\u103c\u1030", "distance_m": 59.9}, "geometry": {"type": "Point", "coordinates": [94.4944593, 21.0483267]}}]}