{"type": "FeatureCollection", "features": [{"type": "Feature", "properties": {"source_pcode": "189254", "name_en": "Sa Kar", "name_my": "\u1005\u1000\u102c\u1038", "vt_name": "Sa Kar"}, "geometry": {"type": "Point", "coordinates": [94.37029266, 22.00202942]}}, {"type": "Feature", "properties": {"settlement_id": 170018, "public_id": "8f5e07e4-46fa-41ce-9a89-6202e8eac0ce", "canonical_name": "\u1005\u1036\u1000\u102c\u1038", "name_en": "Za Ga", "name_mm": "\u1005\u1036\u1000\u102c\u1038", "township_id": 6809, "township_name": "\u1002\u1014\u103a\u1037\u1002\u1031\u102b", "distance_m": 93.1}, "geometry": {"type": "Point", "coordinates": [94.3710824, 22.0024349]}}]}