{"type": "Feature", "properties": {"settlement_id": 169759, "public_id": "5be08026-3a83-4eeb-9f76-117542b2037b", "canonical_name": "\u1000\u103b\u103d\u1014\u103a\u1038\u101e\u102c\u101a\u102c (\u1000\u103b\u103d\u1014\u103a\u1038\u1000\u103c\u102e\u101b\u103d\u102c\u101e\u1005\u103a)", "name_en": null, "name_mm": "\u1000\u103b\u103d\u1014\u103a\u1038\u101e\u102c\u101a\u102c (\u1000\u103b\u103d\u1014\u103a\u1038\u1000\u103c\u102e\u101b\u103d\u102c\u101e\u1005\u103a)", "township_id": 6187, "township_name": "\u101b\u103d\u102c\u1004\u1036", "distance_m": 126.5}, "geometry": {"type": "Point", "coordinates": [96.3558633, 21.4814265]}}