{"type": "FeatureCollection", "features": [{"type": "Feature", "properties": {"source_pcode": "209638", "name_en": "Ma Gyi Yae", "name_my": "\u1019\u1000\u103b\u102e\u1038\u101b\u1031", "vt_name": "Taung Shey"}, "geometry": {"type": "Point", "coordinates": [96.94384003, 22.04956055]}}, {"type": "Feature", "properties": {"settlement_id": 172987, "public_id": "6322e47a-519b-4587-8e28-195e50aa22f4", "canonical_name": "\u1019\u1014\u103a\u1000\u103b\u100a\u103a\u1038\u101b\u1031", "name_en": "Magyee Yay", "name_mm": "\u1019\u1014\u103a\u1000\u103b\u100a\u103a\u1038\u101b\u1031", "township_id": 6524, "township_name": "\u1014\u1031\u102c\u1004\u103a\u1001\u103b\u102d\u102f", "distance_m": 135.9}, "geometry": {"type": "Point", "coordinates": [96.9446661, 22.0486044]}}]}