{"type": "FeatureCollection", "features": [{"type": "Feature", "properties": {"source_pcode": "219883", "name_en": "Ya Da Nar Thein Gi", "name_my": "\u101b\u1010\u1014\u102c\u101e\u1004\u103a\u1039\u1002\u102e", "vt_name": "Doe Pin"}, "geometry": {"type": "Point", "coordinates": [96.4916461, 22.5685234]}}, {"type": "Feature", "properties": {"settlement_id": 172052, "public_id": "d1133f7f-f8d8-48c6-916d-1fba0cbe0421", "canonical_name": "\u101b\u1010\u1014\u102c\u101e\u102d\u1004\u103a\u1039\u1002\u102e", "name_en": "Yadan\u0101 Theing\u012b", "name_mm": "\u101b\u1010\u1014\u102c\u101e\u102d\u1004\u103a\u1039\u1002\u102e", "township_id": 6524, "township_name": "\u1014\u1031\u102c\u1004\u103a\u1001\u103b\u102d\u102f", "distance_m": 36.1}, "geometry": {"type": "Point", "coordinates": [96.4919892, 22.5684528]}}]}